{"type": "FeatureCollection", "features": [{"id": "0", "type": "Feature", "properties": {"org_name": "Town of Basalt", "org_short": "BASALT", "category": "Governance & Policy", "website": "basalt.net", "source": "Colorado DOLA - Municipal Boundaries", "pulldate": "2026-07-28", "srcurl": "https://services3.arcgis.com/DgjqnJA1rgO92Soi/arcgis/rest/services/Municipal_Boundary/FeatureServer/0", "caveat": "Real official municipal boundary from Colorado DOLA, 7/28/26. ~5.2 sq km. Straddles Eagle/Pitkin/Garfield county lines - included since it sits within the Roaring Fork watershed and RFWSD/MVMD both serve it."}, "geometry": {"type": "MultiPolygon", "coordinates": [[[[-107.016993259, 39.347224219], [-107.016835087, 39.34714698], [-107.016276773, 39.346959914], [-107.015770582, 39.346834833], [-107.015397461, 39.346788452], [-107.014944707, 39.346765859], [-107.014001223, 39.346762803], [-107.013545676, 39.34676583], [-107.013348725, 39.346768946], [-107.01323995, 39.34662514], [-107.013338874, 39.346621358], [-107.01301438, 39.346208516], [-107.012929537, 39.34616541], [-107.013230296, 39.345864471], [-107.015260982, 39.343968653], [-107.015247863, 39.343458385], [-107.019890405, 39.343422875], [-107.019935459, 39.347072674], [-107.024630482, 39.347081605], [-107.024639768, 39.347797489], [-107.028174719, 39.347760636], [-107.02801431, 39.347856057], [-107.026678537, 39.348650634], [-107.025199842, 39.349410637], [-107.024455542, 39.350196066], [-107.024413504, 39.350746489], [-107.024416212, 39.350866486], [-107.022774851, 39.350030211], [-107.021588793, 39.349466884], [-107.020656079, 39.349011038], [-107.020096579, 39.348719986], [-107.019172166, 39.348289766], [-107.018890007, 39.348153374], [-107.018043025, 39.347745057], [-107.017630193, 39.347542519], [-107.016993259, 39.347224219]]], [[[-107.035168776, 39.354318508], [-107.038708802, 39.354336838], [-107.03874943, 39.354337263], [-107.039479026, 39.354370407], [-107.040337699, 39.356180612], [-107.039690768, 39.357844524], [-107.039073957, 39.357851064], [-107.038206428, 39.357441238], [-107.037658331, 39.357138764], [-107.037364242, 39.356976465], [-107.033826931, 39.355280376], [-107.033823115, 39.355278549], [-107.033822828, 39.355210437], [-107.033819009, 39.354311491], [-107.034607757, 39.354315594], [-107.035168776, 39.354318508]]], [[[-107.037073878, 39.357159971], [-107.037073878, 39.35715997], [-107.037195548, 39.35721834], [-107.037259193, 39.35724848], [-107.037256898, 39.357286803], [-107.037269698, 39.357873945], [-107.037275317, 39.35813173], [-107.037278022, 39.358145413], [-107.037290791, 39.358424892], [-107.037291698, 39.358871761], [-107.037356242, 39.361832354], [-107.037071186, 39.361822986], [-107.036332582, 39.361832686], [-107.036331653, 39.361424709], [-107.036331821, 39.361026873], [-107.035537715, 39.361027172], [-107.035555077, 39.361825939], [-107.035655915, 39.361841568], [-107.035938729, 39.362020212], [-107.036019039, 39.362138489], [-107.036094293, 39.362249322], [-107.03610086, 39.362266034], [-107.036138076, 39.362362584], [-107.03619062, 39.362494469], [-107.036191419, 39.362507146], [-107.036153282, 39.362507647], [-107.036158335, 39.362521241], [-107.036678929, 39.362511639], [-107.036940833, 39.362506648], [-107.036979976, 39.362506064], [-107.036998124, 39.362505751], [-107.037086533, 39.36250459], [-107.037174951, 39.362503772], [-107.037225176, 39.362503112], [-107.037255718, 39.362502711], [-107.037258558, 39.362485168], [-107.037277791, 39.362396359], [-107.037288654, 39.362343026], [-107.037809458, 39.362336327], [-107.037755512, 39.361016576], [-107.038286026, 39.361009604], [-107.038293446, 39.361601556], [-107.03830243, 39.362137846], [-107.038306587, 39.362488901], [-107.038324053, 39.36291429], [-107.038342437, 39.363361981], [-107.038369007, 39.364012418], [-107.038373491, 39.364122239], [-107.038395588, 39.3646632], [-107.038398651, 39.364901644], [-107.038382412, 39.364901571], [-107.038070611, 39.364899752], [-107.037945825, 39.36489126], [-107.03773828, 39.364877134], [-107.037071519, 39.364730173], [-107.036504126, 39.364539979], [-107.035781788, 39.364260316], [-107.035294568, 39.364091686], [-107.035266333, 39.364035159], [-107.035029954, 39.36396091], [-107.035389234, 39.363398978], [-107.035055297, 39.36332174], [-107.034659068, 39.363238724], [-107.034035405, 39.363107888], [-107.033948346, 39.363089808], [-107.03384891, 39.363069377], [-107.033848816, 39.363108274], [-107.033848607, 39.363464562], [-107.033844829, 39.36416432], [-107.034389159, 39.364283633], [-107.034974435, 39.364543561], [-107.035086967, 39.364492094], [-107.035403845, 39.364614406], [-107.036474367, 39.364988449], [-107.037151461, 39.36517958], [-107.037691056, 39.36525483], [-107.038390461, 39.365270477], [-107.038401041, 39.365267189], [-107.038404742, 39.365489782], [-107.038411546, 39.365803849], [-107.038420356, 39.366167], [-107.038421234, 39.366203181], [-107.038423855, 39.366333139], [-107.038380999, 39.366889292], [-107.038378004, 39.366981661], [-107.0383669, 39.367512101], [-107.038664245, 39.367385971], [-107.039017446, 39.367400768], [-107.038962329, 39.367419522], [-107.039018283, 39.367421864], [-107.039802049, 39.367529108], [-107.040212032, 39.367602405], [-107.040201628, 39.367660383], [-107.040122889, 39.367963084], [-107.041022837, 39.367916289], [-107.041024214, 39.368000323], [-107.041794594, 39.368232587], [-107.042790019, 39.368688283], [-107.044178078, 39.368591854], [-107.04512002, 39.368367325], [-107.046543416, 39.368674274], [-107.047321917, 39.368591848], [-107.0493424, 39.368240986], [-107.050768555, 39.367990586], [-107.051451997, 39.367895744], [-107.052137109, 39.367833526], [-107.053133505, 39.367790815], [-107.054011723, 39.367681483], [-107.054705611, 39.367552104], [-107.055513945, 39.367346044], [-107.056148133, 39.367142321], [-107.058307388, 39.366316166], [-107.058929718, 39.366069721], [-107.060596602, 39.366070406], [-107.060721748, 39.366104928], [-107.061891529, 39.366546192], [-107.063215762, 39.367084153], [-107.064189352, 39.367560938], [-107.065243154, 39.36812218], [-107.065244857, 39.368117626], [-107.066104041, 39.368563003], [-107.066954223, 39.368886244], [-107.067727832, 39.369151082], [-107.068937463, 39.369585537], [-107.069216999, 39.369797757], [-107.06951886, 39.369927327], [-107.070516842, 39.370394783], [-107.070601544, 39.370403037], [-107.070641428, 39.370419527], [-107.070663705, 39.370417416], [-107.072280321, 39.37109252], [-107.072472975, 39.37115523], [-107.072661397, 39.37119787], [-107.072811347, 39.371217712], [-107.073014178, 39.371232258], [-107.075253134, 39.371062732], [-107.075941235, 39.370899392], [-107.076199964, 39.370739884], [-107.077762243, 39.370206135], [-107.078119319, 39.370179572], [-107.078575006, 39.370145665], [-107.078739866, 39.370151954], [-107.079401616, 39.370321237], [-107.080363304, 39.370892951], [-107.080751447, 39.371436104], [-107.081166842, 39.372017357], [-107.08121705, 39.372290478], [-107.081266445, 39.372300191], [-107.081241112, 39.372500466], [-107.082057146, 39.372851135], [-107.083301913, 39.373360811], [-107.083672623, 39.373611362], [-107.08373182, 39.373822713], [-107.083798432, 39.374343653], [-107.083856345, 39.374853726], [-107.083994454, 39.376238755], [-107.084052146, 39.376305854], [-107.084090251, 39.376649105], [-107.084825458, 39.376650081], [-107.084848657, 39.376311163], [-107.085362689, 39.376302234], [-107.085372227, 39.378718478], [-107.085375421, 39.37961486], [-107.085375515, 39.3796411], [-107.085375571, 39.379656999], [-107.085378812, 39.379667335], [-107.085386903, 39.379693559], [-107.085394887, 39.379719785], [-107.08540273, 39.379746012], [-107.085410434, 39.379772296], [-107.085418031, 39.379798582], [-107.085425522, 39.379824897], [-107.085432767, 39.379851242], [-107.085439977, 39.379877615], [-107.085447044, 39.379904018], [-107.085453971, 39.379930395], [-107.085460758, 39.379956829], [-107.085484943, 39.380113377], [-107.085517564, 39.380269015], [-107.085517908, 39.380271077], [-107.085521938, 39.380295208], [-107.085526174, 39.380321484], [-107.085530267, 39.380347734], [-107.0855326, 39.380363355], [-107.085534219, 39.380373987], [-107.085537995, 39.380400269], [-107.085541665, 39.380426581], [-107.085545158, 39.380452895], [-107.085548545, 39.38047921], [-107.085551757, 39.380505555], [-107.085554825, 39.380531903], [-107.085557754, 39.380558251], [-107.08556054, 39.380584602], [-107.085561696, 39.380595814], [-107.085575856, 39.380773151], [-107.085572907, 39.381252414], [-107.085573152, 39.381263312], [-107.085574583, 39.381326944], [-107.085573699, 39.381326956], [-107.085594349, 39.383670289], [-107.085671032, 39.387953888], [-107.085707465, 39.389143981], [-107.086364329, 39.389615839], [-107.086361761, 39.389618018], [-107.086542747, 39.389749101], [-107.08674165, 39.389893176], [-107.08693397, 39.390032506], [-107.087126361, 39.390171836], [-107.087315589, 39.390308901], [-107.087512732, 39.390451709], [-107.087709912, 39.390594542], [-107.087900725, 39.390732739], [-107.088097834, 39.39087549], [-107.088333043, 39.391045897], [-107.088566596, 39.391215037], [-107.088656306, 39.391286671], [-107.088788317, 39.391382655], [-107.089009633, 39.391543573], [-107.089023454, 39.391553622], [-107.088903042, 39.391653332], [-107.0894408, 39.392043622], [-107.089452445, 39.392058671], [-107.089504449, 39.392108372], [-107.089553342, 39.392164803], [-107.089595492, 39.392224418], [-107.089630559, 39.392286735], [-107.089658258, 39.392351248], [-107.089678364, 39.392417431], [-107.08968124, 39.392433101], [-107.089686001, 39.392459062], [-107.089687754, 39.392468611], [-107.089690714, 39.392484752], [-107.08969521, 39.39255266], [-107.089695774, 39.39262252], [-107.089698208, 39.392669222], [-107.089702303, 39.392929235], [-107.089702748, 39.393105849], [-107.089700724, 39.393235116], [-107.089698995, 39.393345582], [-107.088733022, 39.392832626], [-107.08848917, 39.392690356], [-107.088248495, 39.392542776], [-107.088011111, 39.392389959], [-107.087777132, 39.392231977], [-107.087546671, 39.392068907], [-107.087319838, 39.391900826], [-107.087096743, 39.391727815], [-107.086668045, 39.391419737], [-107.08619403, 39.391024209], [-107.08550706, 39.390454259], [-107.08484406, 39.389797729], [-107.082385559, 39.38729434], [-107.082007416, 39.386882754], [-107.081439477, 39.386252326], [-107.081316012, 39.385993486], [-107.080979811, 39.385242536], [-107.080765047, 39.384620404], [-107.080719695, 39.380349341], [-107.079394118, 39.380367235], [-107.078311698, 39.380396499], [-107.078178452, 39.380117028], [-107.077779809, 39.379472767], [-107.077198668, 39.377971097], [-107.077155888, 39.3779583], [-107.076545225, 39.376282409], [-107.076156949, 39.375475113], [-107.076004099, 39.375227922], [-107.07601377, 39.376328422], [-107.076017687, 39.376774257], [-107.072059735, 39.376756859], [-107.070766781, 39.376751153], [-107.068771628, 39.376753939], [-107.06802274, 39.376214154], [-107.06800242, 39.375141448], [-107.067873278, 39.374791259], [-107.067599894, 39.374463429], [-107.0683854, 39.374169195], [-107.068362536, 39.374119498], [-107.068342839, 39.374069017], [-107.068334169, 39.374043513], [-107.068313024, 39.373966114], [-107.068302983, 39.373913938], [-107.068287024, 39.373791353], [-107.067723144, 39.37375478], [-107.067468663, 39.373318947], [-107.067106272, 39.372698219], [-107.066409746, 39.371503116], [-107.065792813, 39.370448443], [-107.0664869, 39.370268797], [-107.067126704, 39.370542349], [-107.067133655, 39.369810956], [-107.06741176, 39.369475219], [-107.067137872, 39.369365589], [-107.066770249, 39.369218413], [-107.066145069, 39.36894804], [-107.065591015, 39.368663888], [-107.065370413, 39.368544809], [-107.064264067, 39.368002615], [-107.06328527, 39.367481113], [-107.062846666, 39.367292503], [-107.062681345, 39.367197998], [-107.062085573, 39.366950551], [-107.06129824, 39.366669274], [-107.060612824, 39.366443692], [-107.060232672, 39.366346063], [-107.059815365, 39.366278282], [-107.059625758, 39.366251455], [-107.059380794, 39.366284074], [-107.058911662, 39.36643704], [-107.058554936, 39.36654449], [-107.057937239, 39.366816764], [-107.057338098, 39.367074154], [-107.056925972, 39.367241016], [-107.056437941, 39.367394224], [-107.056062969, 39.367531235], [-107.055706557, 39.367653336], [-107.055161506, 39.367792633], [-107.054691059, 39.36788689], [-107.054239533, 39.367980923], [-107.053580122, 39.368077686], [-107.052825923, 39.368161068], [-107.051805926, 39.368189261], [-107.051372311, 39.368239027], [-107.050449643, 39.36839797], [-107.048830133, 39.368668801], [-107.047775538, 39.368844133], [-107.046474638, 39.368993382], [-107.045398898, 39.369066273], [-107.043886316, 39.36904222], [-107.041710737, 39.368953539], [-107.039807619, 39.368936884], [-107.039006883, 39.368978446], [-107.038673959, 39.369001524], [-107.03858858, 39.369000888], [-107.038493858, 39.369000102], [-107.037633103, 39.368992165], [-107.036910612, 39.369026891], [-107.03683235, 39.369029786], [-107.036850985, 39.369894455], [-107.03747042, 39.369768381], [-107.038039821, 39.369638706], [-107.038114625, 39.369621604], [-107.038351758, 39.369545363], [-107.038462424, 39.369509913], [-107.038346478, 39.369384438], [-107.038284659, 39.369317261], [-107.038344896, 39.369318337], [-107.038351887, 39.36931613], [-107.038352122, 39.369318818], [-107.038541703, 39.369333131], [-107.03876193, 39.369333339], [-107.039336705, 39.369328526], [-107.039179366, 39.36941366], [-107.039122255, 39.369430886], [-107.038766386, 39.369537495], [-107.038354821, 39.369645192], [-107.038359014, 39.36979685], [-107.038374771, 39.370316338], [-107.0383816, 39.370548252], [-107.038405213, 39.371346679], [-107.038413023, 39.371623558], [-107.038418282, 39.372148318], [-107.038418892, 39.372419471], [-107.037390206, 39.3724172], [-107.0358998, 39.372413758], [-107.034265224, 39.372410154], [-107.03384508, 39.372409126], [-107.033839923, 39.372619285], [-107.033830823, 39.373014104], [-107.033829934, 39.373257844], [-107.033826582, 39.373998245], [-107.033823014, 39.374931908], [-107.033817095, 39.376286084], [-107.033724232, 39.376286615], [-107.029471623, 39.376316177], [-107.029471484, 39.376316289], [-107.028300312, 39.376324393], [-107.024540471, 39.376335368], [-107.024540335, 39.376211282], [-107.02453898, 39.374986976], [-107.024538732, 39.374986979], [-107.024538903, 39.374953998], [-107.024539017, 39.374877468], [-107.024539116, 39.374800224], [-107.02453876, 39.374538349], [-107.024537218, 39.37368988], [-107.024580354, 39.373680393], [-107.024614683, 39.373672752], [-107.02476444, 39.373639882], [-107.024744634, 39.372974336], [-107.024727239, 39.372374495], [-107.024619241, 39.372380021], [-107.024538135, 39.372380804], [-107.024535762, 39.372272672], [-107.024535905, 39.372197487], [-107.024536053, 39.371958919], [-107.024535546, 39.371901096], [-107.023120632, 39.371968753], [-107.023121716, 39.372032005], [-107.022324611, 39.371988117], [-107.021778953, 39.372008668], [-107.021467804, 39.372020347], [-107.021468029, 39.372043904], [-107.020845515, 39.372088407], [-107.020378426, 39.372194015], [-107.01996286, 39.372234615], [-107.019963815, 39.372060622], [-107.019964189, 39.372036947], [-107.019964673, 39.372018377], [-107.019966698, 39.371743073], [-107.019984125, 39.369342682], [-107.019971335, 39.369342864], [-107.01992731, 39.36613294], [-107.019917068, 39.365386133], [-107.02187333, 39.365391709], [-107.024502413, 39.365385302], [-107.024528597, 39.36521981], [-107.024523193, 39.364972705], [-107.024517489, 39.364711916], [-107.024525768, 39.364396115], [-107.024535457, 39.364048934], [-107.024542685, 39.363783922], [-107.024536895, 39.363536865], [-107.024531106, 39.363289808], [-107.024522734, 39.362932572], [-107.024523266, 39.362721472], [-107.024522345, 39.362474349], [-107.024515236, 39.362227309], [-107.02450901, 39.361980256], [-107.024503911, 39.361826207], [-107.024508629, 39.361799029], [-107.02453964, 39.361760869], [-107.024610628, 39.361731112], [-107.024756383, 39.361723721], [-107.024871359, 39.361724282], [-107.025011155, 39.361727609], [-107.025195104, 39.361727957], [-107.025226061, 39.36172824], [-107.025347218, 39.361728377], [-107.025562036, 39.361724891], [-107.025847594, 39.361721167], [-107.025898017, 39.361721883], [-107.02624304, 39.361728024], [-107.026624825, 39.361725791], [-107.026620909, 39.361763446], [-107.026957382, 39.361760109], [-107.02814461, 39.361780995], [-107.027940139, 39.361471243], [-107.027943551, 39.361469632], [-107.026966719, 39.36021994], [-107.026564953, 39.359716498], [-107.025466271, 39.358367633], [-107.025395787, 39.358280518], [-107.025328638, 39.358201418], [-107.025249805, 39.358113546], [-107.025181044, 39.358041675], [-107.025096075, 39.357956286], [-107.024976041, 39.357844237], [-107.02494179, 39.357814135], [-107.024927369, 39.357801623], [-107.024792259, 39.357851094], [-107.024633829, 39.357911542], [-107.024637956, 39.358121732], [-107.024668834, 39.359694227], [-107.022146507, 39.359717251], [-107.021676887, 39.359721531], [-107.02114026, 39.35972642], [-107.017599342, 39.359760384], [-107.017133073, 39.359749268], [-107.015340831, 39.35976082], [-107.015324216, 39.35849379], [-107.010647332, 39.358499688], [-107.010592561, 39.355777807], [-107.010752397, 39.355769694], [-107.014320057, 39.355588553], [-107.014229204, 39.355393051], [-107.014161953, 39.355226076], [-107.014107977, 39.355100805], [-107.013961137, 39.355015865], [-107.013912841, 39.354866837], [-107.013819609, 39.354725255], [-107.013773694, 39.354687063], [-107.013911795, 39.354488598], [-107.013932952, 39.354409931], [-107.013973211, 39.354260235], [-107.014467805, 39.353812605], [-107.015528681, 39.353441718], [-107.015762032, 39.353421339], [-107.015909569, 39.353408452], [-107.016449084, 39.353361333], [-107.016719266, 39.353337734], [-107.016919202, 39.353383539], [-107.017165949, 39.353480119], [-107.017536284, 39.353625074], [-107.018361506, 39.353858727], [-107.018370006, 39.353861134], [-107.01878618, 39.353978967], [-107.019294774, 39.354122965], [-107.019851731, 39.354280652], [-107.019912564, 39.354297875], [-107.020204077, 39.354571771], [-107.020743792, 39.354092761], [-107.020776718, 39.354063539], [-107.020965278, 39.353908555], [-107.020255253, 39.353353961], [-107.019929573, 39.353097052], [-107.020144899, 39.352931072], [-107.019975525, 39.352802753], [-107.019613986, 39.352522586], [-107.019537072, 39.352431827], [-107.019493976, 39.352310413], [-107.019360287, 39.351565291], [-107.019417568, 39.35139224], [-107.019211204, 39.351129937], [-107.018646459, 39.350521836], [-107.018730095, 39.350422926], [-107.017611255, 39.350082532], [-107.016597761, 39.349512361], [-107.015827504, 39.349079019], [-107.015084376, 39.348733102], [-107.014474458, 39.348449187], [-107.014002438, 39.34812544], [-107.013852018, 39.347914234], [-107.013768167, 39.347653297], [-107.013658083, 39.347310721], [-107.013583895, 39.34707985], [-107.013534502, 39.347014551], [-107.014350952, 39.347018081], [-107.01485713, 39.347017294], [-107.015302195, 39.347044225], [-107.015725233, 39.347101364], [-107.016139123, 39.347207485], [-107.016521881, 39.347326398], [-107.016886799, 39.347467171], [-107.017758861, 39.34787791], [-107.018021785, 39.348003075], [-107.019073486, 39.348503731], [-107.01959268, 39.348744851], [-107.020326176, 39.349104841], [-107.02173775, 39.34980997], [-107.022193961, 39.350035795], [-107.022259633, 39.350133355], [-107.024422099, 39.351127252], [-107.024435677, 39.351733719], [-107.024467931, 39.353199232], [-107.024486582, 39.35405709], [-107.024502636, 39.354631348], [-107.024571246, 39.355350919], [-107.024551097, 39.355686873], [-107.024818492, 39.355907525], [-107.025111956, 39.356515701], [-107.025161029, 39.356576845], [-107.025402911, 39.357212122], [-107.025584044, 39.357450716], [-107.026285643, 39.358050545], [-107.028047814, 39.359557039], [-107.028982277, 39.360355882], [-107.029104005, 39.360437393], [-107.030102652, 39.361165221], [-107.03096767, 39.361848893], [-107.031773518, 39.361858942], [-107.032226423, 39.361864682], [-107.032662522, 39.361870298], [-107.033169377, 39.361876358], [-107.033739934, 39.36188364], [-107.033846084, 39.361884996], [-107.033844997, 39.361631697], [-107.033843639, 39.360997249], [-107.033829961, 39.360993434], [-107.033831546, 39.360884705], [-107.033832182, 39.360726941], [-107.033832869, 39.360557133], [-107.03383476, 39.360385211], [-107.033835771, 39.36021333], [-107.033836784, 39.360040728], [-107.033837521, 39.359866553], [-107.033839242, 39.359691512], [-107.033840964, 39.359516334], [-107.033842694, 39.359340359], [-107.03384283, 39.359230435], [-107.033844233, 39.359038461], [-107.033845983, 39.358798964], [-107.033848276, 39.358484921], [-107.03384966, 39.358412599], [-107.033833348, 39.358416993], [-107.033835572, 39.358382057], [-107.033828025, 39.355602548], [-107.037073878, 39.357159971]], [[-107.03434497, 39.358501109], [-107.034376887, 39.358540554], [-107.034379107, 39.3585433], [-107.034431192, 39.358621858], [-107.034433399, 39.358625189], [-107.034379403, 39.358543663], [-107.03434497, 39.358501109]], [[-107.034628243, 39.358907597], [-107.034716979, 39.358960377], [-107.034627057, 39.35890596], [-107.034628243, 39.358907597]], [[-107.035036429, 39.359015182], [-107.035074845, 39.35902129], [-107.034903557, 39.358994052], [-107.035036429, 39.359015182]], [[-107.035343269, 39.359006205], [-107.03536107996693, 39.358991808109884], [-107.035338432, 39.359010038], [-107.035343269, 39.359006205]], [[-107.035597906, 39.358819504], [-107.035669554, 39.358746406], [-107.03570979453312, 39.35870493512771], [-107.035669377, 39.358746047], [-107.035597906, 39.358819504]], [[-107.03579011335913, 39.35863385561607], [-107.0358005565, 39.3586246145], [-107.035863205, 39.358606147], [-107.035800557, 39.358624614], [-107.03579011335913, 39.35863385561607]], [[-107.036079599, 39.358581603], [-107.036149375, 39.358568429], [-107.036030441, 39.358590884], [-107.036079599, 39.358581603]], [[-107.036185061, 39.358561692], [-107.036298322, 39.35860111], [-107.036185061, 39.358561691], [-107.036149375, 39.358568429], [-107.036185061, 39.358561692]], [[-107.036381079, 39.358643678], [-107.036422415, 39.35866494], [-107.03638095992176, 39.358643616656664], [-107.036381079, 39.358643678]], [[-107.036505741, 39.358678116], [-107.036506743, 39.358678274], [-107.036422415, 39.35866494], [-107.036505741, 39.358678116]], [[-107.036817802, 39.358767354], [-107.036883737, 39.358804725], [-107.037075274, 39.358851512], [-107.036883764, 39.358804619], [-107.036817802, 39.358767354]], [[-107.021308286, 39.35402917], [-107.021252524, 39.353985616], [-107.021126244, 39.354034282], [-107.022306647, 39.354977635], [-107.022304939, 39.354980316], [-107.022309441, 39.354984033], [-107.022764489, 39.355333425], [-107.023312246, 39.355735862], [-107.023543491, 39.355893724], [-107.024060609, 39.355529016], [-107.024034455, 39.355517207], [-107.024165452, 39.355429484], [-107.024365452, 39.35523226], [-107.024116105, 39.355147561], [-107.022703001, 39.354697168], [-107.022143835, 39.354436371], [-107.021989115, 39.354437356], [-107.021308286, 39.35402917]], [[-107.023246214, 39.356347956], [-107.023411629, 39.356514334], [-107.023588271, 39.356627363], [-107.023678104, 39.356569559], [-107.023576588, 39.356414019], [-107.02368419, 39.356319256], [-107.023595494, 39.356254339], [-107.02352086, 39.35619696], [-107.023447118, 39.356139912], [-107.023372493, 39.356082876], [-107.02329786, 39.356025497], [-107.023224117, 39.355968449], [-107.02315808, 39.355911127], [-107.022960438, 39.356054085], [-107.023246214, 39.356347956]], [[-107.025585, 39.367751146], [-107.025386402, 39.367564953], [-107.025259442, 39.367501392], [-107.025256759, 39.367500054], [-107.025076267, 39.367414879], [-107.025058399, 39.367406531], [-107.024990692, 39.367342884], [-107.024918483, 39.36727552], [-107.024906918, 39.367263488], [-107.024903193, 39.367260331], [-107.024890753, 39.36724667], [-107.02472396, 39.36707314], [-107.024718521, 39.367067032], [-107.02466141, 39.367002561], [-107.024651447, 39.366991707], [-107.024552671, 39.366881784], [-107.024537135, 39.366889073], [-107.024506303, 39.36690354], [-107.024527491, 39.368228525], [-107.025686823, 39.368088356], [-107.025622436, 39.367863453], [-107.025589335, 39.36775521], [-107.025585, 39.367751146]], [[-107.027308657, 39.374359448], [-107.027358994, 39.374559931], [-107.0273726, 39.374616374], [-107.027388064, 39.37467694], [-107.027403557, 39.37473885], [-107.027403136, 39.374738966], [-107.027403278, 39.374739019], [-107.027409016, 39.374762174], [-107.027417075, 39.374794526], [-107.027507607, 39.374776319], [-107.027656148, 39.374746016], [-107.028080981, 39.37463791], [-107.028127567, 39.37462607], [-107.028264274, 39.374661932], [-107.028378792, 39.374707364], [-107.028758073, 39.374857857], [-107.028897293, 39.374859471], [-107.028894619, 39.37480143], [-107.028894407, 39.374801433], [-107.028810111, 39.37470747], [-107.028342503, 39.374190478], [-107.028330726, 39.374177589], [-107.028291766, 39.37413485], [-107.028252406, 39.374114412], [-107.028123521, 39.374044372], [-107.028097566, 39.374030295], [-107.027925709, 39.373936403], [-107.027320787, 39.373939493], [-107.027361198, 39.374152132], [-107.027340265, 39.374185357], [-107.027211525, 39.374366894], [-107.027251263, 39.37436396], [-107.027308657, 39.374359448]], [[-107.02990834, 39.361858794], [-107.029468978, 39.361492434], [-107.029383686, 39.3614086], [-107.029074845, 39.361195021], [-107.028484115, 39.360787073], [-107.02832997, 39.360675055], [-107.026944155, 39.359667958], [-107.027269609, 39.36007766], [-107.028464753, 39.36160733], [-107.028633591, 39.361864599], [-107.02940526, 39.361863852], [-107.029781673, 39.361864004], [-107.02990834, 39.361858794]], [[-107.036768658, 39.366714427], [-107.036849577, 39.36664748], [-107.036801723, 39.366235267], [-107.036777642, 39.366023103], [-107.036832236, 39.366023287], [-107.036809411, 39.365831889], [-107.036738735, 39.365296263], [-107.036722375, 39.365196838], [-107.036528766, 39.365147759], [-107.036212356, 39.365065324], [-107.035646454, 39.36499432], [-107.035120891, 39.364964869], [-107.034903417, 39.364937113], [-107.034780064, 39.364931079], [-107.034664686, 39.364951722], [-107.034486707, 39.36504014], [-107.034382898, 39.365158552], [-107.034343504, 39.365203487], [-107.034276136, 39.365293634], [-107.034077533, 39.36559994], [-107.033860384, 39.365932789], [-107.034001244, 39.366028473], [-107.034086298, 39.366105938], [-107.035013637, 39.366851841], [-107.035299402, 39.367130267], [-107.035420866, 39.367195248], [-107.035447811, 39.367208493], [-107.035631949, 39.367266547], [-107.035776228, 39.367312707], [-107.036101088, 39.36712275], [-107.036768658, 39.366714427]], [[-107.077499225, 39.37353058], [-107.077381058, 39.373498975], [-107.077233902, 39.373444666], [-107.077217356, 39.373219034], [-107.077117566, 39.373107438], [-107.077055759, 39.373033114], [-107.077028053, 39.372901681], [-107.077012312, 39.372751553], [-107.076985285, 39.372610858], [-107.076919686, 39.372366995], [-107.076823444, 39.371860291], [-107.076453681, 39.371620525], [-107.076268846, 39.37146309], [-107.075974739, 39.371314074], [-107.075822375, 39.371267084], [-107.075669412, 39.371236027], [-107.075558105, 39.371221462], [-107.075422865, 39.371214083], [-107.075253631, 39.371219547], [-107.074973803, 39.371242397], [-107.074425916, 39.371287608], [-107.074059666, 39.371313981], [-107.073287606, 39.371380791], [-107.073011306, 39.371393732], [-107.072804068, 39.371383061], [-107.072599558, 39.371355027], [-107.072432928, 39.371318658], [-107.072239547, 39.371259829], [-107.070743266, 39.370653872], [-107.072712425, 39.372138962], [-107.073410415, 39.372658972], [-107.074532141, 39.373499937], [-107.075741509, 39.374461877], [-107.07620054, 39.374935551], [-107.076349447, 39.375077543], [-107.076661235, 39.375532384], [-107.077057624, 39.37633037], [-107.077619623, 39.376327575], [-107.077558055, 39.376183446], [-107.077411639, 39.375879383], [-107.077260319, 39.375605976], [-107.077124571, 39.375386483], [-107.077028192, 39.375242438], [-107.076927186, 39.375100295], [-107.076698039, 39.37480185], [-107.076362507, 39.374397415], [-107.076494213, 39.373975896], [-107.076636382, 39.373522436], [-107.077053359, 39.373503116], [-107.077499225, 39.37353058]], [[-107.083207648, 39.381240797], [-107.083546093, 39.3812425], [-107.083827706, 39.381243915], [-107.0840992, 39.38124532], [-107.084365137, 39.381246611], [-107.084635851, 39.381247973], [-107.084942766, 39.381249498], [-107.085264333, 39.38125113], [-107.085258202, 39.380613438], [-107.085257576, 39.380587195], [-107.085256773, 39.380560928], [-107.085255759, 39.380534662], [-107.085254531, 39.380508401], [-107.085253092, 39.380482141], [-107.085251475, 39.380455884], [-107.085249646, 39.38042963], [-107.085247606, 39.380403434], [-107.085245354, 39.380377213], [-107.085242889, 39.380351023], [-107.085240247, 39.380324808], [-107.085237395, 39.38029865], [-107.085213192, 39.38027344], [-107.083198381, 39.380298815], [-107.083207648, 39.381240797]]]]}}]}