{"type": "FeatureCollection", "features": [{"id": "0", "type": "Feature", "properties": {"org_name": "Town of Carbondale", "org_short": "CARBONDALE", "category": "Governance & Policy", "website": "carbondaleco.net", "source": "Colorado DOLA - Municipal Boundaries", "pulldate": "2026-07-28", "srcurl": "https://services3.arcgis.com/DgjqnJA1rgO92Soi/arcgis/rest/services/Municipal_Boundary/FeatureServer", "caveat": "Water supply is the Crystal River, with substantial water rights on it (per Gwen, 7/28/26)."}, "geometry": {"type": "Polygon", "coordinates": [[[-107.21478, 39.37764], [-107.2142, 39.37912], [-107.21506, 39.38107], [-107.21665, 39.38125], [-107.22452, 39.39085], [-107.22453, 39.39355], [-107.22128, 39.39362], [-107.22131, 39.39417], [-107.22533, 39.39719], [-107.22669, 39.39945], [-107.22836, 39.39988], [-107.22789, 39.40023], [-107.22614, 39.39989], [-107.22617, 39.40062], [-107.22793, 39.40109], [-107.22794, 39.40187], [-107.22657, 39.40189], [-107.22579, 39.40103], [-107.22336, 39.40104], [-107.2233, 39.40583], [-107.22152, 39.40583], [-107.22163, 39.40764], [-107.22212, 39.40763], [-107.22471, 39.41075], [-107.22584, 39.41091], [-107.22584, 39.4142], [-107.22625, 39.41495], [-107.22552, 39.41501], [-107.22553907790144, 39.41504696343404], [-107.22669, 39.41651], [-107.22208, 39.41552], [-107.22198, 39.41472], [-107.22551, 39.41501], [-107.22238, 39.41471], [-107.22255, 39.41383], [-107.22521, 39.41423], [-107.2226, 39.411], [-107.22173, 39.41108], [-107.22251, 39.41104], [-107.22256, 39.41246], [-107.22182597901656, 39.412469410525425], [-107.22194, 39.41412], [-107.2213, 39.41488], [-107.22044, 39.41484], [-107.21824, 39.41343], [-107.2182, 39.41264], [-107.21719, 39.41143], [-107.21674, 39.4115], [-107.21505, 39.40893], [-107.21582, 39.40893], [-107.21548, 39.40831], [-107.20996, 39.40822], [-107.20949, 39.4031], [-107.20692, 39.40041], [-107.2073, 39.40019], [-107.20715, 39.3979], [-107.20636, 39.39792], [-107.20408, 39.39585], [-107.2027, 39.39257], [-107.20252, 39.3867], [-107.20825, 39.38652], [-107.20745, 39.386], [-107.20718, 39.3851], [-107.20462, 39.383], [-107.20357, 39.38267], [-107.2031, 39.38062], [-107.20391, 39.38144], [-107.20458, 39.38144], [-107.20453, 39.3805], [-107.20526, 39.38036], [-107.20834, 39.38079], [-107.20781, 39.3797], [-107.20937, 39.37819], [-107.21045, 39.37584], [-107.21179, 39.37476], [-107.2141, 39.37437], [-107.21486, 39.37516], [-107.21478, 39.37764]], [[-107.21312, 39.39459], [-107.2131, 39.39566], [-107.21212, 39.39523], [-107.21212, 39.395364354838705], [-107.21382, 39.39642], [-107.21381, 39.39454], [-107.21444, 39.39454], [-107.21443, 39.39389], [-107.21213, 39.39396], [-107.21213, 39.39459], [-107.21312, 39.39459]], [[-107.21408, 39.39384], [-107.21213, 39.39394], [-107.21213, 39.39396], [-107.21408, 39.39384]], [[-107.21135, 39.39212], [-107.21133, 39.3936], [-107.21215, 39.39361], [-107.21215, 39.392624029304024], [-107.21135, 39.39212]], [[-107.21133, 39.39362], [-107.21215, 39.39363], [-107.21215, 39.39361], [-107.21133, 39.39362]], [[-107.21134, 39.39488], [-107.21153788384397, 39.39500287948375], [-107.21133, 39.39362], [-107.21134, 39.39488]]]}}]}