{"type": "FeatureCollection", "features": [{"id": "0", "type": "Feature", "properties": {"org_name": "City of Glenwood Springs", "org_short": "GWS", "category": "Governance & Policy", "website": "glenwoodco.gov", "source": "Colorado DOLA - Municipal Boundaries", "pulldate": "2026-07-28", "srcurl": "https://services3.arcgis.com/DgjqnJA1rgO92Soi/arcgis/rest/services/Municipal_Boundary/FeatureServer", "caveat": "Water supply is Grizzly and No Name creeks plus some Roaring Fork water rights (per Gwen, 7/28/26)."}, "geometry": {"type": "MultiPolygon", "coordinates": [[[[-107.32256621887176, 39.5143377892597], [-107.32240823982399, 39.51418295929593], [-107.3224, 39.51415], [-107.32256621887176, 39.5143377892597]]], [[[-107.32290145454546, 39.516155818181815], [-107.32257950338601, 39.514868013544024], [-107.32274, 39.51506], [-107.32298, 39.51611], [-107.32290145454546, 39.516155818181815]]], [[[-107.31565, 39.51605], [-107.31643, 39.51637], [-107.31642, 39.51779], [-107.3151, 39.51771], [-107.31565, 39.51605]]], [[[-107.33006, 39.52537], [-107.32781, 39.52538], [-107.32821, 39.52752], [-107.32849, 39.52859], [-107.32992, 39.52861], [-107.32983, 39.53306], [-107.33447, 39.53317], [-107.33423, 39.54059], [-107.33894, 39.54067], [-107.33919, 39.53313], [-107.34059, 39.53314], [-107.34059, 39.53266], [-107.34112, 39.53266], [-107.34137, 39.53362], [-107.3419, 39.53363], [-107.3419, 39.53315], [-107.34866, 39.53318], [-107.34856, 39.54073], [-107.35336, 39.54075], [-107.35325, 39.5445], [-107.34361, 39.54442], [-107.34347, 39.54816], [-107.35315, 39.54825], [-107.35304, 39.55198], [-107.35789, 39.55206], [-107.35779, 39.55582], [-107.36232, 39.55494], [-107.36222, 39.55859], [-107.37589, 39.55595], [-107.37588, 39.55925], [-107.38093, 39.55858], [-107.38094, 39.56053], [-107.37386, 39.55994], [-107.36986, 39.56109], [-107.3684, 39.56091], [-107.36837, 39.56132], [-107.3695, 39.5614], [-107.36976, 39.56214], [-107.36985, 39.5651], [-107.36808, 39.56509], [-107.36808, 39.56553], [-107.36604, 39.56554], [-107.36616, 39.56384], [-107.36174, 39.56394], [-107.36179, 39.56293], [-107.36126, 39.56291], [-107.36128, 39.56222], [-107.36071, 39.56221], [-107.36063, 39.56442], [-107.35955, 39.56441], [-107.35962, 39.56922], [-107.34408, 39.56929], [-107.3444, 39.56701], [-107.34358, 39.56647], [-107.34387, 39.56565], [-107.34463, 39.56566], [-107.34499, 39.56166], [-107.34182, 39.56041], [-107.34122, 39.56123], [-107.34166, 39.5614], [-107.33962, 39.56447], [-107.34132, 39.56532], [-107.34139, 39.56931], [-107.33133, 39.56931], [-107.33136, 39.56565], [-107.32871, 39.56565], [-107.32894, 39.55893], [-107.33413, 39.55893], [-107.33375, 39.55827], [-107.33176, 39.5582], [-107.33126, 39.55726], [-107.33152, 39.55792], [-107.33051, 39.55817], [-107.32909, 39.55458], [-107.32908, 39.55519], [-107.32701, 39.5552], [-107.32701, 39.55613], [-107.31571, 39.55613], [-107.31535, 39.56256], [-107.31104, 39.56246], [-107.31095, 39.56565], [-107.30669, 39.56565], [-107.30684, 39.55855], [-107.31117, 39.55868], [-107.3113, 39.5549], [-107.31386, 39.55499], [-107.31396, 39.54868], [-107.31785, 39.54874], [-107.31789, 39.54715], [-107.31753, 39.54681], [-107.31815, 39.54682], [-107.31793, 39.54397], [-107.31594, 39.5439], [-107.31615, 39.53521], [-107.31913, 39.53532], [-107.31896, 39.52909], [-107.31194, 39.52881], [-107.31205, 39.52507], [-107.31977, 39.52538], [-107.31912, 39.52199], [-107.31643, 39.51835], [-107.31643, 39.51637], [-107.31795, 39.51719], [-107.31841, 39.51691], [-107.31585, 39.51546], [-107.31644, 39.51479], [-107.31196, 39.51322], [-107.31149, 39.5137], [-107.3102, 39.51305], [-107.30723, 39.51045], [-107.30719, 39.50947], [-107.30641, 39.50877], [-107.30636, 39.50753], [-107.30715, 39.50752], [-107.30713, 39.50612], [-107.30808, 39.50613], [-107.30849, 39.50675], [-107.309, 39.50656], [-107.30611, 39.50231], [-107.3051, 39.50227], [-107.30632, 39.49501], [-107.30737, 39.49502], [-107.30734, 39.5], [-107.30767, 39.49996], [-107.30967, 39.5037], [-107.31018, 39.50421], [-107.31176, 39.50296], [-107.31584, 39.50268], [-107.31684, 39.50706], [-107.3163, 39.50752], [-107.31877, 39.50997], [-107.32122, 39.51002], [-107.32114, 39.51294], [-107.32240823982399, 39.51418295929593], [-107.32257950338601, 39.514868013544024], [-107.32116, 39.51317], [-107.32096, 39.51563], [-107.32238, 39.51646], [-107.32290145454546, 39.516155818181815], [-107.32311, 39.51699], [-107.32441, 39.51679], [-107.32371, 39.51563], [-107.32256621887176, 39.5143377892597], [-107.32415, 39.51589], [-107.32548, 39.51818], [-107.32621, 39.52099], [-107.33018, 39.52096], [-107.33006, 39.52537]], [[-107.31473186794956, 39.506468319508954], [-107.31472, 39.50642], [-107.31385, 39.50646], [-107.31473186794956, 39.506468319508954]], [[-107.31486, 39.50699], [-107.31477775456919, 39.50665514360314], [-107.31466, 39.50682], [-107.31385, 39.50646], [-107.31486, 39.50699]], [[-107.31096, 39.50619], [-107.31155, 39.5062], [-107.31153, 39.50877], [-107.31187, 39.50783], [-107.31154, 39.50782], [-107.31156, 39.50602], [-107.30981, 39.50575], [-107.31059026490067, 39.50712], [-107.31094, 39.50712], [-107.31096, 39.50619]], [[-107.31169, 39.50589], [-107.31079, 39.50512], [-107.30944, 39.50531], [-107.31169, 39.50589]], [[-107.31179, 39.50639], [-107.31231, 39.50668], [-107.31256, 39.50639], [-107.31179, 39.50639]], [[-107.31786, 39.51558], [-107.31861, 39.51568], [-107.31863, 39.51532], [-107.31788, 39.51521], [-107.31786, 39.51558]], [[-107.32175, 39.51631], [-107.32098, 39.51595], [-107.32141, 39.51662], [-107.32175, 39.51631]], [[-107.33556, 39.54806], [-107.33862, 39.5481], [-107.33878, 39.54591], [-107.33444, 39.54583], [-107.33556, 39.54806]]]]}}]}