{"type": "FeatureCollection", "features": [{"id": "0", "type": "Feature", "properties": {"org_name": "Mid Valley Metropolitan District", "org_short": "MVMD", "category": "Water Providers", "website": "mvmdco.org", "source": "Colorado DOLA - All Active Districts", "pulldate": "2026-07-28", "srcurl": "https://services3.arcgis.com/DgjqnJA1rgO92Soi/arcgis/rest/services/All_Active_DOLA_Districts_-_private_staging_area_view/FeatureServer", "caveat": "Matches the PLSS-referenced SGM map (LGID-64211, El Jebel/Emma area)."}, "geometry": {"type": "Polygon", "coordinates": [[[-107.08590785, 39.395411021], [-107.085743616, 39.402839166], [-107.085910426, 39.40613093], [-107.090662503, 39.406204883], [-107.090639832, 39.405373178], [-107.095446888, 39.405376868], [-107.095464883, 39.406249858], [-107.100062644, 39.406323211], [-107.099993948, 39.410268276], [-107.104672117, 39.410304598], [-107.104746403, 39.406696348], [-107.109594565, 39.406644495], [-107.109556846, 39.408465931], [-107.112018583, 39.408445521], [-107.113607638, 39.408434526], [-107.113599883, 39.408317159], [-107.114308164, 39.408326637], [-107.114253964, 39.410260669], [-107.128816503, 39.41025095], [-107.128475149, 39.414067974], [-107.133337125, 39.41402525], [-107.133401987, 39.412129913], [-107.133466002, 39.410259808], [-107.133474305, 39.409819407], [-107.133496426, 39.408647135], [-107.133531511, 39.405369006], [-107.116969371, 39.403437801], [-107.115042754, 39.402762267], [-107.113566681, 39.402024942], [-107.113556156, 39.401375907], [-107.113536687, 39.400131395], [-107.113506724, 39.398233272], [-107.110628955, 39.398230554], [-107.110626485, 39.399397745], [-107.108558272, 39.398881592], [-107.108567052, 39.397415379], [-107.108613762, 39.39741817], [-107.108630644, 39.396073629], [-107.108554089, 39.395522662], [-107.108541552, 39.394200184], [-107.106536512, 39.393750938], [-107.102223662, 39.392330935], [-107.10161769, 39.391155751], [-107.101617071, 39.39073443], [-107.100887993, 39.390750408], [-107.100839275, 39.389514681], [-107.100371725, 39.389029659], [-107.09943315, 39.38864479], [-107.098802687, 39.388657164], [-107.096876603, 39.38876547], [-107.096295002, 39.388564097], [-107.0954805, 39.387994071], [-107.095249906, 39.387273866], [-107.094804745, 39.38727165], [-107.094721983, 39.383679443], [-107.094387011, 39.383678569], [-107.092439676, 39.38135391], [-107.09162808, 39.380598389], [-107.090923731, 39.380393157], [-107.089157122, 39.380112105], [-107.087509632, 39.379278134], [-107.086831637, 39.379141572], [-107.085373006, 39.378717206], [-107.085364284, 39.37630094], [-107.08535345, 39.375151877], [-107.084174029, 39.373516648], [-107.083589342, 39.37354801], [-107.08330271, 39.373359534], [-107.081241912, 39.372499186], [-107.081263136, 39.372326158], [-107.081167645, 39.372016077], [-107.080363268, 39.370892924], [-107.079401581, 39.370321238], [-107.078739866, 39.370151954], [-107.077762243, 39.370206135], [-107.076200771, 39.370738597], [-107.075941235, 39.370899365], [-107.075946359, 39.371127665], [-107.07572909, 39.37107968], [-107.075253941, 39.371061445], [-107.075253239, 39.370839993], [-107.073609551, 39.370978163], [-107.072689903, 39.370766125], [-107.072131823, 39.370815774], [-107.071126484, 39.36962674], [-107.070201462, 39.369068986], [-107.069622605, 39.368862269], [-107.06908649, 39.368669227], [-107.066624794, 39.368641213], [-107.065392865, 39.3686151], [-107.067412574, 39.369473923], [-107.067134469, 39.369809687], [-107.067125892, 39.370543672], [-107.0664869, 39.370268797], [-107.065792813, 39.370448443], [-107.067106272, 39.372698219], [-107.067067761, 39.376756307], [-107.076017687, 39.376774257], [-107.076087992, 39.38027374], [-107.078236833, 39.380282977], [-107.078334371, 39.380437479], [-107.078306329, 39.380757769], [-107.078777857, 39.382132268], [-107.079135271, 39.382569873], [-107.079626411, 39.384104544], [-107.079433096, 39.384314279], [-107.079383944, 39.38444845], [-107.079440328, 39.384690788], [-107.079363468, 39.38511426], [-107.079417602, 39.385456472], [-107.0793858, 39.385561165], [-107.079013361, 39.38597484], [-107.078891831, 39.386179597], [-107.078902771, 39.386303265], [-107.078462457, 39.386490901], [-107.07789787, 39.386549478], [-107.07774278, 39.38677432], [-107.077667063, 39.386948525], [-107.077722041, 39.38716886], [-107.077733919, 39.387750703], [-107.077591266, 39.387968511], [-107.077556585, 39.388150293], [-107.077566269, 39.388348914], [-107.076770231, 39.388375745], [-107.076616349, 39.395359541], [-107.08590785, 39.395411021]], [[-107.103560413, 39.397897124], [-107.103551269, 39.398319576], [-107.101604397, 39.398310996], [-107.101657528, 39.397419128], [-107.103560413, 39.397897124]], [[-107.084832211, 39.376683183], [-107.0840723, 39.376677616], [-107.084040016, 39.376402816], [-107.08485349, 39.376410451], [-107.084832211, 39.376683183]], [[-107.072739946, 39.375437342], [-107.073350922, 39.376247122], [-107.073040684, 39.376465146], [-107.072906841, 39.376431989], [-107.071966474, 39.375996675], [-107.07169962, 39.375772317], [-107.072389157, 39.375620185], [-107.072512738, 39.375442317], [-107.072739946, 39.375437342]], [[-107.072116315, 39.375019357], [-107.070871945, 39.373142446], [-107.071648697, 39.372766258], [-107.073062074, 39.37436683], [-107.072318172, 39.374880679], [-107.072116315, 39.375019357]], [[-107.087178223, 39.392262403], [-107.087005002, 39.392443069], [-107.086752995, 39.392387997], [-107.086514487, 39.392380794], [-107.085862777, 39.392198304], [-107.085907049, 39.391942419], [-107.085865285, 39.391718241], [-107.085596867, 39.391249439], [-107.085817684, 39.391260189], [-107.087178223, 39.392262403]], [[-107.098938645, 39.395681807], [-107.098893394, 39.394662168], [-107.099313837, 39.394659572], [-107.099362803, 39.395691143], [-107.098938645, 39.395681807]]]}}]}