{"type": "FeatureCollection", "features": [{"id": "0", "type": "Feature", "properties": {"org_name": "Snowmass Water and Sanitation District", "org_short": "SWSD", "category": "Water Providers", "website": "swsd.org", "source": "KML export via Google Earth", "pulldate": "2026-06-24", "srcurl": "", "caveat": "Provided by Darrell Smith. Service area boundary, general perimeter."}, "geometry": {"type": "Polygon", "coordinates": [[[-106.9422602730695, 39.2213195887533], [-106.9535966228349, 39.21257713334686], [-106.9610541627793, 39.20615334188402], [-106.9637524749428, 39.20479202903173], [-106.9720883982834, 39.20877213500848], [-106.9745642843303, 39.20437814723729], [-106.9720125719571, 39.1988667272654], [-106.96335637628, 39.20016238420888], [-106.95310614673, 39.19635028854754], [-106.9440828158817, 39.19920559038636], [-106.9409243265252, 39.20204797915873], [-106.9376925750432, 39.2028063533822], [-106.9353406257829, 39.20276746150568], [-106.9322349481663, 39.20291582114638], [-106.9285233137957, 39.20250627979444], [-106.9196180244727, 39.20375249023739], [-106.9183027534604, 39.20454805066215], [-106.9166389259196, 39.20606063481673], [-106.9151408682583, 39.20749588361129], [-106.9122025089417, 39.2100775555338], [-106.9121610125711, 39.21255063669402], [-106.9178252893885, 39.21398225000337], [-106.920040367172, 39.21982761719926], [-106.9182972353318, 39.22873171465348], [-106.9199390021618, 39.23092072472814], [-106.9229832893149, 39.23318454506443], [-106.9288409743585, 39.23765594891936], [-106.9333907102028, 39.23893997510777], [-106.9342526196367, 39.2379644450626], [-106.935505243934, 39.23168433896654], [-106.9430832914623, 39.231076031687], [-106.9412417323619, 39.2268624586281], [-106.9393788936015, 39.22667946599766], [-106.9422602730695, 39.2213195887533]]]}}]}