{"type": "FeatureCollection", "features": [{"id": "0", "type": "Feature", "properties": {"org_name": "West Divide Water Conservancy District", "org_short": "WDWCD", "category": "Water Providers", "website": "wdwcd.org", "source": "Colorado DOLA - All Active Districts", "pulldate": "2026-07-28", "srcurl": "https://services3.arcgis.com/DgjqnJA1rgO92Soi/arcgis/rest/services/All_Active_DOLA_Districts_-_private_staging_area_view/FeatureServer", "caveat": "Full official district (~2,009 sq km), De Beque/Rifle/Silt through Glenwood Springs/Carbondale to Capitol Peak/Marble. Supersedes the earlier Pitkin-County-only sliver and the RF-HUC8-minus-Crystal-HUC10 approximation."}, "geometry": {"type": "MultiPolygon", "coordinates": [[[[-107.52597, 39.56809], [-107.51726, 39.56393], [-107.51709, 39.56446], [-107.51493, 39.56445], [-107.51327, 39.56518], [-107.51019, 39.56555], [-107.5046, 39.56263], [-107.49641, 39.56139], [-107.49245, 39.5627], [-107.48684, 39.56606], [-107.48415, 39.56927], [-107.48218, 39.57097], [-107.48039, 39.57166], [-107.47452, 39.57209], [-107.47329, 39.57292], [-107.47118, 39.57315], [-107.46954, 39.57266], [-107.4671, 39.57278], [-107.46274, 39.57141], [-107.46053, 39.5699], [-107.45834, 39.56974], [-107.45422, 39.57052], [-107.45088, 39.57254], [-107.44669, 39.57401], [-107.43953, 39.57424], [-107.42946, 39.56995], [-107.42663, 39.56688], [-107.42515, 39.56598], [-107.40988, 39.5628], [-107.40438, 39.55894], [-107.40048, 39.55686], [-107.39871, 39.55643], [-107.39598, 39.55667], [-107.39018, 39.55871], [-107.38204, 39.56003], [-107.37485, 39.55922], [-107.36927, 39.55987], [-107.3646, 39.55839], [-107.36024, 39.55851], [-107.35918, 39.55784], [-107.35856, 39.55799], [-107.35969, 39.55853], [-107.35473, 39.55895], [-107.35579, 39.55849], [-107.35295, 39.55872], [-107.34014, 39.55695], [-107.33868, 39.55626], [-107.34115, 39.55803], [-107.34253, 39.55835], [-107.34273, 39.55778], [-107.35268, 39.55967], [-107.35778, 39.55946], [-107.36202, 39.55867], [-107.3644792548043, 39.55914129811091], [-107.3574, 39.56039], [-107.35202, 39.56027], [-107.34822, 39.55945], [-107.34607, 39.5597], [-107.33996, 39.55861], [-107.3376, 39.55711], [-107.33685, 39.55337], [-107.33589, 39.5541], [-107.33509, 39.55235], [-107.33661, 39.55229], [-107.33595, 39.55049], [-107.33295, 39.54973], [-107.33294, 39.55027], [-107.3359, 39.55136], [-107.33638, 39.55213], [-107.33253, 39.55256], [-107.33058, 39.55093], [-107.32976, 39.55094], [-107.33215, 39.55288], [-107.3299, 39.55362], [-107.3297, 39.5533], [-107.33084, 39.55284], [-107.32948, 39.55311], [-107.32772, 39.55096], [-107.32934, 39.55339], [-107.32755, 39.55302], [-107.32682, 39.55356], [-107.32573, 39.55326], [-107.32573, 39.55364], [-107.32707, 39.55364], [-107.32702, 39.55513], [-107.32881, 39.55515], [-107.32901, 39.55426], [-107.33415, 39.55612], [-107.3332, 39.5582], [-107.33498, 39.55799], [-107.33597, 39.55954], [-107.33562, 39.55989], [-107.33492, 39.55947], [-107.3343, 39.55978], [-107.33381, 39.56132], [-107.33448, 39.56197], [-107.33412, 39.56262], [-107.33553, 39.56307], [-107.33657, 39.56477], [-107.335, 39.56487], [-107.33446, 39.56389], [-107.3332, 39.5646], [-107.3345, 39.56403], [-107.33464, 39.56481], [-107.33552, 39.56505], [-107.33573, 39.56573], [-107.33606, 39.56557], [-107.33577, 39.56506], [-107.33677, 39.56471], [-107.33616, 39.56399], [-107.33774, 39.56375], [-107.33606, 39.56386], [-107.33549, 39.56255], [-107.33735999999998, 39.5626325], [-107.33542, 39.56239], [-107.33423, 39.56164], [-107.33462, 39.55965], [-107.33563, 39.56002], [-107.33619, 39.55963], [-107.33506, 39.55787], [-107.33335, 39.55811], [-107.33459, 39.55577], [-107.33643, 39.55739], [-107.33691, 39.5587], [-107.34016, 39.56036], [-107.34124, 39.56025], [-107.34082, 39.56102], [-107.34173, 39.56131], [-107.3398, 39.56443], [-107.34137, 39.56522], [-107.34065, 39.5656], [-107.34131, 39.56581], [-107.34139, 39.56923], [-107.33131, 39.56931], [-107.33123, 39.56564], [-107.32859, 39.56564], [-107.32913, 39.55897], [-107.3241, 39.559], [-107.32558, 39.55634], [-107.32454, 39.55601], [-107.31571, 39.55617], [-107.31756, 39.55317], [-107.31621, 39.55314], [-107.31366, 39.55729], [-107.31578, 39.55313], [-107.31385, 39.55594], [-107.3139, 39.5531], [-107.31128, 39.55305], [-107.3114, 39.54666], [-107.31757, 39.54653], [-107.31755, 39.54404], [-107.31608, 39.54398], [-107.31584, 39.53502], [-107.31914, 39.53535], [-107.31928, 39.53051], [-107.31894, 39.53049], [-107.31895, 39.52915], [-107.31198, 39.52877], [-107.31208, 39.52501], [-107.31834, 39.5253], [-107.3183, 39.52105], [-107.31636, 39.51828], [-107.31635, 39.51637], [-107.31747, 39.51747], [-107.31822, 39.51742], [-107.31821, 39.51677], [-107.31642, 39.51556], [-107.3193, 39.5158], [-107.31862, 39.51569], [-107.3188, 39.51533], [-107.32134, 39.51581], [-107.31695, 39.51487], [-107.31787, 39.51558], [-107.31586, 39.5153], [-107.31645, 39.5148], [-107.31197, 39.51322], [-107.31165, 39.51353], [-107.31164, 39.51316], [-107.30951, 39.51212], [-107.30661, 39.5091], [-107.30439, 39.50071], [-107.30654, 39.4909], [-107.30426, 39.49085], [-107.3036, 39.49019], [-107.30394, 39.48868], [-107.30287, 39.48624], [-107.30275, 39.48485], [-107.30415, 39.48316], [-107.30413, 39.48259], [-107.30295, 39.48159], [-107.30093, 39.48119], [-107.29699, 39.48273], [-107.29109, 39.48204], [-107.28762, 39.48021], [-107.2857, 39.47723], [-107.287, 39.47984], [-107.28532, 39.4783], [-107.27859, 39.47614], [-107.27703, 39.4751], [-107.27505, 39.47036], [-107.27542, 39.46704], [-107.2721, 39.46454], [-107.27139, 39.4637], [-107.27138, 39.46272], [-107.27083, 39.46298], [-107.27094, 39.45685], [-107.26919, 39.45389], [-107.26955, 39.45377], [-107.26856, 39.45185], [-107.2663, 39.45045], [-107.26337, 39.44757], [-107.2614, 39.44668], [-107.26039, 39.44552], [-107.26022, 39.44445], [-107.26136, 39.44335], [-107.26314, 39.44272], [-107.26414, 39.44147], [-107.26367, 39.43998], [-107.26054, 39.44031], [-107.25922, 39.43957], [-107.25891, 39.43995], [-107.25699, 39.43757], [-107.25502, 39.43681], [-107.25443, 39.43559], [-107.25569, 39.43558], [-107.25385, 39.43372], [-107.25377, 39.43295], [-107.25039, 39.43268], [-107.25042, 39.43439], [-107.25022, 39.4326], [-107.24949, 39.4324], [-107.24815, 39.43355], [-107.24893, 39.43245], [-107.24787, 39.43176], [-107.24745, 39.4291], [-107.24632, 39.42949], [-107.24735, 39.42899], [-107.24695, 39.4284], [-107.24561, 39.42861], [-107.24667, 39.42819], [-107.24553, 39.42754], [-107.2431, 39.42779], [-107.24079, 39.42525], [-107.2428, 39.42505], [-107.2415, 39.42555], [-107.24321, 39.42775], [-107.24547, 39.42747], [-107.24563, 39.42695], [-107.24514, 39.42637], [-107.24439, 39.42671], [-107.2461, 39.42464], [-107.24556, 39.42306], [-107.24614, 39.42266], [-107.24754, 39.42288], [-107.24568, 39.42303], [-107.24628, 39.42452], [-107.24691, 39.42464], [-107.24624, 39.42463], [-107.24526, 39.42638], [-107.24573, 39.42686], [-107.24787983471069, 39.42634950413224], [-107.24588, 39.42689], [-107.2457, 39.42751], [-107.24671, 39.42809], [-107.24791, 39.42751], [-107.24685, 39.42816], [-107.24744, 39.42892], [-107.24871, 39.42847], [-107.24752, 39.42903], [-107.24783, 39.42985], [-107.24949, 39.42926], [-107.2479, 39.42997], [-107.24802, 39.43177], [-107.24909, 39.43195], [-107.25226, 39.42936], [-107.25174, 39.42768], [-107.25057, 39.42712], [-107.25117, 39.42827], [-107.25046, 39.42702], [-107.24849958480974, 39.42620233939301], [-107.24872, 39.42615], [-107.25141, 39.42728], [-107.25207, 39.42801], [-107.2528, 39.42776], [-107.25212, 39.42812], [-107.25232, 39.42948], [-107.25355, 39.43068], [-107.25224, 39.42957], [-107.2514, 39.43022], [-107.25158, 39.43064], [-107.25097, 39.43053], [-107.24939, 39.43191], [-107.25106, 39.43272], [-107.25382, 39.43265], [-107.25537, 39.43165], [-107.25583, 39.43079], [-107.25598, 39.43016], [-107.25386, 39.42714], [-107.25026, 39.4258], [-107.24848, 39.4243], [-107.2477, 39.42232], [-107.24672, 39.42164], [-107.24227, 39.42435], [-107.24065, 39.42403], [-107.23892, 39.4227], [-107.23589, 39.41917], [-107.23641, 39.41818], [-107.23572, 39.417], [-107.23569, 39.41514], [-107.23032, 39.41014], [-107.23017, 39.40881], [-107.22827, 39.4079], [-107.22733, 39.40645], [-107.22736, 39.40346], [-107.22658, 39.40189], [-107.2276, 39.40189], [-107.22788, 39.39981], [-107.22635, 39.39917], [-107.22534, 39.3972], [-107.22152, 39.3942], [-107.21909, 39.39367], [-107.21878, 39.39286], [-107.21956, 39.39263], [-107.22201, 39.39361], [-107.21971, 39.3925], [-107.2184, 39.39038], [-107.21765, 39.39001], [-107.21836, 39.38986], [-107.21744, 39.38894], [-107.21624, 39.38953], [-107.21468, 39.38894], [-107.21468, 39.38944], [-107.21587, 39.38975], [-107.21749, 39.38941], [-107.21788, 39.38962], [-107.21758, 39.38993], [-107.21427, 39.38993], [-107.21415, 39.38891], [-107.21264, 39.38747], [-107.21152, 39.38743], [-107.21045, 39.38638], [-107.20995, 39.38656], [-107.20999, 39.38747], [-107.20881, 39.38697], [-107.21037, 39.38579], [-107.20985, 39.38553], [-107.20895, 39.3865], [-107.20767, 39.386], [-107.20719, 39.38511], [-107.20463, 39.38301], [-107.20358, 39.38268], [-107.20311, 39.38062], [-107.20392, 39.38145], [-107.20459, 39.38144], [-107.2039, 39.38039], [-107.2037, 39.37825], [-107.20431, 39.37582], [-107.20301, 39.37551], [-107.20287, 39.37427], [-107.20283, 39.37551], [-107.20149, 39.37448], [-107.20031, 39.37166], [-107.20051, 39.3694], [-107.20197, 39.36733], [-107.20214, 39.35933], [-107.20311, 39.35721], [-107.20373, 39.35285], [-107.20465, 39.35117], [-107.20593, 39.35023], [-107.20636, 39.34867], [-107.20832, 39.34707], [-107.20808, 39.34396], [-107.20859, 39.34234], [-107.20757, 39.34075], [-107.20769, 39.33801], [-107.20654, 39.33669], [-107.20637, 39.33573], [-107.20689, 39.33029], [-107.20756, 39.32942], [-107.20887, 39.3294], [-107.20924, 39.32783], [-107.20747, 39.32432], [-107.20703, 39.32143], [-107.20757, 39.32104], [-107.20738, 39.31949], [-107.20802, 39.31765], [-107.20949, 39.31601], [-107.2094, 39.31097], [-107.21108, 39.30734], [-107.2107, 39.30617], [-107.211, 39.30471], [-107.21285, 39.30204], [-107.21299, 39.29791], [-107.21416, 39.29571], [-107.21431, 39.29439], [-107.2159, 39.29222], [-107.21946, 39.28979], [-107.21967, 39.28878], [-107.21783, 39.28626], [-107.21824, 39.28434], [-107.22095, 39.28119], [-107.22325, 39.27221], [-107.22538, 39.26925], [-107.2245, 39.26726], [-107.22554, 39.2666], [-107.22675, 39.26421], [-107.22726, 39.26174], [-107.22976, 39.25923], [-107.23233, 39.25535], [-107.23352, 39.25222], [-107.23317, 39.25073], [-107.23536, 39.24717], [-107.23521, 39.24627], [-107.2329, 39.24376], [-107.23249, 39.24185], [-107.23281, 39.24093], [-107.23218, 39.23958], [-107.232, 39.2373], [-107.23063, 39.23486], [-107.2275, 39.23219], [-107.227, 39.2312], [-107.22669, 39.22883], [-107.22502, 39.22551], [-107.2256, 39.22402], [-107.22555, 39.22256], [-107.2235, 39.22078], [-107.22547, 39.22001], [-107.22637, 39.21899], [-107.2248, 39.215], [-107.22624, 39.21106], [-107.22843, 39.20974], [-107.23034, 39.20733], [-107.23068, 39.20332], [-107.23018, 39.20223], [-107.23037, 39.20077], [-107.23181, 39.19819], [-107.2318, 39.13865], [-107.23747, 39.13824], [-107.23767, 39.11852], [-107.2555, 39.11818], [-107.27359, 39.11846], [-107.27342, 39.13846], [-107.2866, 39.13847], [-107.28596, 39.16595], [-107.28606, 39.17999], [-107.28689, 39.19457], [-107.28618, 39.2088], [-107.2869, 39.22106], [-107.37646, 39.22104], [-107.37632, 39.22159], [-107.37737, 39.22268], [-107.3779, 39.22411], [-107.37798, 39.22563], [-107.37746, 39.227], [-107.37883, 39.22881], [-107.37641, 39.2339], [-107.37464, 39.23543], [-107.37209, 39.23655], [-107.3717, 39.23817], [-107.3745, 39.23975], [-107.37533, 39.24155], [-107.37541, 39.24387], [-107.37655, 39.24469], [-107.37774, 39.24524], [-107.38369, 39.24603], [-107.386, 39.24845], [-107.38981, 39.2489], [-107.39101, 39.25051], [-107.39086, 39.25171], [-107.39182, 39.25349], [-107.39433, 39.25467], [-107.39729, 39.25197], [-107.39958, 39.2511], [-107.40163, 39.25168], [-107.40601, 39.25157], [-107.40882, 39.25245], [-107.41166, 39.25241], [-107.41457, 39.25374], [-107.41723, 39.25391], [-107.4194, 39.25328], [-107.42631, 39.25576], [-107.42901, 39.25529], [-107.4293, 39.25032], [-107.42886, 39.24826], [-107.42993, 39.24623], [-107.42874, 39.24104], [-107.4288, 39.23936], [-107.43092, 39.23821], [-107.43365, 39.23768], [-107.43847, 39.23532], [-107.44107, 39.23464], [-107.44541, 39.23148], [-107.45007, 39.22984], [-107.45194, 39.22841], [-107.45443, 39.22831], [-107.45626, 39.22765], [-107.46023, 39.22838], [-107.46174, 39.22732], [-107.46421, 39.22647], [-107.47508, 39.22749], [-107.477, 39.22855], [-107.47758, 39.23025], [-107.4789, 39.23195], [-107.48102, 39.23252], [-107.48295, 39.23376], [-107.48655, 39.22485], [-107.4894, 39.22174], [-107.49163, 39.22015], [-107.52951, 39.2202], [-107.52951, 39.26366], [-107.60556, 39.26366], [-107.60551, 39.30767], [-107.71277, 39.30769], [-107.71331, 39.36432], [-107.97099, 39.36425], [-107.97018, 39.31104], [-108.03429, 39.3106], [-108.04783, 39.31122], [-108.04778, 39.29691], [-108.11811, 39.29693], [-108.15753, 39.29641], [-108.15779, 39.30795], [-108.18647, 39.30762], [-108.18679, 39.31462], [-108.19505, 39.31455], [-108.1952, 39.32211], [-108.17669, 39.32212], [-108.17691, 39.33684], [-108.15814, 39.33705], [-108.15836, 39.35476], [-108.14132, 39.35482], [-108.14123, 39.36428], [-108.12239, 39.36434], [-108.12244, 39.36619], [-108.14797, 39.3662], [-108.14371, 39.36841], [-108.13735, 39.37609], [-108.13518, 39.37792], [-108.13471, 39.37936], [-108.13238, 39.38258], [-108.12828, 39.38396], [-108.12152, 39.38495], [-108.11886, 39.38735], [-108.11938, 39.38859], [-108.11883, 39.39], [-108.11398, 39.39184], [-108.11322, 39.39469], [-108.11061, 39.39599], [-108.10778, 39.39556], [-108.10496, 39.39415], [-108.10496, 39.39348], [-108.10069, 39.3935], [-108.09715, 39.39637], [-108.09212, 39.39825], [-108.09176, 39.39943], [-108.09212, 39.40094], [-108.09323, 39.40124], [-108.09325, 39.40291], [-108.09207, 39.40704], [-108.08869, 39.41007], [-108.08557, 39.41411], [-108.08125, 39.41531], [-108.07769, 39.41484], [-108.07545, 39.41546], [-108.07514, 39.41715], [-108.07591, 39.41908], [-108.07381, 39.42603], [-108.06886, 39.42755], [-108.06616, 39.4272], [-108.06359, 39.42802], [-108.06088, 39.42425], [-108.05813, 39.42436], [-108.05819, 39.42644], [-108.06079, 39.42649], [-108.06201, 39.42918], [-108.06081, 39.43024], [-108.05959, 39.43261], [-108.05531, 39.43805], [-108.05354, 39.43916], [-108.04813, 39.44065], [-108.04572, 39.44465], [-108.04262, 39.44772], [-108.0409, 39.45336], [-108.03874, 39.4533], [-108.03744, 39.45262], [-108.03713, 39.45279], [-108.03855, 39.45332], [-108.03584, 39.45413], [-108.03558, 39.45458], [-108.03855, 39.45342], [-108.03999, 39.45355], [-108.04001, 39.45431], [-108.03637, 39.45611], [-108.03695, 39.45613], [-108.03651, 39.45819], [-108.03702, 39.45983], [-108.03511, 39.46181], [-108.03033, 39.46458], [-108.02216, 39.46438], [-108.0195, 39.46733], [-108.02041, 39.46891], [-108.01941, 39.47119], [-108.01434, 39.47299], [-108.01221, 39.47344], [-108.00617, 39.473], [-108.00012, 39.47349], [-107.98726, 39.4716], [-107.98619, 39.4728], [-107.98384, 39.47407], [-107.98083, 39.47405], [-107.97542, 39.47305], [-107.97224, 39.47564], [-107.97078, 39.47616], [-107.96572, 39.47619], [-107.96372, 39.47726], [-107.96073, 39.47746], [-107.95924, 39.47867], [-107.9599, 39.48235], [-107.95969, 39.48416], [-107.95832, 39.4855], [-107.95623, 39.48556], [-107.95305, 39.48306], [-107.95197, 39.48313], [-107.94785, 39.48602], [-107.94499, 39.4927], [-107.9405, 39.49356], [-107.93774, 39.49466], [-107.93748, 39.49571], [-107.93599, 39.49669], [-107.93187, 39.4971], [-107.92387, 39.49516], [-107.92078, 39.49328], [-107.92073, 39.4915], [-107.91086, 39.49337], [-107.91013, 39.49671], [-107.90256, 39.49894], [-107.90079, 39.49998], [-107.89786, 39.50008], [-107.89786, 39.49884], [-107.89491, 39.49751], [-107.88864, 39.49083], [-107.88765, 39.48902], [-107.88371, 39.48744], [-107.88041, 39.48856], [-107.87479, 39.49291], [-107.87302, 39.49728], [-107.86903, 39.50173], [-107.86827, 39.50334], [-107.86622, 39.50443], [-107.86627, 39.50719], [-107.865, 39.50737], [-107.86502, 39.51017], [-107.86372, 39.51064], [-107.86407, 39.50982], [-107.8606, 39.51066], [-107.85478, 39.51097], [-107.85291, 39.51324], [-107.84153, 39.51603], [-107.8367, 39.51671], [-107.83388, 39.51987], [-107.80485, 39.51959], [-107.7998, 39.51991], [-107.79889, 39.5205], [-107.80584, 39.52053], [-107.80545, 39.5217], [-107.80584, 39.5221], [-107.80857, 39.52225], [-107.80862, 39.52428], [-107.80974, 39.52427], [-107.80986, 39.52594], [-107.80897, 39.52677], [-107.80505, 39.52678], [-107.80201, 39.52554], [-107.80173, 39.52388], [-107.79926, 39.52391], [-107.79917, 39.5221], [-107.79553, 39.52285], [-107.79428, 39.52458], [-107.79381, 39.52664], [-107.79097, 39.52733], [-107.79101, 39.52819], [-107.79008, 39.5282], [-107.79008, 39.52779], [-107.7854, 39.52788], [-107.78539, 39.52747], [-107.78176, 39.52736], [-107.78112, 39.52562], [-107.78137, 39.52725], [-107.78018, 39.52609], [-107.77896, 39.52597], [-107.77865, 39.52464], [-107.77968, 39.52431], [-107.77934, 39.52395], [-107.77508, 39.52378], [-107.77006, 39.52585], [-107.76414, 39.52625], [-107.76862, 39.52645], [-107.77751, 39.52505], [-107.7783, 39.52679], [-107.77581, 39.52613], [-107.77112, 39.52757], [-107.76539, 39.52818], [-107.76422, 39.52898], [-107.76019, 39.52897], [-107.75248, 39.53054], [-107.74722, 39.52975], [-107.7459, 39.53022], [-107.73765, 39.53599], [-107.72636, 39.53659], [-107.72451, 39.53758], [-107.72287, 39.53979], [-107.71895, 39.54115], [-107.71523, 39.5397], [-107.71521, 39.53846], [-107.70967, 39.54479], [-107.7075, 39.5458], [-107.70376, 39.54535], [-107.69732, 39.54727], [-107.69438, 39.54682], [-107.69087, 39.54487], [-107.6862, 39.54484], [-107.67932, 39.54591], [-107.67779, 39.5457], [-107.67338, 39.54353], [-107.67515, 39.54259], [-107.67408, 39.5418], [-107.67189, 39.54296], [-107.66885, 39.54218], [-107.66424, 39.54207], [-107.65791, 39.54089], [-107.65068, 39.54228], [-107.64609, 39.54211], [-107.64367, 39.541], [-107.64035, 39.54083], [-107.63794, 39.54161], [-107.63443, 39.54391], [-107.63439, 39.54433], [-107.63079, 39.54479], [-107.6313, 39.5442], [-107.62894, 39.54348], [-107.62768, 39.54377], [-107.62283, 39.54324], [-107.6198, 39.54175], [-107.6157, 39.54074], [-107.60402, 39.54336], [-107.60099, 39.54595], [-107.59759, 39.5475], [-107.59774, 39.55046], [-107.59526, 39.55081], [-107.59426, 39.54846], [-107.58829, 39.54931], [-107.57381, 39.54947], [-107.57133, 39.55012], [-107.56983, 39.55221], [-107.57159, 39.55263], [-107.57159, 39.55311], [-107.57418, 39.5531], [-107.57422, 39.55466], [-107.56963, 39.55548], [-107.56959, 39.55416], [-107.57111, 39.55341], [-107.56959, 39.55312], [-107.56958, 39.55266], [-107.56757, 39.5547], [-107.56478, 39.55558], [-107.56303, 39.55557], [-107.55816, 39.55403], [-107.55652, 39.55389], [-107.55404, 39.55448], [-107.55167, 39.55789], [-107.5518, 39.56157], [-107.5514, 39.56337], [-107.54871, 39.5654], [-107.54813, 39.56455], [-107.54699, 39.56403], [-107.54831, 39.56518], [-107.54692687986778, 39.56590338919048], [-107.54561413982181, 39.56644631254284], [-107.54517, 39.56647], [-107.54516, 39.56565], [-107.54755, 39.5649], [-107.54519, 39.56551], [-107.54516, 39.56491], [-107.54681, 39.56442], [-107.54498, 39.56491], [-107.54499, 39.56749], [-107.5446, 39.56763], [-107.52852, 39.56759], [-107.52833, 39.56842], [-107.52597, 39.56809]], [[-107.33774, 39.56268], [-107.3376869476653, 39.562646924161704], [-107.33735999999998, 39.5626325], [-107.33774, 39.56268]], [[-107.33821, 39.56267], [-107.33873, 39.56189], [-107.33819, 39.56116], [-107.33915, 39.5607], [-107.33801, 39.56109], [-107.33756, 39.56079], [-107.33857, 39.56183], [-107.338, 39.5626], [-107.33612, 39.56167], [-107.3376869476653, 39.562646924161704], [-107.33821, 39.56267]], [[-107.30231, 39.48002], [-107.30309, 39.48044], [-107.30298, 39.48037], [-107.30231, 39.48002]], [[-107.35775, 39.55836], [-107.35773, 39.55817], [-107.35744, 39.55826], [-107.35775, 39.55836]], [[-107.33799, 39.56653], [-107.33665411849952, 39.56659449083106], [-107.33657, 39.56682], [-107.33807, 39.56667], [-107.3389264521576, 39.565911990619135], [-107.33895, 39.56576], [-107.33805, 39.56608], [-107.33799, 39.56653]], [[-107.33678448766602, 39.566244990512345], [-107.33654, 39.5666], [-107.33665411849952, 39.56659449083106], [-107.33678448766602, 39.566244990512345]], [[-107.33727, 39.56554], [-107.3391, 39.56434], [-107.3411, 39.56133], [-107.33873, 39.56451], [-107.33704, 39.56556], [-107.33678448766602, 39.566244990512345], [-107.33727, 39.56554]], [[-107.33891582524272, 39.56598058252424], [-107.33894, 39.5659], [-107.3389264521576, 39.565911990619135], [-107.33891582524272, 39.56598058252424]], [[-107.33873, 39.5666], [-107.34011, 39.56674], [-107.34028, 39.56724], [-107.34021, 39.56661], [-107.33884, 39.56647], [-107.33891582524272, 39.56598058252424], [-107.33873, 39.5666]], [[-107.21155, 39.38669], [-107.21185, 39.38669], [-107.21128, 39.38616], [-107.21155, 39.38669]], [[-107.2571, 39.43627], [-107.25694, 39.43653], [-107.25774, 39.4371], [-107.2571, 39.43627]], [[-108.02977, 39.4618], [-108.02826, 39.46222], [-108.02873, 39.4622], [-108.02977, 39.4618]], [[-107.28904, 39.47941], [-107.28952, 39.48003], [-107.29075, 39.48054], [-107.28904, 39.47941]], [[-107.30762, 39.50857], [-107.30767, 39.50878], [-107.30789, 39.50893], [-107.30762, 39.50857]], [[-107.30928, 39.51026], [-107.3097, 39.51077], [-107.31008, 39.51077], [-107.30928, 39.51026]], [[-107.31077, 39.51183], [-107.31324, 39.51283], [-107.31428, 39.51266], [-107.31077, 39.51183]], [[-107.317, 39.51397], [-107.31704, 39.51351], [-107.31659, 39.51313], [-107.31689, 39.51371], [-107.31593, 39.51362], [-107.31557, 39.51295], [-107.31587, 39.51369], [-107.317, 39.51397]], [[-107.32015, 39.51453], [-107.32049, 39.51392], [-107.32013, 39.51439], [-107.31934112810707, 39.51418875717017], [-107.32015, 39.51453]], [[-107.31914644970414, 39.51410662721893], [-107.31915, 39.51414], [-107.31934112810707, 39.51418875717017], [-107.31914644970414, 39.51410662721893]], [[-107.3191, 39.51367], [-107.31953, 39.51357], [-107.31907, 39.5135], [-107.31887, 39.51399], [-107.31914644970414, 39.51410662721893], [-107.3191, 39.51367]], [[-107.32155, 39.51582], [-107.32197, 39.51582], [-107.32178, 39.51572], [-107.32155, 39.51582]], [[-107.79005, 39.52004], [-107.78933, 39.52105], [-107.79369, 39.5205], [-107.79692, 39.52049], [-107.79558, 39.51971], [-107.79005, 39.52004]], [[-107.76021, 39.52573], [-107.75967, 39.52487], [-107.75613, 39.52451], [-107.7554, 39.52451], [-107.75477, 39.52538], [-107.76021, 39.52573]], [[-107.74786, 39.52761], [-107.74546, 39.52778], [-107.74277, 39.52952], [-107.74786, 39.52761]], [[-107.31987, 39.52945], [-107.31986, 39.52998], [-107.31941, 39.52998], [-107.31997, 39.5301], [-107.31987, 39.52945]], [[-107.73982, 39.53088], [-107.738, 39.53124], [-107.73791, 39.53139], [-107.73982, 39.53088]], [[-107.31913, 39.53559], [-107.31922, 39.53594], [-107.31939, 39.53536], [-107.31913, 39.53559]], [[-107.32052, 39.53542], [-107.32003, 39.53562], [-107.31982, 39.53674], [-107.32023, 39.53562], [-107.32131, 39.53568], [-107.32126, 39.53783], [-107.32267, 39.53859], [-107.3222, 39.53767], [-107.32273, 39.5357], [-107.32384, 39.5357], [-107.32371, 39.53682], [-107.32407, 39.53555], [-107.32281, 39.53553], [-107.3228, 39.53491], [-107.32256, 39.53551], [-107.32151, 39.5355], [-107.32153, 39.53489], [-107.32101, 39.53549], [-107.32031, 39.53488], [-107.32052, 39.53542]], [[-107.64601, 39.54091], [-107.64596, 39.53953], [-107.64144, 39.54014], [-107.6439, 39.54054], [-107.64601, 39.54091]], [[-107.60207, 39.54225], [-107.60246, 39.5422], [-107.60229, 39.54193], [-107.60207, 39.54225]], [[-107.33571, 39.54974], [-107.33485, 39.54931], [-107.33536, 39.5497], [-107.33571, 39.54974]], [[-107.33297, 39.54891], [-107.33374, 39.54986], [-107.33469, 39.54991], [-107.33378, 39.54976], [-107.3336, 39.5489], [-107.33297, 39.54891]], [[-107.33477, 39.55], [-107.33494, 39.55012], [-107.33506, 39.55002], [-107.33477, 39.55]], [[-107.33894, 39.55723], [-107.33832, 39.55591], [-107.33868, 39.55719], [-107.34056, 39.55855], [-107.34807, 39.55913], [-107.34539, 39.55852], [-107.34064, 39.55842], [-107.33894, 39.55723]], [[-107.47397, 39.57183], [-107.47733, 39.56991], [-107.47803, 39.57055], [-107.47877, 39.57037], [-107.47874, 39.56909], [-107.47675, 39.56945], [-107.47711, 39.56983], [-107.47596, 39.57043], [-107.47523, 39.5701], [-107.47568, 39.56942], [-107.47502, 39.57], [-107.47413, 39.56965], [-107.47582, 39.57058], [-107.47397, 39.57183]], [[-107.30158, 39.47976], [-107.30141, 39.47971], [-107.30144, 39.47972], [-107.30158, 39.47976]]], [[[-107.86502, 39.51034], [-107.86502, 39.51336], [-107.86116, 39.51476], [-107.86089, 39.51433], [-107.86058, 39.51492], [-107.85184, 39.51792], [-107.85173, 39.51463], [-107.86417, 39.51064], [-107.86249, 39.51284], [-107.85276, 39.5159], [-107.85291, 39.51625], [-107.85914, 39.51409], [-107.85867, 39.51538], [-107.85954, 39.51399], [-107.86081, 39.51353], [-107.86022, 39.5147], [-107.86096, 39.51362], [-107.86297, 39.51274], [-107.8639, 39.5111], [-107.86502, 39.51034]]], [[[-107.66685, 39.54785], [-107.66671, 39.54785], [-107.66683, 39.54716], [-107.66685, 39.54785]]], [[[-107.59172, 39.55464], [-107.59427, 39.55597], [-107.59643, 39.5561], [-107.59644, 39.55658], [-107.59369, 39.55639], [-107.59173, 39.55591], [-107.59172, 39.55464]]], [[[-107.55894, 39.55918], [-107.56189, 39.55791], [-107.5619, 39.55856], [-107.56028, 39.55869], [-107.56029, 39.55944], [-107.55894, 39.55918]]], [[[-107.57432, 39.55799], [-107.57636, 39.55714], [-107.57752, 39.55671], [-107.58364, 39.55664], [-107.58364, 39.56042], [-107.58203, 39.56043], [-107.58215, 39.55837], [-107.57907, 39.55866], [-107.5766, 39.55954], [-107.57733, 39.55996], [-107.57744, 39.56154], [-107.57437, 39.56157], [-107.57434, 39.56026], [-107.57432, 39.55799]]], [[[-107.60465, 39.5583], [-107.60556, 39.56019], [-107.60315, 39.5602], [-107.60363, 39.55861], [-107.60465, 39.5583]]], [[[-107.57111, 39.56192], [-107.56959, 39.56193], [-107.56958, 39.56066], [-107.56496, 39.56048], [-107.56494, 39.5584], [-107.56967, 39.55784], [-107.56973, 39.56049], [-107.57075, 39.56044], [-107.57111, 39.56192]]], [[[-107.61151, 39.5572], [-107.61429, 39.55675], [-107.61507, 39.55777], [-107.61621, 39.55817], [-107.61628, 39.56409], [-107.60631, 39.56411], [-107.60637, 39.55802], [-107.60972, 39.55685], [-107.61037, 39.55615], [-107.61151, 39.55662], [-107.61151, 39.5572]], [[-107.60706, 39.5622], [-107.60735, 39.56269], [-107.60796, 39.56262], [-107.60921173047478, 39.562489065849924], [-107.60742, 39.56262], [-107.60721, 39.56214], [-107.60827, 39.56136], [-107.60647, 39.56134], [-107.60818, 39.5614], [-107.60706, 39.5622]], [[-107.61002, 39.56243], [-107.6100315131309, 39.56240331452606], [-107.60921173047478, 39.562489065849924], [-107.61002, 39.56243]], [[-107.61035, 39.56237], [-107.61144, 39.55937], [-107.60944, 39.55753], [-107.60943, 39.55796], [-107.61131, 39.55944], [-107.6100315131309, 39.56240331452606], [-107.61035, 39.56237]]], [[[-107.56261, 39.56002], [-107.56331, 39.5602], [-107.56291, 39.56195], [-107.56261, 39.56002]]], [[[-107.59993, 39.56415], [-107.59795, 39.56414], [-107.59765, 39.56062], [-107.59689, 39.56078], [-107.59659, 39.56024], [-107.59718, 39.55897], [-107.59858, 39.55876], [-107.59833, 39.55792], [-107.5988, 39.5581], [-107.59896, 39.55904], [-107.59936, 39.55903], [-107.59961, 39.56055], [-107.59894, 39.56175], [-107.59807, 39.56171], [-107.59993, 39.56415]]], [[[-107.54692687986778, 39.56590338919048], [-107.54841, 39.56529], [-107.54866, 39.56554], [-107.54516, 39.56722], [-107.54517, 39.56663], [-107.54561413982181, 39.56644631254284], [-107.54592, 39.56643], [-107.54692687986778, 39.56590338919048]]], [[[-107.51682, 39.56705], [-107.52565, 39.57045], [-107.52562, 39.5713], [-107.52514, 39.57103], [-107.52446, 39.57022], [-107.52015, 39.56846], [-107.51883794506614, 39.56827256358088], [-107.5181, 39.568], [-107.51797351351351, 39.56814907335907], [-107.51651, 39.56794], [-107.51682, 39.56705]]], [[[-107.51782, 39.56833], [-107.51797351351351, 39.56814907335907], [-107.51883794506614, 39.56827256358088], [-107.5243, 39.57029], [-107.52498, 39.57112], [-107.51782, 39.56833]]], [[[-107.51386, 39.57124], [-107.51368956521739, 39.570972173913056], [-107.51355697574893, 39.57061860199715], [-107.51443066528374, 39.57090691954364], [-107.51454, 39.5711], [-107.51493047725744, 39.57107185749496], [-107.51544, 39.57124], [-107.5155319530934, 39.57102850788516], [-107.51565, 39.57102], [-107.51561591792657, 39.5708353887689], [-107.51574, 39.57055], [-107.5155542767425, 39.57050149902193], [-107.51553, 39.57037], [-107.5148803396739, 39.57032550271739], [-107.51417, 39.57014], [-107.51347066763425, 39.570388447024676], [-107.51344693284936, 39.570325154264964], [-107.5137314108252, 39.569671623779946], [-107.5140945, 39.569574800000005], [-107.51633, 39.56968], [-107.51693, 39.57117], [-107.51658, 39.56974], [-107.51553, 39.56938], [-107.5161, 39.56887], [-107.51858, 39.56885], [-107.52519, 39.57144], [-107.51386, 39.57124]]], [[[-107.83123, 39.57345], [-107.83004, 39.57161], [-107.82821, 39.5708], [-107.83568, 39.57077], [-107.83574, 39.57343], [-107.83123, 39.57345]]], [[[-107.81693, 39.617], [-107.81512, 39.61801], [-107.81261, 39.61806], [-107.81231, 39.61436], [-107.81693, 39.617]]], [[[-107.85521, 39.63585], [-107.85277, 39.63459], [-107.85066, 39.63266], [-107.85521, 39.63264], [-107.85521, 39.63585]]], [[[-107.85528, 39.64012], [-107.8506, 39.64013], [-107.85067, 39.63331], [-107.85521, 39.63629], [-107.85528, 39.64012]]], [[[-107.85994, 39.63811], [-107.86417, 39.63996], [-107.85994, 39.64002], [-107.85994, 39.63811]]], [[[-107.2363, 39.42049], [-107.23593, 39.4204], [-107.23593, 39.42002], [-107.2363, 39.42049]]], [[[-107.24847, 39.42619], [-107.24849958480974, 39.42620233939301], [-107.24787983471069, 39.42634950413224], [-107.24847, 39.42619]]], [[[-107.32203, 39.53805], [-107.32137, 39.53752], [-107.32151, 39.53606], [-107.32152, 39.53568], [-107.32252, 39.53568], [-107.32203, 39.53805]]], [[[-107.33337, 39.55251], [-107.33468, 39.55233], [-107.33541, 39.55343], [-107.33457, 39.55426], [-107.33278, 39.55275], [-107.33337, 39.55251]]], [[[-107.33469, 39.55438], [-107.33511, 39.55397], [-107.33541, 39.55453], [-107.33469, 39.55438]]], [[[-107.36473251578933, 39.559189833717554], [-107.3644792548043, 39.55914129811091], [-107.3646, 39.55912], [-107.36473251578933, 39.559189833717554]]], [[[-107.36987, 39.56109], [-107.36775, 39.56078], [-107.36473251578933, 39.559189833717554], [-107.36896, 39.56], [-107.37465, 39.55934], [-107.38082, 39.5601], [-107.38082, 39.56054], [-107.37387, 39.55995], [-107.36987, 39.56109]]], [[[-107.33516, 39.56232], [-107.33541, 39.56295], [-107.33488, 39.56265], [-107.33516, 39.56232]]], [[[-107.51148, 39.56683], [-107.51611, 39.56693], [-107.51583, 39.56782], [-107.51148, 39.56683]]], [[[-107.51278, 39.56793], [-107.51156, 39.56801], [-107.5115, 39.56697], [-107.51332, 39.56737], [-107.51278, 39.56793]]], [[[-107.5162, 39.56871], [-107.51621, 39.5682], [-107.51838, 39.56885], [-107.5162, 39.56871]]], [[[-107.38097, 39.56547], [-107.38092, 39.56439], [-107.3837, 39.56435], [-107.3837, 39.56558], [-107.38237, 39.56559], [-107.38238, 39.56924], [-107.3871, 39.56923], [-107.38709, 39.57288], [-107.37801, 39.5728], [-107.37799, 39.56925], [-107.37796, 39.5655], [-107.38097, 39.56547]]], [[[-107.5140945, 39.569574800000005], [-107.51378, 39.56956], [-107.5137314108252, 39.569671623779946], [-107.51325, 39.5698], [-107.51344693284936, 39.570325154264964], [-107.51341, 39.57041], [-107.51347066763425, 39.570388447024676], [-107.51355697574893, 39.57061860199715], [-107.51344, 39.57058], [-107.51368956521739, 39.570972173913056], [-107.51388, 39.57148], [-107.51176, 39.5715], [-107.51164, 39.56965], [-107.51148, 39.56813], [-107.51288, 39.56805], [-107.51357, 39.56741], [-107.51587, 39.56807], [-107.5155, 39.5692], [-107.5140945, 39.569574800000005]]], [[[-107.47789, 39.56959], [-107.47835, 39.56934], [-107.47875, 39.57022], [-107.47804, 39.57041], [-107.47747, 39.56983], [-107.47789, 39.56959]]], [[[-107.51443066528374, 39.57090691954364], [-107.51407, 39.57027], [-107.5148803396739, 39.57032550271739], [-107.5155542767425, 39.57050149902193], [-107.51561591792657, 39.5708353887689], [-107.5155319530934, 39.57102850788516], [-107.51493047725744, 39.57107185749496], [-107.51443066528374, 39.57090691954364]]], [[[-107.48858, 39.57193], [-107.48997, 39.57198], [-107.49031, 39.57377], [-107.49091, 39.57419], [-107.49014, 39.5742], [-107.48862, 39.57415], [-107.48858, 39.57193]]], [[[-107.46088, 39.57319], [-107.46235, 39.57282], [-107.46493, 39.57376], [-107.4649, 39.57417], [-107.4642, 39.57421], [-107.461, 39.57364], [-107.46088, 39.57319]]], [[[-107.42458, 39.59795], [-107.42458, 39.59435], [-107.42938, 39.59448], [-107.4296, 39.57174], [-107.43174, 39.57266], [-107.43203, 39.57592], [-107.43719, 39.57584], [-107.43769, 39.57935], [-107.44334, 39.57927], [-107.44299, 39.57711], [-107.44339, 39.57698], [-107.4434, 39.57532], [-107.45074, 39.5751], [-107.45098, 39.57679], [-107.45037, 39.57825], [-107.45199, 39.57825], [-107.45219, 39.57933], [-107.45044, 39.57934], [-107.4496, 39.58141], [-107.44822, 39.58121], [-107.44867, 39.57919], [-107.44753, 39.57883], [-107.44734, 39.58048], [-107.44788, 39.58219], [-107.4475, 39.58266], [-107.44862, 39.58265], [-107.4492, 39.5863], [-107.44756, 39.58655], [-107.44758, 39.59012], [-107.44285, 39.59015], [-107.44308, 39.59896], [-107.44665, 39.59904], [-107.44568, 39.60019], [-107.44609, 39.60088], [-107.44751, 39.60061], [-107.44731, 39.60263], [-107.44831, 39.60516], [-107.44617, 39.60594], [-107.44056, 39.60599], [-107.44037, 39.60804], [-107.43475, 39.60816], [-107.42933, 39.60919], [-107.42452, 39.60895], [-107.4246, 39.6052], [-107.43445, 39.60469], [-107.4341, 39.60106], [-107.42002, 39.60151], [-107.42012, 39.59791], [-107.42458, 39.59795]]], [[[-107.4508, 39.5987], [-107.45248, 39.59867], [-107.45252, 39.60058], [-107.44751, 39.60061], [-107.44914, 39.59977], [-107.45081, 39.59976], [-107.4508, 39.5987]]], [[[-107.41068, 39.60141], [-107.42002, 39.60151], [-107.42002, 39.60896], [-107.41069, 39.60894], [-107.41068, 39.60141]]]]}}]}