{"type": "FeatureCollection", "features": [{"id": "0", "type": "Feature", "properties": {"name": "Colorado West Slope / Colorado River Basin (CO)", "areasqkm": 131086.6, "source": "USGS WBD HUC-8 set (HUC-4 1401,1402,1403,1405,1408), dissolved", "pulldate": "2026-07-28", "srcurl": "https://hydro.nationalmap.gov/arcgis/rest/services/wbd/MapServer/4", "caveat": "Dissolved union of 30 HUC-8 subbasins making up Colorado's West Slope portion of the Colorado River watershed (HUC-4 1401,1402,1403,1405,1408). Used as the basin-scale reference boundary for statewide orgs."}, "geometry": {"type": "Polygon", "coordinates": [[[-108.2565, 36.4823], [-108.263, 36.485], [-108.2654, 36.4978], [-108.2572, 36.5051], [-108.2714, 36.5175], [-108.2695, 36.5245], [-108.281, 36.5397], [-108.2843, 36.5561], [-108.332, 36.5781], [-108.3362, 36.5876], [-108.3606, 36.604], [-108.3661, 36.6186], [-108.3801, 36.6167], [-108.3752, 36.6237], [-108.3837, 36.6335], [-108.4065, 36.6399], [-108.4139, 36.6592], [-108.4363, 36.681], [-108.4305, 36.6983], [-108.4441, 36.7075], [-108.4503, 36.7235], [-108.4916, 36.7102], [-108.5019, 36.7275], [-108.5177, 36.7234], [-108.5696, 36.7289], [-108.6217, 36.7515], [-108.6415, 36.7741], [-108.6486, 36.7719], [-108.6468, 36.7529], [-108.6715, 36.7339], [-108.7105, 36.6854], [-108.7318, 36.6778], [-108.7719, 36.6809], [-108.7865, 36.6886], [-108.8142, 36.6546], [-108.8387, 36.6565], [-108.846, 36.649], [-108.8366, 36.6321], [-108.8485, 36.6119], [-108.8425, 36.6043], [-108.8582, 36.5821], [-108.8856, 36.5765], [-108.891, 36.5683], [-108.9124, 36.5733], [-108.9274, 36.5625], [-108.9295, 36.5534], [-108.9222, 36.5477], [-108.9352, 36.5265], [-108.969, 36.5143], [-108.9733, 36.5046], [-108.9868, 36.4976], [-109.0063, 36.4653], [-109.0138, 36.4702], [-109.0201, 36.4598], [-109.0413, 36.4603], [-109.0546, 36.445], [-109.0837, 36.4416], [-109.0932, 36.4602], [-109.1112, 36.4607], [-109.1176, 36.4687], [-109.1485, 36.4662], [-109.159, 36.4799], [-109.1731, 36.4789], [-109.1755, 36.4935], [-109.1995, 36.5024], [-109.2174, 36.4957], [-109.2343, 36.4979], [-109.2746, 36.5226], [-109.2771, 36.5389], [-109.2945, 36.56], [-109.2674, 36.5817], [-109.2773, 36.5867], [-109.2667, 36.6315], [-109.2741, 36.6466], [-109.2589, 36.6626], [-109.2534, 36.6846], [-109.2421, 36.6936], [-109.2596, 36.7203], [-109.249, 36.7289], [-109.2403, 36.7246], [-109.2073, 36.7479], [-109.2029, 36.7623], [-109.2077, 36.773], [-109.1875, 36.773], [-109.1736, 36.7936], [-109.17358641276375, 36.793594750386], [-109.173, 36.802], [-109.1821, 36.7953], [-109.1931, 36.801], [-109.1945, 36.8171], [-109.2542, 36.82], [-109.2982, 36.8308], [-109.3082, 36.8818], [-109.3172, 36.8918], [-109.3469, 36.8909], [-109.3742, 36.8988], [-109.3789, 36.9059], [-109.441, 36.9144], [-109.4504, 36.9308], [-109.4946, 36.9477], [-109.5063, 36.944], [-109.5122, 36.9519], [-109.5307, 36.9515], [-109.5292, 36.9628], [-109.5571, 36.9635], [-109.5691, 36.9789], [-109.5843, 36.977], [-109.5753, 36.994], [-109.5776, 37.0076], [-109.5875, 37.0118], [-109.579, 37.03], [-109.5903, 37.033], [-109.595, 37.0551], [-109.6076, 37.0531], [-109.619, 37.0737], [-109.6306, 37.0728], [-109.6332, 37.0837], [-109.6466, 37.0828], [-109.6582, 37.1028], [-109.6557, 37.1293], [-109.6661, 37.1446], [-109.684, 37.1461], [-109.6853, 37.1599], [-109.678, 37.1647], [-109.6823, 37.1791], [-109.6714, 37.1899], [-109.6711, 37.2009], [-109.6821, 37.2124], [-109.7019, 37.2115], [-109.7156, 37.1994], [-109.7364, 37.2082], [-109.7305, 37.2185], [-109.7406, 37.2332], [-109.7332, 37.2612], [-109.7519, 37.2944], [-109.7508, 37.3168], [-109.7589, 37.3244], [-109.7696, 37.3234], [-109.7773, 37.3375], [-109.789, 37.3403], [-109.8266, 37.372], [-109.8591, 37.376], [-109.9249, 37.4048], [-109.923, 37.4106], [-109.909, 37.408], [-109.9041, 37.4185], [-109.9139, 37.4268], [-109.9125, 37.4521], [-109.896, 37.4723], [-109.8957, 37.4892], [-109.8605, 37.545], [-109.8605, 37.5802], [-109.8405, 37.5794], [-109.8275, 37.5894], [-109.8333, 37.6177], [-109.8557, 37.6449], [-109.8173, 37.678], [-109.8093, 37.6984], [-109.8144, 37.7067], [-109.8035, 37.711], [-109.8064, 37.7219], [-109.781, 37.7243], [-109.7573, 37.7405], [-109.7755, 37.7828], [-109.787, 37.7908], [-109.7707, 37.8128], [-109.7801, 37.815], [-109.7896, 37.8314], [-109.7378, 37.8474], [-109.7916, 37.832], [-109.7804, 37.8446], [-109.7848, 37.851], [-109.7792, 37.8632], [-109.7842, 37.883], [-109.7804, 37.899], [-109.7923, 37.9064], [-109.7891, 37.9217], [-109.7964, 37.9271], [-109.8002, 37.9463], [-109.8103, 37.9477], [-109.7979, 37.9609], [-109.8196, 37.974], [-109.8049, 37.9907], [-109.8046, 38.0032], [-109.8109, 38.0097], [-109.8078, 38.022], [-109.8163, 38.0257], [-109.8087, 38.0378], [-109.8157, 38.0448], [-109.8101, 38.0533], [-109.8227, 38.0661], [-109.8178, 38.0796], [-109.8246, 38.0869], [-109.837, 38.0871], [-109.8357, 38.0957], [-109.8464, 38.0999], [-109.8467, 38.1184], [-109.8805, 38.1255], [-109.8703, 38.1408], [-109.8807, 38.1492], [-109.8744, 38.1713], [-109.8804, 38.1902], [-109.8924, 38.1954], [-109.8689, 38.2097], [-109.8631, 38.2303], [-109.8667, 38.2594], [-109.8619, 38.2736], [-109.8751, 38.2903], [-109.8527, 38.3209], [-109.8679, 38.3602], [-109.8658, 38.3887], [-109.832, 38.4052], [-109.8173, 38.4228], [-109.8154, 38.4289], [-109.8252, 38.4358], [-109.8158, 38.4411], [-109.8216, 38.4584], [-109.8043, 38.4792], [-109.8101, 38.4917], [-109.8082, 38.5107], [-109.8002, 38.5207], [-109.7998, 38.543], [-109.7899, 38.5539], [-109.7948, 38.5624], [-109.7925, 38.5799], [-109.808, 38.5906], [-109.8038, 38.6064], [-109.8086, 38.6235], [-109.8029, 38.6339], [-109.8301, 38.6488], [-109.8516, 38.6712], [-109.8298, 38.6823], [-109.829, 38.6919], [-109.8436, 38.7022], [-109.8416, 38.7085], [-109.8321, 38.7177], [-109.8269, 38.7397], [-109.7896, 38.7671], [-109.787, 38.7828], [-109.775, 38.785], [-109.7659, 38.7947], [-109.7733, 38.8076], [-109.7528, 38.812], [-109.7318, 38.8264], [-109.6923, 38.8053], [-109.6695, 38.8173], [-109.6976, 38.8322], [-109.6939, 38.8367], [-109.7031, 38.8458], [-109.7199, 38.852], [-109.7082, 38.8646], [-109.6975, 38.8644], [-109.6946, 38.8863], [-109.6834, 38.8939], [-109.6756, 38.9183], [-109.6829, 38.9318], [-109.6781, 38.9344], [-109.6873, 38.9532], [-109.6954, 38.9559], [-109.7017, 38.9774], [-109.6981, 38.9876], [-109.6861, 38.9925], [-109.6899, 39.0089], [-109.684, 39.032], [-109.6757, 39.0357], [-109.6707, 39.0277], [-109.66533310234543, 39.02650735607676], [-109.6841, 39.0448], [-109.6878, 39.0666], [-109.68, 39.0784], [-109.6876, 39.0899], [-109.6878, 39.1082], [-109.722, 39.1471], [-109.7113, 39.158], [-109.657, 39.1726], [-109.6532, 39.1822], [-109.6427, 39.184], [-109.6294, 39.176], [-109.6239, 39.1915], [-109.6131, 39.1952], [-109.5975, 39.216], [-109.5886, 39.2174], [-109.5864, 39.2259], [-109.564, 39.2302], [-109.5645, 39.2351], [-109.5549, 39.2381], [-109.5589, 39.2594], [-109.549, 39.2784], [-109.5502, 39.2907], [-109.5396, 39.3036], [-109.5218, 39.3097], [-109.5138, 39.3366], [-109.4994, 39.3377], [-109.4942, 39.3484], [-109.4787, 39.3531], [-109.474, 39.3609], [-109.4579, 39.3607], [-109.4446, 39.3902], [-109.4288, 39.3969], [-109.4238, 39.4089], [-109.4058, 39.4115], [-109.3992, 39.4193], [-109.3925, 39.4126], [-109.3706, 39.4189], [-109.3601, 39.4148], [-109.3413, 39.4236], [-109.334, 39.4166], [-109.2745, 39.4526], [-109.26347500000003, 39.44507500000002], [-109.2755, 39.4571], [-109.2966, 39.4613], [-109.3129, 39.4853], [-109.3337, 39.4912], [-109.3448, 39.5024], [-109.3581, 39.5238], [-109.3604, 39.5494], [-109.4085, 39.5782], [-109.4166, 39.593], [-109.4155, 39.6053], [-109.4239, 39.607], [-109.4252, 39.6171], [-109.4345, 39.6226], [-109.4146, 39.6603], [-109.4311, 39.6954], [-109.476, 39.707], [-109.4764, 39.7127], [-109.5012, 39.7247], [-109.4986, 39.7375], [-109.5556, 39.7527], [-109.5923, 39.7697], [-109.5945, 39.7799], [-109.5868, 39.7825], [-109.5867, 39.7942], [-109.5938, 39.8009], [-109.5905, 39.8176], [-109.6013, 39.8412], [-109.5986, 39.8547], [-109.6055, 39.8608], [-109.6028, 39.8895], [-109.6114, 39.9271], [-109.5878, 39.9596], [-109.6068, 39.9722], [-109.6197, 40.0094], [-109.6366, 40.0187], [-109.6319, 40.0246], [-109.6393, 40.0285], [-109.6376, 40.0414], [-109.6473, 40.051], [-109.6784, 40.0628], [-109.6508, 40.0868], [-109.6232, 40.0994], [-109.5996, 40.0994], [-109.591, 40.0904], [-109.564, 40.1014], [-109.5499, 40.0979], [-109.5237, 40.105], [-109.5098, 40.1296], [-109.4823, 40.1481], [-109.4824, 40.1621], [-109.476, 40.168], [-109.4275, 40.1793], [-109.4056, 40.1715], [-109.3674, 40.1835], [-109.3398, 40.182], [-109.2721, 40.2077], [-109.2671, 40.2171], [-109.2134, 40.2201], [-109.173, 40.2066], [-109.1551, 40.2068], [-109.1186, 40.1911], [-109.0877, 40.2086], [-109.0704, 40.1954], [-109.0604, 40.2138], [-109.0479, 40.2185], [-109.0491, 40.2331], [-109.0093, 40.2459], [-108.9807, 40.2876], [-108.9487, 40.3015], [-108.9234, 40.299], [-108.9057, 40.3061], [-108.9076, 40.3102], [-108.89944867034762, 40.3106204124176], [-108.9346, 40.3173], [-108.9484, 40.3284], [-108.942, 40.3422], [-108.9479, 40.3503], [-109.0185, 40.3694], [-109.0198, 40.3813], [-109.0313, 40.394], [-109.0244, 40.4031], [-109.03, 40.4175], [-109.0186, 40.4311], [-109.0411, 40.4484], [-109.036, 40.4716], [-109.0095, 40.4921], [-108.9962, 40.4904], [-108.9783, 40.5053], [-108.9741, 40.5263], [-108.9849, 40.5279], [-108.9779, 40.5389], [-108.9481, 40.5447], [-108.937, 40.5526], [-108.9377, 40.5606], [-108.9266, 40.5652], [-108.928, 40.5741], [-108.8941, 40.5839], [-108.875, 40.607], [-108.8564, 40.6102], [-108.8481, 40.6], [-108.8304, 40.605], [-108.8129, 40.59], [-108.7764, 40.6007], [-108.7631, 40.5911], [-108.7465, 40.593], [-108.7457, 40.5851], [-108.7283, 40.5752], [-108.7063, 40.5788], [-108.6892, 40.5714], [-108.6862, 40.5634], [-108.6565, 40.5644], [-108.6489, 40.5562], [-108.62155380533657, 40.554948237568226], [-108.6223, 40.5554], [-108.6182, 40.5642], [-108.5862, 40.5829], [-108.5877, 40.5938], [-108.5796, 40.5985], [-108.5829, 40.6071], [-108.5688, 40.6067], [-108.5456, 40.6239], [-108.5514, 40.6299], [-108.5518, 40.6489], [-108.5415, 40.6538], [-108.5381, 40.6707], [-108.5508, 40.6782], [-108.5601, 40.6936], [-108.5507, 40.7161], [-108.5812, 40.7341], [-108.6096, 40.7385], [-108.6274, 40.7549], [-108.62, 40.7663], [-108.6204, 40.7762], [-108.6283, 40.7813], [-108.6119, 40.7896], [-108.6165, 40.7984], [-108.6115, 40.8084], [-108.5828, 40.8162], [-108.5786, 40.8392], [-108.5441, 40.8475], [-108.5259, 40.8372], [-108.5127, 40.8393], [-108.5069, 40.8422], [-108.5056, 40.8574], [-108.4708, 40.8691], [-108.426, 40.8993], [-108.4131, 40.9259], [-108.4267, 40.938], [-108.4152, 40.9543], [-108.4202, 40.9581], [-108.4147, 40.9751], [-108.4173, 40.9924], [-108.4043, 40.9976], [-108.4077, 41.0092], [-108.388, 41.0139], [-108.4001, 41.0241], [-108.3884, 41.032], [-108.3896, 41.039], [-108.362, 41.0378], [-108.3341, 41.046], [-108.3433, 41.0544], [-108.3665, 41.0521], [-108.3554, 41.0594], [-108.3543, 41.0734], [-108.3689, 41.0975], [-108.3639, 41.1141], [-108.318, 41.1471], [-108.3092, 41.1649], [-108.2998, 41.1659], [-108.2644, 41.1968], [-108.2907, 41.1954], [-108.2959, 41.2052], [-108.302, 41.2049], [-108.3125, 41.1947], [-108.3106, 41.1791], [-108.3405, 41.1796], [-108.3857, 41.1932], [-108.3884, 41.2053], [-108.374, 41.2208], [-108.3818, 41.2335], [-108.3757, 41.2433], [-108.3843, 41.2457], [-108.3845, 41.2561], [-108.3929, 41.2618], [-108.3905, 41.274], [-108.3577, 41.2934], [-108.3635, 41.298], [-108.3592, 41.3035], [-108.3378, 41.3084], [-108.3342, 41.318], [-108.3078, 41.3365], [-108.3151, 41.3454], [-108.3023, 41.3614], [-108.3074, 41.3699], [-108.2919, 41.3737], [-108.2918, 41.3844], [-108.2801, 41.3977], [-108.2456, 41.3942], [-108.2276, 41.4011], [-108.2218, 41.4116], [-108.1938, 41.4153], [-108.1754, 41.4157], [-108.1482, 41.4052], [-108.1341, 41.4186], [-108.0888, 41.4127], [-108.0916, 41.4065], [-108.0741, 41.3873], [-108.0522, 41.3907], [-108.0365, 41.4011], [-108.0229, 41.3887], [-108.0032, 41.3945], [-108.0088, 41.3793], [-107.9993, 41.3585], [-107.974, 41.3499], [-107.9805, 41.3411], [-108.0005, 41.3373], [-107.9979, 41.3273], [-107.9782, 41.3193], [-108.0161, 41.3071], [-108.0106, 41.2976], [-108.0146, 41.2872], [-108.002, 41.2857], [-107.988, 41.265], [-107.969, 41.2687], [-107.9584, 41.2648], [-107.9554, 41.2532], [-107.9394, 41.2502], [-107.9487, 41.2332], [-107.9327, 41.228], [-107.9287, 41.2161], [-107.9085, 41.2227], [-107.8675, 41.2181], [-107.8465, 41.205], [-107.8489, 41.1999], [-107.8329, 41.1781], [-107.8079, 41.1727], [-107.7975, 41.1593], [-107.7865, 41.1569], [-107.7791, 41.1429], [-107.7567, 41.1332], [-107.7494, 41.1158], [-107.7202, 41.1201], [-107.7157, 41.1037], [-107.7061, 41.1002], [-107.7104, 41.0829], [-107.6973, 41.0768], [-107.6977, 41.0599], [-107.6783, 41.0686], [-107.6802, 41.0761], [-107.6721, 41.0848], [-107.6573, 41.0888], [-107.6541, 41.0805], [-107.6603, 41.0768], [-107.6522, 41.0651], [-107.6526, 41.0396], [-107.6266, 41.0519], [-107.5958, 41.0529], [-107.5814, 41.0631], [-107.5589, 41.0655], [-107.5526, 41.1033], [-107.5236, 41.1254], [-107.5125, 41.1458], [-107.4754, 41.1658], [-107.4652, 41.1884], [-107.4765, 41.1971], [-107.489, 41.2355], [-107.4418, 41.2791], [-107.4405, 41.3138], [-107.4251, 41.3322], [-107.4304, 41.339], [-107.4017, 41.3645], [-107.3699, 41.3804], [-107.3587, 41.3963], [-107.3457, 41.4022], [-107.3234, 41.3955], [-107.3225, 41.3901], [-107.3071, 41.3909], [-107.286, 41.3751], [-107.2711, 41.3787], [-107.2662, 41.3825], [-107.2702, 41.3878], [-107.258, 41.3885], [-107.2484, 41.398], [-107.2147, 41.4038], [-107.2056, 41.3861], [-107.2129, 41.3772], [-107.1872, 41.3652], [-107.1659, 41.3658], [-107.16, 41.3579], [-107.1658, 41.3336], [-107.1349, 41.3286], [-107.1465, 41.3091], [-107.1632, 41.2976], [-107.1437, 41.2901], [-107.1133, 41.2483], [-107.1273, 41.2312], [-107.1258, 41.2257], [-107.1122, 41.2263], [-107.0883, 41.1997], [-107.0666, 41.2032], [-107.0474, 41.189], [-106.9819, 41.1686], [-106.9821, 41.1547], [-106.975, 41.1486], [-107.0134, 41.1173], [-106.98, 41.1096], [-106.9695, 41.1163], [-106.9539, 41.0964], [-106.9228, 41.089], [-106.9046, 41.0918], [-106.884, 41.0747], [-106.9008, 41.0619], [-106.9186, 41.0589], [-106.9386, 41.0208], [-106.9219, 41.0128], [-106.8956, 41.018], [-106.8764, 41.0045], [-106.857, 41.0041], [-106.8615, 40.9966], [-106.8505, 40.9904], [-106.8569, 40.9812], [-106.8708, 40.9806], [-106.8697, 40.9564], [-106.8518, 40.9331], [-106.8518, 40.9248], [-106.83, 40.9241], [-106.8249, 40.932], [-106.8109, 40.9152], [-106.8053, 40.9021], [-106.8095, 40.8998], [-106.8012, 40.8964], [-106.80253186680729, 40.89143576917283], [-106.7783, 40.906], [-106.7687, 40.9038], [-106.7698, 40.8965], [-106.742, 40.891], [-106.7466, 40.8813], [-106.7389, 40.8712], [-106.7063, 40.8758], [-106.6946, 40.8879], [-106.686, 40.8858], [-106.6797, 40.8698], [-106.6548, 40.8492], [-106.6623, 40.8428], [-106.6639, 40.8281], [-106.6437, 40.8215], [-106.6357, 40.8116], [-106.637, 40.7897], [-106.6699, 40.7616], [-106.6615, 40.7537], [-106.6632, 40.7436], [-106.6766, 40.7368], [-106.6698, 40.729], [-106.674, 40.724], [-106.6683, 40.6957], [-106.6873, 40.6829], [-106.681, 40.6755], [-106.6923, 40.6588], [-106.6802, 40.648], [-106.6889, 40.6402], [-106.6869, 40.6346], [-106.7037, 40.6278], [-106.7063, 40.6157], [-106.6942, 40.5958], [-106.7023, 40.578], [-106.6923, 40.5626], [-106.6975, 40.5533], [-106.6859, 40.5513], [-106.6705, 40.5356], [-106.6739, 40.523], [-106.6557, 40.5088], [-106.6532, 40.4938], [-106.6671, 40.4726], [-106.6543, 40.4676], [-106.6592, 40.4588], [-106.6506, 40.4553], [-106.6516, 40.4414], [-106.6401, 40.4329], [-106.64137671178631, 40.431577280581756], [-106.6224, 40.4305], [-106.6288, 40.4185], [-106.61, 40.3782], [-106.6006, 40.3761], [-106.5944, 40.3831], [-106.5612, 40.3786], [-106.5535, 40.37], [-106.54, 40.3713], [-106.5347, 40.3651], [-106.5262, 40.3849], [-106.5188, 40.391], [-106.5122, 40.3869], [-106.4897, 40.4116], [-106.4776, 40.4047], [-106.4811, 40.3897], [-106.4433, 40.3465], [-106.4219, 40.3527], [-106.3896, 40.3455], [-106.385, 40.3527], [-106.3559, 40.359], [-106.3371, 40.3396], [-106.306, 40.3285], [-106.2958, 40.3332], [-106.2986, 40.3499], [-106.2911, 40.3582], [-106.2786, 40.3537], [-106.2658, 40.361], [-106.2305, 40.3232], [-106.2174, 40.3291], [-106.1891, 40.3265], [-106.1712, 40.3439], [-106.1363, 40.3302], [-106.1007, 40.3542], [-106.0859, 40.3473], [-106.0194, 40.3733], [-106.0139, 40.3729], [-106.0113, 40.3622], [-105.9858, 40.3642], [-105.9706, 40.3501], [-105.9597, 40.3482], [-105.9543, 40.3604], [-105.9385, 40.3661], [-105.9465, 40.385], [-105.9252, 40.3926], [-105.9206, 40.4016], [-105.9034, 40.4005], [-105.8977, 40.4179], [-105.9035, 40.4317], [-105.8971, 40.4486], [-105.8992, 40.4656], [-105.8919, 40.4764], [-105.855, 40.4862], [-105.8454, 40.4827], [-105.8074, 40.4739], [-105.8113, 40.4708], [-105.8045, 40.4642], [-105.8057, 40.4477], [-105.8161, 40.4373], [-105.8175, 40.4252], [-105.7912, 40.3991], [-105.7909, 40.3867], [-105.7816, 40.3734], [-105.7585, 40.3526], [-105.7368, 40.3466], [-105.7287, 40.3349], [-105.6988, 40.3207], [-105.7026, 40.3126], [-105.6905, 40.3089], [-105.6877, 40.2939], [-105.6821, 40.2921], [-105.6868, 40.2881], [-105.6807, 40.2844], [-105.6826, 40.2726], [-105.6545, 40.2614], [-105.6437, 40.2499], [-105.66, 40.2489], [-105.6688, 40.2288], [-105.6629, 40.2199], [-105.6705, 40.2192], [-105.6779, 40.191], [-105.6705, 40.185], [-105.6677, 40.1583], [-105.6361, 40.1463], [-105.6266, 40.1275], [-105.6264, 40.1187], [-105.6367, 40.1072], [-105.633, 40.0814], [-105.641, 40.0729], [-105.6391, 40.0672], [-105.6511, 40.0585], [-105.6378, 40.0461], [-105.6388, 40.0391], [-105.652, 40.021], [-105.6896, 40.014], [-105.6912, 39.997], [-105.6831, 39.9928], [-105.6903, 39.9698], [-105.6853, 39.9587], [-105.6943, 39.9505], [-105.6938, 39.9423], [-105.6752, 39.9333], [-105.6911, 39.8974], [-105.6996, 39.8916], [-105.6904, 39.852], [-105.6961, 39.8389], [-105.7166, 39.8358], [-105.7361, 39.8048], [-105.7646, 39.7949], [-105.799, 39.8033], [-105.8231, 39.7857], [-105.8515, 39.7877], [-105.855, 39.7961], [-105.8876, 39.7971], [-105.8925, 39.7822], [-105.8805, 39.7595], [-105.8834, 39.7373], [-105.9075, 39.727], [-105.9247675805873, 39.69891537180341], [-105.9246, 39.699], [-105.9196, 39.6901], [-105.9265, 39.6733], [-105.911, 39.6623], [-105.8969, 39.6645], [-105.885, 39.6571], [-105.865, 39.6672], [-105.8488, 39.6442], [-105.8211, 39.6426], [-105.8174, 39.6337], [-105.793, 39.6363], [-105.7827, 39.6292], [-105.7761, 39.6052], [-105.801, 39.5935], [-105.8078, 39.5837], [-105.8385, 39.5726], [-105.8257, 39.5556], [-105.8159, 39.5522], [-105.8231, 39.5299], [-105.8468, 39.5238], [-105.8602, 39.5312], [-105.8681, 39.5193], [-105.8559, 39.5051], [-105.8795, 39.4839], [-105.8921, 39.4842], [-105.9059, 39.4597], [-105.9392, 39.4581], [-105.944, 39.4408], [-105.9666, 39.4385], [-105.9516, 39.4147], [-105.9926, 39.4017], [-106.0142, 39.387], [-106.0219, 39.3616], [-106.0565, 39.3587], [-106.097, 39.378], [-106.1323, 39.3796], [-106.1534, 39.3626], [-106.198, 39.3683], [-106.2097, 39.3823], [-106.20809068219634, 39.38505595673877], [-106.2255, 39.3814], [-106.2271, 39.3742], [-106.2511, 39.3577], [-106.2593, 39.3621], [-106.2838, 39.3495], [-106.312, 39.3623], [-106.3595, 39.3558], [-106.3717, 39.362], [-106.3806, 39.3763], [-106.4001, 39.3811], [-106.4335, 39.3541], [-106.435, 39.341], [-106.4271, 39.3233], [-106.4325, 39.3162], [-106.4512, 39.3164], [-106.4683, 39.3073], [-106.4765, 39.3151], [-106.4928, 39.3052], [-106.5025, 39.2984], [-106.5041, 39.2849], [-106.483, 39.2726], [-106.4811, 39.2595], [-106.4977, 39.2422], [-106.4988, 39.2352], [-106.4897, 39.2278], [-106.4937, 39.1983], [-106.5084, 39.178], [-106.5099, 39.1648], [-106.5213, 39.1574], [-106.5355, 39.1631], [-106.5381, 39.158], [-106.5518, 39.1615], [-106.5617, 39.1549], [-106.5589, 39.1439], [-106.5648, 39.1328], [-106.5582, 39.121], [-106.5636, 39.1064], [-106.5864, 39.0957], [-106.5851, 39.0843], [-106.577, 39.0794], [-106.5778, 39.0524], [-106.5973, 39.0446], [-106.5997, 39.0345], [-106.5914, 39.0255], [-106.5988, 38.9984], [-106.6127, 38.9956], [-106.5993, 38.998], [-106.595, 38.991], [-106.5772, 38.9904], [-106.5542, 38.9986], [-106.5284, 38.9806], [-106.522, 38.9686], [-106.5265, 38.9552], [-106.465, 38.9104], [-106.4373, 38.9149], [-106.4214, 38.9281], [-106.4024, 38.9107], [-106.3809, 38.9258], [-106.3731, 38.9066], [-106.3575, 38.913], [-106.3455, 38.9072], [-106.3262, 38.9111], [-106.321, 38.8934], [-106.3359, 38.872], [-106.349, 38.8649], [-106.3493, 38.8548], [-106.365, 38.8532], [-106.3648, 38.8457], [-106.3819, 38.8328], [-106.3835, 38.8247], [-106.3968, 38.8228], [-106.4068, 38.8294], [-106.416, 38.8242], [-106.4149, 38.8155], [-106.4227, 38.8083], [-106.4128, 38.7907], [-106.4192, 38.7663], [-106.4166, 38.7279], [-106.4252, 38.7103], [-106.4436, 38.7093], [-106.452, 38.6985], [-106.4382, 38.6833], [-106.4295, 38.6514], [-106.3799, 38.6385], [-106.3857, 38.6257], [-106.3649, 38.6156], [-106.3609, 38.5945], [-106.3447, 38.5685], [-106.355, 38.5426], [-106.3427, 38.5213], [-106.3452, 38.5064], [-106.3302, 38.4937], [-106.3124, 38.4948], [-106.3042, 38.4779], [-106.2905, 38.4734], [-106.2886, 38.4615], [-106.2725, 38.4552], [-106.266, 38.4418], [-106.2457, 38.4392], [-106.2496, 38.4333], [-106.2441, 38.4187], [-106.2532, 38.4002], [-106.2372, 38.3797], [-106.238, 38.3662], [-106.2439, 38.3523], [-106.2529, 38.3476], [-106.2707, 38.3528], [-106.3161, 38.3426], [-106.3387, 38.287], [-106.3795, 38.2931], [-106.395, 38.2821], [-106.4342, 38.2819], [-106.4589, 38.3011], [-106.464, 38.313], [-106.4726, 38.3129], [-106.4739, 38.3222], [-106.5049, 38.3149], [-106.5363, 38.262], [-106.5593, 38.2516], [-106.5605, 38.2343], [-106.5548, 38.2291], [-106.5758, 38.2121], [-106.5872, 38.1894], [-106.598, 38.1893], [-106.6017, 38.1709], [-106.5971, 38.1569], [-106.6106, 38.1346], [-106.6333, 38.1283], [-106.6715, 38.0935], [-106.6701, 38.0869], [-106.6848, 38.0814], [-106.7042, 38.0805], [-106.7203, 38.0916], [-106.7444, 38.0935], [-106.7598, 38.086], [-106.8064, 38.0307], [-106.8087, 38.0158], [-106.7822, 38.0021], [-106.8012, 37.9864], [-106.8033, 37.9716], [-106.8164, 37.9557], [-106.8504, 37.9567], [-106.8715, 37.9417], [-106.8795, 37.9495], [-106.8799, 37.9605], [-106.8974, 37.968], [-106.9082, 37.9633], [-106.92210706755174, 37.97066743459586], [-106.9202, 37.9673], [-106.9449, 37.9523], [-106.9674, 37.9748], [-106.9872, 37.9694], [-106.987, 37.9631], [-107.0053, 37.9566], [-107.0092, 37.9465], [-107.0249, 37.9544], [-107.037, 37.9487], [-107.055, 37.9509], [-107.0677, 37.9615], [-107.0915, 37.9492], [-107.1029, 37.9554], [-107.1092, 37.9437], [-107.1325, 37.9369], [-107.1905, 37.9366], [-107.2251, 37.926], [-107.2532, 37.9293], [-107.2673, 37.938], [-107.3006, 37.8987], [-107.3402, 37.8713], [-107.3486, 37.8569], [-107.4246, 37.8592], [-107.4456, 37.8438], [-107.4454, 37.8487], [-107.4514, 37.8471], [-107.4653, 37.8588], [-107.4672, 37.8462], [-107.4942, 37.8498], [-107.4997, 37.8399], [-107.5162, 37.8344], [-107.5231, 37.8228], [-107.5183, 37.8157], [-107.5259, 37.8133], [-107.5298, 37.8012], [-107.5456, 37.7997], [-107.5548, 37.7896], [-107.5594, 37.7653], [-107.5338, 37.7149], [-107.54502399999964, 37.70524000000031], [-107.5432, 37.7068], [-107.5318, 37.7054], [-107.521, 37.7061], [-107.504, 37.6933], [-107.5021, 37.6777], [-107.4893, 37.659], [-107.492, 37.6517], [-107.4614, 37.6294], [-107.4419, 37.6324], [-107.4238, 37.6503], [-107.3976, 37.6531], [-107.3936, 37.6787], [-107.3751, 37.6876], [-107.3453, 37.6789], [-107.3237, 37.6836], [-107.3067, 37.6774], [-107.2687, 37.6958], [-107.273, 37.6796], [-107.2908, 37.6714], [-107.2766, 37.6555], [-107.2789, 37.6411], [-107.2698, 37.6358], [-107.2566, 37.628], [-107.2595, 37.621], [-107.2492, 37.6083], [-107.2306, 37.5951], [-107.2229, 37.5946], [-107.2011, 37.6107], [-107.1991, 37.6257], [-107.1528, 37.637], [-107.1401, 37.6244], [-107.1441, 37.618], [-107.1382, 37.6014], [-107.1118, 37.6084], [-107.1063, 37.5999], [-107.0922, 37.5962], [-107.0926, 37.5735], [-107.0485, 37.57], [-107.045, 37.5603], [-107.0188, 37.5628], [-107.0081, 37.5737], [-106.9801, 37.5708], [-106.9691, 37.5652], [-106.9486, 37.5708], [-106.8877, 37.5647], [-106.8812, 37.5612], [-106.8789, 37.5444], [-106.8881, 37.5169], [-106.8744, 37.4996], [-106.8531, 37.4922], [-106.845, 37.4994], [-106.8282, 37.4947], [-106.816, 37.4991], [-106.8004, 37.4927], [-106.8067, 37.4663], [-106.7988, 37.4571], [-106.7728, 37.4498], [-106.7656, 37.4622], [-106.7566, 37.4645], [-106.734, 37.4593], [-106.7167, 37.4418], [-106.702, 37.4514], [-106.6806, 37.4347], [-106.6608, 37.4296], [-106.6433, 37.4128], [-106.6463, 37.405], [-106.6557, 37.4086], [-106.6706, 37.4018], [-106.6819, 37.3755], [-106.6997, 37.3693], [-106.6969, 37.3506], [-106.7076, 37.3357], [-106.6919, 37.324], [-106.666, 37.3209], [-106.6635, 37.3108], [-106.6824, 37.2959], [-106.6939, 37.2752], [-106.686, 37.2592], [-106.6627, 37.2532], [-106.6352, 37.2569], [-106.6309, 37.2208], [-106.6053, 37.2214], [-106.6045, 37.2128], [-106.5918, 37.2011], [-106.5944, 37.1498], [-106.5882, 37.1383], [-106.6128, 37.1355], [-106.6268, 37.1163], [-106.623, 37.0982], [-106.6402, 37.054], [-106.6289, 37.0404], [-106.649, 37.0308], [-106.6913, 37.0393], [-106.6886, 37.0056], [-106.6992, 36.9904], [-106.7194, 36.9855], [-106.7212, 36.9724], [-106.7339, 36.9604], [-106.7188, 36.9553], [-106.7138, 36.9494], [-106.7176, 36.9406], [-106.7054, 36.9372], [-106.7014, 36.9011], [-106.7193, 36.8978], [-106.7218, 36.8891], [-106.7394, 36.8845], [-106.7593, 36.8671], [-106.775, 36.8639], [-106.7854, 36.8703], [-106.8299, 36.8254], [-106.8487, 36.8228], [-106.8738, 36.8048], [-106.895, 36.8085], [-106.8932, 36.8145], [-106.9059, 36.8072], [-106.9168, 36.8128], [-106.9372, 36.8046], [-106.9355, 36.7925], [-106.9414, 36.7882], [-106.9307, 36.7726], [-106.9281, 36.753], [-106.9474, 36.7364], [-106.9546, 36.7171], [-106.9484, 36.704], [-106.9676, 36.6857], [-106.9656, 36.6714], [-106.9989, 36.6598], [-106.9957, 36.6552], [-107.0065, 36.6526], [-107.0279, 36.6629], [-107.062, 36.6537], [-107.1449, 36.6637], [-107.1837, 36.6476], [-107.1931, 36.665], [-107.2475, 36.6521], [-107.2701, 36.6662], [-107.2916, 36.6654], [-107.3189, 36.6584], [-107.3258, 36.6417], [-107.3515, 36.6252], [-107.3781, 36.6444], [-107.3976, 36.6319], [-107.4349, 36.6279], [-107.4452, 36.6421], [-107.4544, 36.6442], [-107.4503, 36.6483], [-107.4543, 36.6628], [-107.4809, 36.6723], [-107.5157, 36.674], [-107.5331, 36.6836], [-107.5577, 36.6813], [-107.5717, 36.7039], [-107.6069, 36.7199], [-107.6239, 36.7169], [-107.6416, 36.7224], [-107.6568, 36.7171], [-107.6821, 36.7219], [-107.7051, 36.7095], [-107.7149, 36.7237], [-107.7927, 36.7304], [-107.8218, 36.7162], [-107.8116, 36.7154], [-107.8123, 36.7094], [-107.7987, 36.7003], [-107.8048, 36.6799], [-107.7888, 36.6684], [-107.7918, 36.6507], [-107.7828, 36.6411], [-107.797, 36.6128], [-107.8309, 36.5917], [-107.8273, 36.5785], [-107.8436, 36.5674], [-107.8441, 36.5582], [-107.891, 36.5281], [-107.8836, 36.4996], [-107.8673, 36.4826], [-107.8696, 36.4506], [-107.883, 36.4439], [-107.8815, 36.4394], [-107.8448, 36.4259], [-107.8452, 36.4124], [-107.826, 36.3991], [-107.8334, 36.3754], [-107.8168, 36.3637], [-107.8336, 36.3348], [-107.8473, 36.3254], [-107.9201, 36.3498], [-107.9547, 36.3505], [-108.0089, 36.3827], [-108.0563, 36.3798], [-108.0561, 36.3882], [-108.0688, 36.3875], [-108.0812, 36.3962], [-108.1189, 36.3799], [-108.1269, 36.3861], [-108.1481, 36.3844], [-108.1464, 36.4066], [-108.2024, 36.4133], [-108.2133, 36.4265], [-108.2257, 36.4246], [-108.2366, 36.444], [-108.2502, 36.4487], [-108.2418, 36.4657], [-108.25595036795768, 36.48256798829393], [-108.2565, 36.4823]], [[-109.731, 37.8421], [-109.7202, 37.8231], [-109.72003531662521, 37.82308456093361], [-109.7271, 37.84], [-109.7378, 37.8474], [-109.731, 37.8421]], [[-106.6484, 39.0222], [-106.6468, 39.0331], [-106.6486, 39.0223], [-106.6127, 38.9956], [-106.6484, 39.0222]], [[-106.4736, 38.6967], [-106.5075, 38.6776], [-106.452, 38.6985], [-106.4736, 38.6967]], [[-107.965, 37.0664], [-107.96089183016845, 37.05811739953315], [-107.9623, 37.0781], [-107.965, 37.0664]], [[-107.9744, 37.0379], [-107.9602, 37.0483], [-107.96047366393837, 37.05218342160167], [-107.9744, 37.0379]], [[-107.97066404261358, 37.02010504508044], [-107.9704, 37.0204], [-107.9744, 37.0379], [-107.97066404261358, 37.02010504508044]], [[-107.9908, 36.9977], [-107.99081660804404, 36.99759315491666], [-107.9869634837357, 37.001897376704996], [-107.9908, 36.9977]], [[-108.0027, 36.9737], [-108.00760846963925, 36.964899815146765], [-107.9944, 36.9775], [-107.99428755803157, 36.97814252553389], [-108.0027, 36.9737]], [[-108.0167, 36.9486], [-108.01405852017938, 36.944404708520175], [-108.0103026082497, 36.96006960949519], [-108.0167, 36.9486]], [[-108.2256, 36.7106], [-108.1657, 36.7261], [-108.2215, 36.7136], [-108.1883, 36.7619], [-108.2256, 36.7106]], [[-108.2221, 36.6625], [-108.22148835867856, 36.66232160461458], [-108.2220577111391, 36.66262434187457], [-108.2221, 36.6625]], [[-108.18890061656585, 36.64377306886924], [-108.1891, 36.6451], [-108.1928211527487, 36.64707861898421], [-108.18890061656585, 36.64377306886924]], [[-108.18633298242129, 36.62540879928493], [-108.1862, 36.6258], [-108.18625842243918, 36.62618881140555], [-108.18633298242129, 36.62540879928493]], [[-108.20271774193549, 36.59013310696094], [-108.1965, 36.5955], [-108.19365426789938, 36.6038714254999], [-108.20271774193549, 36.59013310696094]], [[-108.2065, 36.5844], [-108.19902073039744, 36.570028070175475], [-108.20546320375156, 36.58597156483974], [-108.2065, 36.5844]], [[-108.2060185185185, 36.55443893480259], [-108.1961, 36.5628], [-108.19672505186722, 36.56434684552998], [-108.2060185185185, 36.55443893480259]], [[-108.2084, 36.5519], [-108.2009, 36.5411], [-108.20801571661238, 36.55230969055374], [-108.2084, 36.5519]], [[-108.20886089480874, 36.52423320525957], [-108.208, 36.5267], [-108.2115, 36.5379], [-108.20886089480874, 36.52423320525957]], [[-108.22411844827586, 36.49829560344827], [-108.2132, 36.5118], [-108.20974611398964, 36.52169671183737], [-108.22411844827586, 36.49829560344827]], [[-108.22743937133721, 36.4964693127331], [-108.2246, 36.4977], [-108.22439482984294, 36.497953763089], [-108.22743937133721, 36.4964693127331]], [[-108.4716, 40.4771], [-108.46644060150375, 40.464519548872175], [-108.4679, 40.4796], [-108.4716, 40.4771]], [[-108.4643, 40.4593], [-108.4585307458143, 40.455662861491625], [-108.46616537109779, 40.46384843911516], [-108.4643, 40.4593]], [[-108.4551, 40.4535], [-108.4209, 40.4643], [-108.45582717263075, 40.453958434919386], [-108.4551, 40.4535]], [[-107.8234, 40.7452], [-107.8218041706161, 40.745906350710904], [-107.8525, 40.7576], [-107.8234, 40.7452]], [[-107.7929, 40.7587], [-107.79004381634938, 40.76295733034715], [-107.81539129635307, 40.748744836040444], [-107.7929, 40.7587]], [[-107.7736, 40.7678], [-107.7421, 40.7366], [-107.7757, 40.771], [-107.782815907582, 40.7670100650644], [-107.7736, 40.7678]], [[-107.6171, 40.6651], [-107.6264, 40.6854], [-107.62676558656575, 40.68562691579943], [-107.6171, 40.6651]], [[-107.5353, 40.1238], [-107.5285, 40.1339], [-107.5289, 40.1454], [-107.5353, 40.1238]], [[-107.7514, 40.1578], [-107.75190773367386, 40.15766570385425], [-107.7401, 40.1482], [-107.7514, 40.1578]], [[-107.79582977461448, 40.13815539739027], [-107.7939, 40.1385], [-107.7945, 40.1464], [-107.79582977461448, 40.13815539739027]], [[-107.80272451154529, 40.139394245115454], [-107.8023, 40.137], [-107.79797210994342, 40.137772837510106], [-107.80272451154529, 40.139394245115454]], [[-107.8053, 40.1513], [-107.8177, 40.1458], [-107.8052721085261, 40.15090603293114], [-107.8053, 40.1513]], [[-108.297, 40.3804], [-108.30654915084224, 40.37621902044204], [-108.2919, 40.3775], [-108.2859, 40.3796], [-108.297, 40.3804]], [[-108.3516, 40.3701], [-108.35399364811327, 40.36791321036566], [-108.34626687230106, 40.37042501055229], [-108.3516, 40.3701]], [[-108.37054135893648, 40.361131314623336], [-108.36625528089887, 40.35737438202247], [-108.3680831151393, 40.36148700906344], [-108.37054135893648, 40.361131314623336]], [[-108.3719, 40.3454], [-108.3656, 40.3559], [-108.36582170087976, 40.35639882697947], [-108.3719, 40.3454]], [[-108.4048, 40.1806], [-108.40349523611975, 40.17500324967159], [-108.3994, 40.1906], [-108.4048, 40.1806]], [[-108.40272126626296, 40.171683326338524], [-108.40257968307867, 40.172205897000566], [-108.4028646863591, 40.17229852306671], [-108.40272126626296, 40.171683326338524]], [[-107.875, 39.7965], [-107.87202304203207, 39.79269906259451], [-107.8816, 39.8154], [-107.875, 39.7965]], [[-107.8526, 39.7679], [-107.8482, 39.7802], [-107.8536, 39.7709], [-107.86328378063007, 39.781540898483044], [-107.8526, 39.7679]], [[-107.8712, 39.7643], [-107.87232960445684, 39.76350479108635], [-107.8526, 39.7679], [-107.8712, 39.7643]], [[-107.6944, 39.8239], [-107.693, 39.8116], [-107.694, 39.824], [-107.6995, 39.8234], [-107.7015, 39.8146], [-107.6944, 39.8239]], [[-107.6848, 39.8068], [-107.68391749086011, 39.80713319222628], [-107.693, 39.8116], [-107.6848, 39.8068]], [[-107.6147, 39.7996], [-107.61440255085567, 39.8000556667743], [-107.6148927503251, 39.799735403120934], [-107.6147, 39.7996]], [[-107.5857, 39.8121], [-107.5926, 39.8143], [-107.60111267019667, 39.80873838880484], [-107.5857, 39.8121]], [[-107.56528441330997, 39.84201541155867], [-107.5694, 39.8423], [-107.56974431874077, 39.84142075750123], [-107.56528441330997, 39.84201541155867]], [[-107.5457, 39.8322], [-107.54494277456648, 39.83216678835818], [-107.5506, 39.841], [-107.5457, 39.8322]], [[-107.48979967756796, 39.840057853523724], [-107.5003, 39.8414], [-107.50139941011396, 39.84034967069469], [-107.48979967756796, 39.840057853523724]], [[-107.48684935170178, 39.839015235008105], [-107.487, 39.8397], [-107.48732962311189, 39.83974213227746], [-107.48684935170178, 39.839015235008105]], [[-107.469, 39.812], [-107.46626177995795, 39.8117070217239], [-107.47335549048314, 39.81859209370423], [-107.469, 39.812]], [[-107.4285, 39.7648], [-107.42776201220103, 39.76311195894258], [-107.42794810126583, 39.76629873417721], [-107.4285, 39.7648]], [[-107.4198, 39.7449], [-107.41, 39.7424], [-107.42287008286462, 39.75192237344897], [-107.4198, 39.7449]], [[-107.3648, 39.748], [-107.35960866995674, 39.746809327971725], [-107.366, 39.7553], [-107.3648, 39.748]], [[-107.3516, 39.7305], [-107.3386, 39.7189], [-107.35269181129308, 39.737620508433146], [-107.3516, 39.7305]], [[-107.3301, 39.5493], [-107.3303341257436, 39.54921504024263], [-107.3203, 39.5414], [-107.33, 39.5491], [-107.3173, 39.5622], [-107.31730513646245, 39.562685395700825], [-107.3301, 39.5493]], [[-107.4126, 39.2919], [-107.41108457142853, 39.292249714285724], [-107.4128, 39.292], [-107.4346, 39.2987], [-107.4126, 39.2919]], [[-107.3966, 39.2834], [-107.397, 39.2943], [-107.39814629892304, 39.294133133701074], [-107.3966, 39.2834]], [[-107.37866461589624, 39.27161074160293], [-107.3775, 39.2727], [-107.37863269359947, 39.27333454562902], [-107.37866461589624, 39.27161074160293]], [[-107.39579486168928, 39.25625096189374], [-107.3944, 39.2563], [-107.39208753943217, 39.25493296529968], [-107.3945, 39.2568], [-107.3913386188778, 39.25975682116724], [-107.39579486168928, 39.25625096189374]], [[-107.4298, 39.2572], [-107.429799070052, 39.257049348424594], [-107.42, 39.2554], [-107.4173189451349, 39.2554942558351], [-107.4298, 39.2572]], [[-107.713, 39.0805], [-107.7211, 39.0649], [-107.7104625863771, 39.08126525172754], [-107.713, 39.0805]], [[-107.77305444785277, 39.045152377300624], [-107.77122794776119, 39.04324285447761], [-107.7712, 39.0437], [-107.77305444785277, 39.045152377300624]], [[-107.81714390134863, 38.815227978541095], [-107.8168, 38.8157], [-107.8259, 38.8291], [-107.81714390134863, 38.815227978541095]], [[-107.832, 38.7993], [-107.8367405182853, 38.78833066117704], [-107.81830565583637, 38.81363341355792], [-107.832, 38.7993]], [[-107.84045166019835, 38.77974325140148], [-107.8367, 38.7831], [-107.8284, 38.7748], [-107.83708556246941, 38.78753224498357], [-107.84045166019835, 38.77974325140148]], [[-107.8406, 38.7794], [-107.8367, 38.7621], [-107.84049012247776, 38.77965425147588], [-107.8406, 38.7794]], [[-107.8686, 38.652], [-107.86709972337484, 38.64749917012449], [-107.8597, 38.6753], [-107.8686, 38.652]], [[-107.87, 38.6296], [-107.86140047940727, 38.62228546524296], [-107.86872019347038, 38.63270810157195], [-107.87, 38.6296]], [[-108.0797, 38.753], [-108.0906, 38.7565], [-108.07262030068944, 38.743308372788455], [-108.0797, 38.753]], [[-108.09333709851265, 38.584899849105376], [-108.0692, 38.6031], [-108.06897478675822, 38.60502932677121], [-108.09333709851265, 38.584899849105376]], [[-108.127, 38.5732], [-108.094, 38.5844], [-108.09376366363716, 38.584578205241336], [-108.127, 38.5732]], [[-108.1883, 38.5322], [-108.18830922466735, 38.53195532668032], [-108.1749, 38.5549], [-108.1883, 38.5322]], [[-108.2001926416323, 38.31537232472325], [-108.1885408009067, 38.32244665659237], [-108.1925, 38.3229], [-108.1828, 38.3421], [-108.2001926416323, 38.31537232472325]], [[-108.16680720759078, 38.31873833100177], [-108.1663, 38.3199], [-108.17202526401297, 38.32055556458164], [-108.16680720759078, 38.31873833100177]], [[-108.09570215363745, 38.28057171443107], [-108.0963, 38.2813], [-108.106, 38.2734], [-108.09570215363745, 38.28057171443107]], [[-108.07903322759715, 38.2740260111023], [-108.0829, 38.2768], [-108.0908, 38.2746], [-108.07903322759715, 38.2740260111023]], [[-108.0796, 38.2554], [-108.0783, 38.2735], [-108.0785202264828, 38.27365798856374], [-108.0796, 38.2554]], [[-107.9649099219926, 38.22964580539209], [-107.9648, 38.2299], [-107.9851, 38.2275], [-107.9649099219926, 38.22964580539209]], [[-107.9325, 38.1961], [-107.9431, 38.2121], [-107.94333009447624, 38.212196103716984], [-107.9325, 38.1961]], [[-107.94024303614775, 38.17787022895755], [-107.9397, 38.1782], [-107.941, 38.1879], [-107.94024303614775, 38.17787022895755]], [[-107.9681, 38.1441], [-107.9498, 38.1432], [-107.9679662183135, 38.146686445938954], [-107.9681, 38.1441]], [[-107.9523, 38.11], [-107.95188555069876, 38.11020849596749], [-107.9455, 38.133], [-107.94585432840948, 38.13299276880797], [-107.9523, 38.11]], [[-107.8903, 38.0126], [-107.88730329371818, 38.01040522920204], [-107.8911, 38.0253], [-107.8903, 38.0126]], [[-107.8832, 38.0074], [-107.8423, 38.0057], [-107.8866823059867, 38.00995042128603], [-107.8832, 38.0074]], [[-107.7405415558222, 37.903396555949854], [-107.7383, 37.9053], [-107.7328, 37.9299], [-107.7405415558222, 37.903396555949854]], [[-107.76094956658785, 37.87763238770686], [-107.7608, 37.8777], [-107.7562, 37.8901], [-107.76094956658785, 37.87763238770686]], [[-107.7828, 37.8677], [-107.7796, 37.8492], [-107.78269146514937, 37.86774879089615], [-107.7828, 37.8677]], [[-107.8286, 37.7993], [-107.82614037589113, 37.79787802981206], [-107.8287, 37.8117], [-107.8286, 37.7993]], [[-107.84344119601329, 37.77376877076412], [-107.8411, 37.774], [-107.8247, 37.7901], [-107.82515592048401, 37.79256197061365], [-107.84344119601329, 37.77376877076412]], [[-107.861, 37.7753], [-107.86244925977704, 37.77651514858228], [-107.86525453478927, 37.771614366934394], [-107.84539313893653, 37.773575986277876], [-107.861, 37.7753]], [[-107.96080033004567, 37.6554611083394], [-107.9614, 37.6613], [-107.975, 37.6837], [-107.96080033004567, 37.6554611083394]], [[-107.9658509893636, 37.64102763087528], [-107.9595, 37.6428], [-107.9598560091968, 37.64626640533715], [-107.9658509893636, 37.64102763087528]], [[-107.98200829268293, 37.62690840685002], [-107.9747, 37.6295], [-107.97356502243038, 37.63428664453272], [-107.98200829268293, 37.62690840685002]], [[-108.02045003037051, 37.559114881554976], [-108.0183, 37.5675], [-108.0231, 37.591], [-108.02045003037051, 37.559114881554976]], [[-108.0347, 37.5329], [-108.0253, 37.5402], [-108.02288527237887, 37.54961743772241], [-108.0347, 37.5329]], [[-108.03407850735559, 37.506486562612125], [-108.0312, 37.5095], [-108.0347, 37.5329], [-108.03407850735559, 37.506486562612125]], [[-108.03591916102575, 37.45938532536192], [-108.0291, 37.4574], [-108.0175, 37.4566], [-108.0347, 37.4605], [-108.03485020746888, 37.46147634854772], [-108.03591916102575, 37.45938532536192]], [[-109.70282378625305, 37.82522863061723], [-109.71963646692323, 37.82304716877405], [-109.7106, 37.8222], [-109.70282378625305, 37.82522863061723]], [[-109.6437, 37.8329], [-109.68203105683529, 37.82792650769765], [-109.6693, 37.8257], [-109.6437, 37.8329]], [[-109.6234, 37.8364], [-109.63774607206142, 37.825364559952746], [-109.6373, 37.8248], [-109.6234, 37.8364]], [[-109.5921, 37.8382], [-109.5921409784055, 37.83817897861017], [-109.5703, 37.8304], [-109.5921, 37.8382]], [[-109.5585, 37.8354], [-109.55919629371603, 37.83510496028981], [-109.53590713501652, 37.823592206366655], [-109.5585, 37.8354]], [[-109.51649999999985, 37.82604864864868], [-109.53412933452701, 37.822713369143536], [-109.5339, 37.8226], [-109.51649999999985, 37.82604864864868]], [[-109.50256626936829, 37.83564266984506], [-109.5033, 37.8355], [-109.5119487028302, 37.82695070754717], [-109.5117, 37.827], [-109.50256626936829, 37.83564266984506]], [[-109.4745, 37.8411], [-109.50116421136913, 37.835915292233786], [-109.4681, 37.839], [-109.4745, 37.8411]], [[-109.45759844625304, 37.813214934996296], [-109.4572, 37.8137], [-109.4681, 37.839], [-109.45759844625304, 37.813214934996296]], [[-109.4955, 37.871], [-109.49538856004554, 37.86953101878196], [-109.49532896362389, 37.87112522306109], [-109.4955, 37.871]], [[-109.4677, 37.8971], [-109.4731, 37.8874], [-109.47638275862067, 37.88499655172416], [-109.4732, 37.8872], [-109.4677, 37.8971]], [[-109.4233216864968, 37.927498052285145], [-109.4317759765625, 37.92363185891544], [-109.4259, 37.9258], [-109.4233216864968, 37.927498052285145]], [[-109.34770444444445, 37.95417166666667], [-109.35062032913346, 37.95300986886089], [-109.3494, 37.9529], [-109.34770444444445, 37.95417166666667]], [[-109.3144, 37.9823], [-109.31533882352942, 37.97844588235294], [-109.31222105263159, 37.980784210526316], [-109.3144, 37.9823]], [[-109.27800929971201, 37.92404564163799], [-109.2707, 37.9519], [-109.2785, 37.9239], [-109.27800929971201, 37.92404564163799]], [[-109.16633046670161, 37.87744362873624], [-109.17017833333334, 37.87659319444444], [-109.17, 37.8764], [-109.16633046670161, 37.87744362873624]], [[-109.1324301834438, 37.894726977030984], [-109.1412861645071, 37.88456632018605], [-109.1373, 37.8857], [-109.1324301834438, 37.894726977030984]], [[-109.1206, 37.9083], [-109.12483863800861, 37.90343691978475], [-109.11041379850747, 37.91202447014925], [-109.1206, 37.9083]], [[-109.0978619138897, 37.91676720731346], [-109.09787301737217, 37.916718460317306], [-109.09785109533769, 37.91672051672054], [-109.0978619138897, 37.91676720731346]], [[-109.08458218061394, 37.959414010954006], [-109.0897, 37.9526], [-109.09426184875275, 37.93257237132935], [-109.0892, 37.9399], [-109.08458218061394, 37.959414010954006]], [[-109.0722, 37.9759], [-109.07441386628206, 37.97295239517874], [-109.0518, 37.991], [-109.0722, 37.9759]], [[-109.2639, 38.251], [-109.26338589089237, 38.250688349788724], [-109.2624, 38.2918], [-109.2639, 38.251]], [[-109.2614, 38.4069], [-109.26137322762476, 38.4068400531598], [-109.2487, 38.4258], [-109.2614, 38.4069]], [[-109.24954386573607, 38.44089582038972], [-109.253, 38.4401], [-109.2487, 38.4258], [-109.24954386573607, 38.44089582038972]], [[-109.23412602529704, 38.46118501341509], [-109.2379, 38.4567], [-109.2378, 38.4436], [-109.2470688282504, 38.44146573033708], [-109.23468612188712, 38.4393412464022], [-109.23412602529704, 38.46118501341509]], [[-109.18998818066696, 38.45533237653018], [-109.1904, 38.4554], [-109.23370486742694, 38.43917289392129], [-109.2292, 38.4384], [-109.18998818066696, 38.45533237653018]], [[-109.12, 38.4599], [-109.1362, 38.4465], [-109.11993049913161, 38.45991001283697], [-109.12, 38.4599]], [[-109.08226639258913, 38.4539086639618], [-109.1082, 38.4616], [-109.1191983323666, 38.46001549448956], [-109.0823, 38.4538], [-109.08226639258913, 38.4539086639618]], [[-109.0808, 38.4623], [-109.08161220498988, 38.45602387053271], [-109.07946992342224, 38.46295058093477], [-109.0808, 38.4623]], [[-109.0408, 38.4567], [-109.0716, 38.4668], [-109.07839473828446, 38.46347648670869], [-109.0639, 38.4631], [-109.0408, 38.4567]], [[-108.80658867033833, 38.373100393391034], [-108.8173, 38.3788], [-108.8067, 38.3729], [-108.80658867033833, 38.373100393391034]], [[-108.80602477758006, 38.38341242215302], [-108.806383044316, 38.37347052023123], [-108.80278597588209, 38.37994524341224], [-108.80602477758006, 38.38341242215302]], [[-108.806, 38.3841], [-108.80600892643952, 38.383852291303164], [-108.7959, 38.3972], [-108.806, 38.3841]], [[-108.6849, 38.4841], [-108.6926, 38.4671], [-108.67420712098323, 38.49250361765546], [-108.6849, 38.4841]], [[-108.6222, 38.5025], [-108.648, 38.5131], [-108.6406, 38.5078], [-108.6222, 38.5025]], [[-108.5939, 38.518], [-108.591, 38.5078], [-108.5684, 38.4778], [-108.5939, 38.518]], [[-108.53764722801168, 38.45832242601084], [-108.5555, 38.4749], [-108.5383, 38.4581], [-108.53764722801168, 38.45832242601084]], [[-108.2781, 38.3786], [-108.3361, 38.4054], [-108.27569463365822, 38.377052284771885], [-108.2781, 38.3786]], [[-108.2013, 38.3147], [-108.20083297496545, 38.31498355091384], [-108.22346103046412, 38.320661439378455], [-108.2222, 38.3189], [-108.2013, 38.3147]], [[-109.4664, 37.8025], [-109.41961738730039, 37.758052028241266], [-109.4226, 37.7649], [-109.4664, 37.8025]], [[-109.41445025420536, 37.74618847602308], [-109.4146, 37.7394], [-109.40861308705739, 37.73278654965641], [-109.41445025420536, 37.74618847602308]], [[-109.40209535249537, 37.71782206492209], [-109.39482884012533, 37.69534514106566], [-109.4003, 37.7137], [-109.40209535249537, 37.71782206492209]], [[-109.39421620727673, 37.69328985667035], [-109.3991, 37.6601], [-109.3941, 37.6929], [-109.39421620727673, 37.69328985667035]], [[-109.3751282195998, 37.61071600820934], [-109.3801, 37.5783], [-109.375, 37.6106], [-109.3751282195998, 37.61071600820934]], [[-109.3469, 37.3266], [-109.33018250904705, 37.324311295881444], [-109.3302, 37.3244], [-109.3469, 37.3266]], [[-109.32828941176467, 37.314710588235144], [-109.32743412281124, 37.31018072451884], [-109.3274, 37.3102], [-109.32828941176467, 37.314710588235144]], [[-109.33146004842614, 37.30790653753027], [-109.3402, 37.3034], [-109.34026545092838, 37.3029324933687], [-109.33146004842614, 37.30790653753027]], [[-109.30727569646214, 37.2664413604512], [-109.3034, 37.266], [-109.2999, 37.2752], [-109.30727569646214, 37.2664413604512]], [[-109.20790161511086, 37.31990287434985], [-109.1702, 37.334], [-109.1942, 37.3284], [-109.20790161511086, 37.31990287434985]], [[-109.15042436139208, 37.284161220641174], [-109.1689, 37.2784], [-109.1504, 37.2838], [-109.15042436139208, 37.284161220641174]], [[-109.18284743390359, 37.234297200622066], [-109.18571380967639, 37.23066799903877], [-109.1846, 37.231], [-109.18284743390359, 37.234297200622066]], [[-109.19494756769429, 37.227610373930375], [-109.1952, 37.2276], [-109.19435229885056, 37.224322222222156], [-109.19494756769429, 37.227610373930375]], [[-109.19228302026562, 37.216321011693736], [-109.1922, 37.216], [-109.1283, 37.2185], [-109.19228302026562, 37.216321011693736]], [[-108.87404895368164, 37.23900254520696], [-108.8738, 37.2389], [-108.8633, 37.2463], [-108.87404895368164, 37.23900254520696]], [[-108.81608846153847, 37.25737307692308], [-108.8187, 37.2602], [-108.8148, 37.27], [-108.83689344189965, 37.24402527776664], [-108.8366, 37.244], [-108.8203, 37.2599], [-108.81608846153847, 37.25737307692308]], [[-108.6723, 37.2729], [-108.6368, 37.2582], [-108.6573, 37.2689], [-108.6723, 37.2729]], [[-108.5447, 37.2676], [-108.5262, 37.2637], [-108.52362840549102, 37.26480211193242], [-108.5447, 37.2676]], [[-108.51938132530121, 37.26662228915663], [-108.50958382789318, 37.27082121661721], [-108.5172, 37.2706], [-108.51938132530121, 37.26662228915663]], [[-108.4795, 37.2741], [-108.4461, 37.2801], [-108.44001451469279, 37.28300650044523], [-108.4795, 37.2741]], [[-108.441, 37.3032], [-108.4396070427596, 37.28320111390586], [-108.4394, 37.2833], [-108.4404531553918, 37.30340569384345], [-108.441, 37.3032]], [[-108.3993, 37.3753], [-108.39781712028095, 37.39635689201054], [-108.3979, 37.3963], [-108.3993, 37.3753]], [[-108.3836, 37.4049], [-108.3921, 37.4233], [-108.3861, 37.4044], [-108.39639729281768, 37.397331519337015], [-108.3792, 37.4063], [-108.36055542168674, 37.433148192771085], [-108.3836, 37.4049]], [[-108.35903239823325, 37.43501512474633], [-108.33944654088052, 37.425096645702304], [-108.3588, 37.4353], [-108.35903239823325, 37.43501512474633]], [[-108.32898279007283, 37.41979769497278], [-108.328, 37.4193], [-108.3113, 37.4197], [-108.32898279007283, 37.41979769497278]], [[-108.2655, 37.4577], [-108.2638487591024, 37.466441863575575], [-108.2642, 37.4665], [-108.2655, 37.4577]], [[-108.24663601190477, 37.46653005952381], [-108.2436, 37.4665], [-108.24098527918781, 37.47101167512691], [-108.24663601190477, 37.46653005952381]], [[-108.2340144878499, 37.476540233774216], [-108.2168, 37.4813], [-108.2294, 37.4802], [-108.2340144878499, 37.476540233774216]], [[-108.20511934636708, 37.49497734656162], [-108.2056, 37.4949], [-108.2168, 37.4813], [-108.20511934636708, 37.49497734656162]], [[-108.20483476439796, 37.49502314136125], [-108.17603487929394, 37.49753588301462], [-108.1795, 37.4991], [-108.20483476439796, 37.49502314136125]], [[-108.1651, 37.4926], [-108.13473311029246, 37.496430899932335], [-108.1367, 37.497], [-108.1651, 37.4926]], [[-108.12611872175599, 37.49393841187864], [-108.11272158488514, 37.48823006660323], [-108.117, 37.4913], [-108.12611872175599, 37.49393841187864]], [[-108.07782443199899, 37.439214974861585], [-108.07789949347361, 37.438887921293585], [-108.0601972151896, 37.43782151898732], [-108.07782443199899, 37.439214974861585]], [[-108.05340690152453, 37.437412463947254], [-108.0532, 37.4374], [-108.05097228682168, 37.4388304263566], [-108.05340690152453, 37.437412463947254]], [[-108.04420600801068, 37.44317508959315], [-108.0437, 37.4435], [-108.04226007938759, 37.44698159909269], [-108.04420600801068, 37.44317508959315]], [[-109.1648, 36.7902], [-109.15629125401912, 36.79219790996788], [-109.16514392643286, 36.790332880667236], [-109.1648, 36.7902]], [[-109.1286, 36.7987], [-109.12847419424969, 36.799313103973034], [-109.12905801019086, 36.79859245617065], [-109.1286, 36.7987]], [[-109.1207, 36.8372], [-109.1275, 36.8201], [-109.12556802439556, 36.813476083641916], [-109.1207, 36.8372]], [[-109.07067651447859, 36.93733155089714], [-109.0709, 36.9373], [-109.0801, 36.923], [-109.07067651447859, 36.93733155089714]], [[-108.99335479561849, 36.98583668180604], [-108.9979, 36.9855], [-109.0091, 36.9716], [-108.99335479561849, 36.98583668180604]], [[-108.9728, 36.9718], [-108.9898, 36.9861], [-108.99167233384854, 36.98596130860381], [-108.9792, 36.9733], [-108.95757926902337, 36.966504913121625], [-108.97593977889171, 36.976424809448595], [-108.9728, 36.9718]], [[-108.9374, 36.9549], [-108.93666801343703, 36.9552068887764], [-108.93791312559019, 36.95587960339944], [-108.9374, 36.9549]], [[-108.7942, 36.9564], [-108.8437, 36.9697], [-108.84406792029559, 36.96957449949101], [-108.7942, 36.9564]], [[-108.29721708330129, 37.21284448119374], [-108.2975, 37.2123], [-108.2924, 37.198], [-108.29721708330129, 37.21284448119374]], [[-108.29150729166668, 37.222786168032776], [-108.2922, 37.2225], [-108.2956553921568, 37.21585000000011], [-108.29150729166668, 37.222786168032776]], [[-108.20344595404596, 37.34627142857143], [-108.2042, 37.3453], [-108.2078, 37.3333], [-108.20344595404596, 37.34627142857143]], [[-108.18503122404104, 37.36188287319815], [-108.1931, 37.3596], [-108.20147176966292, 37.348814747191014], [-108.18503122404104, 37.36188287319815]], [[-108.1516, 37.3628], [-108.1726, 37.3654], [-108.18081844431657, 37.363074781608], [-108.1516, 37.3628]], [[-108.9802, 36.9827], [-108.9783, 36.97990135135136], [-108.9783, 36.98571624999999], [-108.9802, 36.9827]], [[-108.86173818642192, 37.09993664345622], [-108.86298106783954, 37.0985546335217], [-108.8626, 37.0987], [-108.86173818642192, 37.09993664345622]], [[-108.83609094063584, 37.143519956860175], [-108.8449211012732, 37.12406800878948], [-108.8334, 37.1406], [-108.83609094063584, 37.143519956860175]], [[-108.81143700257375, 37.25233799247673], [-108.81283664681631, 37.248246724690794], [-108.809, 37.2497], [-108.81143700257375, 37.25233799247673]], [[-108.7188, 37.6027], [-108.73172682119205, 37.595649006622516], [-108.7314, 37.5954], [-108.7188, 37.6027]], [[-108.6906, 37.5861], [-108.6598, 37.597], [-108.69082257246988, 37.58623101783689], [-108.6906, 37.5861]], [[-108.6011, 37.5735], [-108.6136, 37.5925], [-108.61376313559323, 37.592445621468926], [-108.6011, 37.5735]], [[-108.58674150701682, 37.491388575088806], [-108.5833, 37.4966], [-108.5948, 37.528], [-108.58674150701682, 37.491388575088806]], [[-108.5867, 37.4912], [-108.5649, 37.4962], [-108.5867256714088, 37.491316630598035], [-108.5867, 37.4912]], [[-108.5244, 37.4556], [-108.5089, 37.4606], [-108.52479586615651, 37.45586085977943], [-108.5244, 37.4556]], [[-108.8802, 37.7835], [-108.87892976190476, 37.78240297619047], [-108.8822, 37.8102], [-108.8802, 37.7835]], [[-108.8692, 37.774], [-108.85674945322666, 37.77182268763323], [-108.87651594115883, 37.780318312818984], [-108.8692, 37.774]], [[-108.7678, 37.7651], [-108.7821, 37.787], [-108.78233348617513, 37.78680203003179], [-108.7678, 37.7651]], [[-108.7705, 37.7446], [-108.757, 37.7628], [-108.75757747648504, 37.762922981103294], [-108.7705, 37.7446]], [[-108.7747, 37.7205], [-108.77459175891758, 37.72013099630997], [-108.77465162683558, 37.72077756982436], [-108.7747, 37.7205]], [[-108.755, 37.6643], [-108.7562277212216, 37.657878073610036], [-108.7478, 37.6713], [-108.755, 37.6643]], [[-108.7589, 37.6439], [-108.75573837638376, 37.63464095940961], [-108.75788260869565, 37.649221739130425], [-108.7589, 37.6439]], [[-108.7533, 37.6275], [-108.7463, 37.6255], [-108.75406294277929, 37.629734332425066], [-108.7533, 37.6275]], [[-108.74293248081841, 37.60431125319693], [-108.7508, 37.603], [-108.7419, 37.6034], [-108.74010483870966, 37.602032258064504], [-108.74293248081841, 37.60431125319693]], [[-109.1321, 37.3446], [-109.13268015865941, 37.32439114003031], [-109.1319, 37.3243], [-109.1321, 37.3446]], [[-109.0895, 37.4124], [-109.1121, 37.3876], [-109.08947123808106, 37.41240270411203], [-109.0895, 37.4124]], [[-108.96456099777284, 37.476388195991085], [-108.9932, 37.4565], [-108.9646, 37.4763], [-108.96456099777284, 37.476388195991085]], [[-108.9373, 37.529], [-108.93855646656905, 37.52656588579796], [-108.9348470376301, 37.529745396317054], [-108.9373, 37.529]], [[-108.7910267822736, 38.31145356454721], [-108.7962, 38.3218], [-108.7926, 38.3123], [-108.7910267822736, 38.31145356454721]], [[-108.7601, 38.1274], [-108.7799, 38.1463], [-108.76019165249149, 38.126690689413635], [-108.7601, 38.1274]], [[-108.77260399163657, 38.094203668504086], [-108.77359573643412, 38.097026326774], [-108.7754, 38.095], [-108.77260399163657, 38.094203668504086]], [[-108.49056633439764, 37.92919358565013], [-108.5119, 37.9447], [-108.4908, 37.9292], [-108.49056633439764, 37.92919358565013]], [[-108.1476, 37.8387], [-108.20952003000751, 37.82098012003001], [-108.2095, 37.8209], [-108.1476, 37.8387]], [[-109.26223461945405, 39.44422839105594], [-109.2619, 39.444], [-109.233, 39.4465], [-109.26223461945405, 39.44422839105594]], [[-109.1287, 39.459], [-109.1238, 39.4532], [-109.12363371187541, 39.45325171155094], [-109.1287, 39.459]], [[-109.10706073766671, 39.46071624686536], [-109.10884574564625, 39.457850408366106], [-109.1074, 39.4583], [-109.09712625550661, 39.44853629955947], [-109.10706073766671, 39.46071624686536]], [[-109.09362034391901, 39.444237955900704], [-109.1023, 39.4263], [-109.0931, 39.4436], [-109.09362034391901, 39.444237955900704]], [[-108.84514977816659, 39.09087586077611], [-108.83466762032987, 39.0953130932346], [-108.8444, 39.0924], [-108.84514977816659, 39.09087586077611]], [[-108.8297, 39.0968], [-108.83128313991273, 39.09632613499211], [-108.79556118819885, 39.09309595850735], [-108.7957, 39.0935], [-108.8297, 39.0968]], [[-108.7508, 39.0455], [-108.7553, 39.0153], [-108.75496332198061, 39.01516722556982], [-108.7508, 39.0455]], [[-108.71153594555305, 38.99592682701203], [-108.71046597353497, 38.99356162570888], [-108.7101, 38.9953], [-108.71153594555305, 38.99592682701203]], [[-108.71471431574861, 38.972361409580486], [-108.7148, 38.9721], [-108.7011, 38.9622], [-108.71471431574861, 38.972361409580486]], [[-108.67233015333707, 38.98122517800691], [-108.6351, 38.9964], [-108.6716, 38.9823], [-108.67233015333707, 38.98122517800691]], [[-108.33622986235098, 39.0123176985544], [-108.3352, 39.0122], [-108.2463, 39.0515], [-108.33622986235098, 39.0123176985544]], [[-108.2072, 39.0495], [-108.19004325099205, 39.05803149814057], [-108.191, 39.0585], [-108.2072, 39.0495]], [[-108.18248217412545, 39.05432898207644], [-108.1605, 39.0397], [-108.1426042962681, 39.0348015409493], [-108.18248217412545, 39.05432898207644]], [[-108.12, 39.0439], [-108.13655306687507, 39.033145182538796], [-108.1331, 39.0322], [-108.11817993363881, 39.042446310633586], [-108.12, 39.0439]], [[-107.8589, 39.0801], [-107.9074, 39.0608], [-107.8565, 39.0775], [-107.83820882352944, 39.07415645161291], [-107.8589, 39.0801]], [[-107.80847428243396, 39.06561519326444], [-107.78525975192473, 39.05471139863131], [-107.7938, 39.0614], [-107.80847428243396, 39.06561519326444]], [[-109.65700327421555, 39.016008185538894], [-109.6564, 39.0178], [-109.65856355029585, 39.01990887573963], [-109.65700327421555, 39.016008185538894]], [[-109.55090931400525, 38.88615644332839], [-109.551, 38.8864], [-109.568, 38.8826], [-109.55090931400525, 38.88615644332839]], [[-109.3442, 38.8249], [-109.33615625395728, 38.82428415069361], [-109.3523, 38.8308], [-109.3442, 38.8249]], [[-109.33278558160109, 38.824026083591335], [-109.28110709975795, 38.82006944982522], [-109.2803, 38.822], [-109.25890428741563, 38.82215228265185], [-109.33278558160109, 38.824026083591335]], [[-109.2522, 38.8222], [-109.2423, 38.8391], [-109.2527785760572, 38.82219588202095], [-109.2522, 38.8222]], [[-109.14153469942732, 38.877491950603066], [-109.1443, 38.8787], [-109.2053, 38.8627], [-109.14153469942732, 38.877491950603066]], [[-108.91798063546585, 38.85671631601546], [-108.9185, 38.8566], [-108.9185908030199, 38.85644001372683], [-108.91798063546585, 38.85671631601546]], [[-108.89881670096564, 38.860354883647304], [-108.8993, 38.8609], [-108.90097634038366, 38.86052456960157], [-108.89881670096564, 38.860354883647304]], [[-108.85203668111144, 38.84869824114201], [-108.8649, 38.8568], [-108.86661991774665, 38.85642668452011], [-108.85203668111144, 38.84869824114201]], [[-108.8476, 38.8369], [-108.8468, 38.8454], [-108.84769541010479, 38.845963959955505], [-108.8476, 38.8369]], [[-108.83418207638913, 38.84091558297844], [-108.8349, 38.8412], [-108.8476, 38.8369], [-108.83418207638913, 38.84091558297844]], [[-108.7771, 38.8311], [-108.7768635439853, 38.83129407238943], [-108.8036, 38.8288], [-108.7771, 38.8311]], [[-108.77679792616976, 38.831347928521055], [-108.769608433945, 38.83724873817722], [-108.7732, 38.8375], [-108.77631660777385, 38.842471731448754], [-108.77679792616976, 38.831347928521055]], [[-108.7389, 38.8378], [-108.7298, 38.8458], [-108.74432864417568, 38.83819338001273], [-108.7389, 38.8378]], [[-108.62047086437484, 38.744965353199895], [-108.62, 38.7455], [-108.62230993283127, 38.746142357012005], [-108.62047086437484, 38.744965353199895]], [[-108.6154, 38.5305], [-108.6197, 38.5466], [-108.62067106403465, 38.546783822821375], [-108.6154, 38.5305]], [[-109.29605847162692, 38.7256648056563], [-109.29778001055732, 38.74592291493027], [-109.3002, 38.7313], [-109.29605847162692, 38.7256648056563]], [[-109.29024710743802, 38.72535454545454], [-109.29489173139564, 38.7240772738662], [-109.2941, 38.723], [-109.29024710743802, 38.72535454545454]], [[-109.2839, 38.7271], [-109.28497154993393, 38.72680532376817], [-109.2642, 38.7204], [-109.2839, 38.7271]], [[-108.7759, 38.8521], [-108.77611006201917, 38.84724523333448], [-108.7616, 38.8815], [-108.7759, 38.8521]], [[-108.7313, 38.9011], [-108.72856194041492, 38.90645809936048], [-108.7616, 38.8815], [-108.7313, 38.9011]], [[-109.0958, 39.4713], [-109.0877, 39.4918], [-109.10538523119392, 39.46340628019323], [-109.0958, 39.4713]], [[-108.8852, 39.6216], [-108.9066, 39.6216], [-108.90680991825613, 39.621401743869214], [-108.8852, 39.6216]], [[-108.5998, 39.6753], [-108.6217, 39.6653], [-108.6293, 39.6565], [-108.5998, 39.6753]], [[-108.5588, 39.6841], [-108.5651, 39.6913], [-108.56533247151084, 39.69112735571621], [-108.5588, 39.6841]], [[-108.5401932867884, 39.696874758324384], [-108.5412, 39.6974], [-108.5588, 39.6841], [-108.5401932867884, 39.696874758324384]], [[-108.408, 40.1522], [-108.40799082224909, 40.15223387424426], [-108.4449, 40.166], [-108.408, 40.1522]], [[-107.94, 39.6747], [-107.92626212293322, 39.65707967941436], [-107.9262, 39.6571], [-107.94, 39.6747]], [[-107.94474219178917, 39.70011814799], [-107.9467, 39.6994], [-107.94, 39.6747], [-107.94474219178917, 39.70011814799]], [[-107.8989, 39.7448], [-107.90022482946794, 39.742831377899044], [-107.87771764705874, 39.75971176470593], [-107.8989, 39.7448]], [[-108.5201050245452, 40.37367430799059], [-108.54020195282631, 40.368203908593614], [-108.5308, 40.367], [-108.5201050245452, 40.37367430799059]], [[-108.5145, 40.3752], [-108.51627157256434, 40.37471777657998], [-108.4791, 40.3571], [-108.5145, 40.3752]], [[-108.42603379674682, 40.35376459057417], [-108.42748430301997, 40.35378725473469], [-108.4274, 40.3535], [-108.42603379674682, 40.35376459057417]], [[-108.87182679284761, 40.312544673768315], [-108.87656832093651, 40.311800487745394], [-108.8727, 40.312], [-108.87182679284761, 40.312544673768315]], [[-108.7527, 40.4305], [-108.7724, 40.4252], [-108.7523800971687, 40.430366426537105], [-108.7527, 40.4305]], [[-108.7118, 40.4249], [-108.72390776501517, 40.418748474226156], [-108.7238, 40.4187], [-108.7118, 40.4249]], [[-107.814, 38.7743], [-107.8143086026953, 38.774310715371364], [-107.8145, 38.7612], [-107.814, 38.7743]], [[-107.6685, 38.7055], [-107.6837773902339, 38.69988186294625], [-107.6833, 38.6997], [-107.6685, 38.7055]], [[-107.5594, 38.7321], [-107.5895, 38.7183], [-107.55846495223217, 38.73190695788019], [-107.5594, 38.7321]], [[-107.53711306937173, 38.73232995418849], [-107.53789178498985, 38.73193640973631], [-107.5372, 38.7319], [-107.53711306937173, 38.73232995418849]], [[-107.53469018660446, 38.751547134288565], [-107.53465471773124, 38.744488828518435], [-107.5335, 38.7502], [-107.53469018660446, 38.751547134288565]], [[-107.5517, 38.7709], [-107.55163736894222, 38.77083589527027], [-107.5264, 38.7853], [-107.5517, 38.7709]], [[-107.47767282184665, 38.78238075422629], [-107.48129474497681, 38.78341300231839], [-107.4811, 38.7832], [-107.47767282184665, 38.78238075422629]], [[-107.4502874444893, 38.77859386354461], [-107.45921125678119, 38.777967631103074], [-107.456, 38.7772], [-107.4502874444893, 38.77859386354461]], [[-107.4154, 38.7898], [-107.42024460431655, 38.78592431654676], [-107.41000236699124, 38.78842342245414], [-107.4154, 38.7898]], [[-107.4005, 38.786], [-107.40512997203628, 38.78718079823744], [-107.3991, 38.7718], [-107.4005, 38.786]], [[-107.3857, 38.7725], [-107.38736075628732, 38.77241324407454], [-107.38373760071622, 38.769127126230984], [-107.3857, 38.7725]], [[-107.3793, 38.7615], [-107.37955799290889, 38.76194342531215], [-107.3741, 38.735], [-107.3793, 38.7615]], [[-107.1555, 38.8136], [-107.1592, 38.797], [-107.15307984467456, 38.813876791958045], [-107.1555, 38.8136]], [[-107.0991, 38.8451], [-107.09690487804876, 38.84343170731706], [-107.0992901591896, 38.84560014471781], [-107.0991, 38.8451]], [[-107.08339341802541, 38.89487958187456], [-107.1064, 38.8643], [-107.0811, 38.8929], [-107.08339341802541, 38.89487958187456]], [[-107.0918, 38.8979], [-107.08559195798458, 38.89677726899721], [-107.1001, 38.9093], [-107.0918, 38.8979]], [[-107.1035, 38.9918], [-107.10956955469223, 38.963150256720624], [-107.09715570466994, 39.00642282704122], [-107.1035, 38.9918]], [[-107.0953, 39.0107], [-107.09541208345941, 39.01044166129478], [-107.0654, 38.9884], [-107.0953, 39.0107]], [[-107.05076657369663, 38.98547049989273], [-107.0513654822335, 38.98508629441624], [-107.051, 38.985], [-107.05076657369663, 38.98547049989273]], [[-107.0459, 39.0156], [-107.04612921684978, 38.99481767228718], [-107.0446, 38.9979], [-107.0459, 39.0156]], [[-106.79069924242431, 38.98372196969694], [-106.80360030561704, 38.97826894298662], [-106.8025, 38.9783], [-106.79069924242431, 38.98372196969694]], [[-106.7825, 38.9993], [-106.78456085784863, 38.98654230855604], [-106.784, 38.9868], [-106.7825, 38.9993]], [[-106.6967, 39.0557], [-106.69738904060368, 39.05528961552282], [-106.69614889036104, 39.055209605829745], [-106.6967, 39.0557]], [[-107.71561953134842, 37.89841581069164], [-107.6958, 37.8924], [-107.7093, 37.8994], [-107.71561953134842, 37.89841581069164]], [[-107.65180473262325, 37.90966121664653], [-107.6507, 37.9099], [-107.64677564655172, 37.913937284482756], [-107.65180473262325, 37.90966121664653]], [[-107.634, 37.9248], [-107.63558957996769, 37.92344843200608], [-107.6215, 37.9147], [-107.62089830955118, 37.91603478455889], [-107.634, 37.9248]], [[-107.5883, 37.9703], [-107.5685, 37.9621], [-107.56588562061948, 37.96076359936694], [-107.5694, 37.9659], [-107.5883, 37.9703]], [[-107.33109673747553, 37.60904246356847], [-107.3309, 37.6091], [-107.3308, 37.622], [-107.33109673747553, 37.60904246356847]], [[-107.3411, 37.6076], [-107.34001701112878, 37.60643370429253], [-107.33197108013937, 37.60878675958188], [-107.3411, 37.6076]], [[-107.3974, 37.0106], [-107.3842, 37.0278], [-107.4014, 37.0071], [-107.3974, 37.0106]], [[-107.19644502616335, 37.17458735484232], [-107.2104, 37.1685], [-107.21070229783473, 37.16360277507733], [-107.19644502616335, 37.17458735484232]], [[-107.1556, 37.1833], [-107.1209, 37.1973], [-107.15621037582278, 37.18390310944393], [-107.1556, 37.1833]], [[-107.0966, 37.1925], [-107.0973, 37.2038], [-107.0975753883643, 37.19269266930653], [-107.0966, 37.1925]], [[-107.0864, 37.207], [-107.08607218543047, 37.20941390728477], [-107.0973, 37.2038], [-107.0864, 37.207]], [[-107.6837, 37.1836], [-107.6927, 37.1783], [-107.6895, 37.1745], [-107.6837, 37.1836]], [[-107.5584, 37.6938], [-107.5582749374384, 37.69390696140138], [-107.5765, 37.6956], [-107.5584, 37.6938]], [[-106.93100698214812, 37.98745582767778], [-106.9313, 37.9869], [-106.92962023281596, 37.983933924611975], [-106.93100698214812, 37.98745582767778]], [[-106.9606, 38.0756], [-106.981, 38.0859], [-106.96059271863345, 38.0731680235722], [-106.9606, 38.0756]], [[-106.958, 38.1188], [-106.9725, 38.1185], [-106.97280792316927, 38.117911524609845], [-106.958, 38.1188]], [[-106.848, 38.2888], [-106.8480451010101, 38.288858855218855], [-106.8651, 38.2733], [-106.848, 38.2888]], [[-106.8103, 38.5759], [-106.791, 38.5976], [-106.81095393133998, 38.575769213732], [-106.8103, 38.5759]], [[-106.7793, 38.598], [-106.76092215799612, 38.60887919075145], [-106.791, 38.5976], [-106.7793, 38.598]], [[-106.73676069744629, 38.61313459700642], [-106.73932909994478, 38.61697658752071], [-106.74507451820129, 38.614822055674516], [-106.73676069744629, 38.61313459700642]], [[-106.69218601420846, 38.6328702152476], [-106.6923, 38.6328], [-106.709, 38.6075], [-106.69218601420846, 38.6328702152476]], [[-106.6278, 38.6542], [-106.62507582154106, 38.657663598326366], [-106.63467368089132, 38.65315589657347], [-106.6278, 38.6542]], [[-106.60696269349845, 38.66641315789474], [-106.6066, 38.6665], [-106.60899590338622, 38.68032251953588], [-106.6109, 38.6798], [-106.60696269349845, 38.66641315789474]], [[-106.56621959104501, 38.698580934292416], [-106.5697, 38.7004], [-106.5817, 38.6997], [-106.56621959104501, 38.698580934292416]], [[-107.85, 38.5969], [-107.8481, 38.6184], [-107.84821399140155, 38.618431325881346], [-107.85, 38.5969]], [[-107.8442, 38.5914], [-107.84138150443832, 38.59127159473523], [-107.85, 38.5969], [-107.8442, 38.5914]], [[-107.0285, 38.8386], [-107.02924433358233, 38.83844122825739], [-107.0084, 38.836], [-107.0285, 38.8386]], [[-106.9627, 38.8145], [-106.9979, 38.8254], [-106.96204693497009, 38.813099347370056], [-106.9627, 38.8145]], [[-106.94791167370518, 38.712835839478345], [-106.9501, 38.7383], [-106.9482, 38.7129], [-106.94791167370518, 38.712835839478345]], [[-106.88693526776456, 38.666330036918744], [-106.9118, 38.7048], [-106.8891, 38.6662], [-106.88693526776456, 38.666330036918744]], [[-106.7968, 38.6651], [-106.8275, 38.6549], [-106.79609351851852, 38.66487962962963], [-106.7968, 38.6651]], [[-106.775, 38.6583], [-106.78199245283014, 38.660481132075454], [-106.77492238023953, 38.658045508982035], [-106.775, 38.6583]], [[-107.0812, 39.5616], [-107.092, 39.5638], [-107.1304, 39.5554], [-107.0854, 39.5618], [-107.08253004082802, 39.55848128357567], [-107.0812, 39.5616]], [[-107.07742135493373, 39.552573784977916], [-107.0579, 39.53], [-107.0739, 39.5514], [-107.07742135493373, 39.552573784977916]], [[-107.0096, 39.4977], [-107.00971545304779, 39.497543657331136], [-106.9887, 39.4951], [-106.98753435823183, 39.49571125117111], [-107.0096, 39.4977]], [[-106.98220005633803, 39.498508507042246], [-106.97330860291504, 39.503171098471384], [-106.97465196700507, 39.503863134517765], [-106.98220005633803, 39.498508507042246]], [[-107.0584, 39.6305], [-107.05833426459535, 39.630438912553245], [-107.0531, 39.6415], [-107.05608593653537, 39.64949460427212], [-107.0584, 39.6305]], [[-107.05602893226177, 39.64996251435133], [-107.0422, 39.6631], [-107.056, 39.6502], [-107.05602893226177, 39.64996251435133]], [[-106.8842, 39.7684], [-106.88054812027043, 39.78175819164236], [-106.8813, 39.7819], [-106.8842, 39.7684]], [[-106.7142, 39.8348], [-106.7047, 39.8269], [-106.6665, 39.8074], [-106.7142, 39.8348]], [[-106.4315, 39.6785], [-106.43565990848033, 39.69781386080154], [-106.4364, 39.6975], [-106.4315, 39.6785]], [[-106.35612037426266, 39.72305343413113], [-106.3298, 39.6991], [-106.3516, 39.7233], [-106.35612037426266, 39.72305343413113]], [[-106.2983, 39.7205], [-106.2919, 39.7057], [-106.29937191720336, 39.70439882180628], [-106.264, 39.7013], [-106.2908, 39.7039], [-106.2983, 39.7205]], [[-106.3436, 39.7591], [-106.36393550909399, 39.75245185279619], [-106.3633, 39.752], [-106.3436, 39.7591]], [[-106.36656096589103, 39.75431857666564], [-106.38631676168757, 39.77277263397948], [-106.3851, 39.7675], [-106.36656096589103, 39.75431857666564]], [[-106.3955, 40.0431], [-106.39698037962789, 40.0418588736453], [-106.3836, 40.0384], [-106.3705, 40.0385], [-106.3955, 40.0431]], [[-106.32, 40.0182], [-106.32062577254572, 40.01817948286735], [-106.3236, 40.0106], [-106.32047049608354, 40.007566788511745], [-106.32, 40.0182]], [[-106.3087, 40.0079], [-106.3198402276101, 40.0069559129144], [-106.3171, 40.0043], [-106.30650254005934, 40.00564570919881], [-106.3087, 40.0079]], [[-106.30057858450276, 39.999568547895066], [-106.2959199279712, 39.992046758703495], [-106.2971, 39.996], [-106.30057858450276, 39.999568547895066]], [[-106.29531289134438, 39.99001318600368], [-106.3044, 39.9815], [-106.2951, 39.9893], [-106.29531289134438, 39.99001318600368]], [[-106.2902332340679, 39.96874991066111], [-106.2903, 39.9694], [-106.3044, 39.9815], [-106.2902332340679, 39.96874991066111]], [[-106.28572249978139, 39.94713018625936], [-106.2854, 39.9453], [-106.2683, 39.9226], [-106.28572249978139, 39.94713018625936]], [[-106.2410172292683, 39.90652932682927], [-106.2183096512936, 39.88227174353207], [-106.2318, 39.9011], [-106.2410172292683, 39.90652932682927]], [[-106.21770682595314, 39.881627769704224], [-106.2174, 39.8813], [-106.2064, 39.8774], [-106.21770682595314, 39.881627769704224]], [[-106.1751964237764, 39.84800425566541], [-106.1711, 39.8454], [-106.1491, 39.8394], [-106.1751964237764, 39.84800425566541]], [[-106.0412, 39.7159], [-106.0265, 39.6895], [-106.02513381119827, 39.689253638084935], [-106.0412, 39.7159]], [[-105.94470153542677, 39.688995287092816], [-105.9446, 39.6889], [-105.93486578073065, 39.693815780731015], [-105.94470153542677, 39.688995287092816]], [[-106.9633, 39.487], [-106.9656, 39.4992], [-106.97151778447628, 39.50224855563929], [-106.9633, 39.487]], [[-106.8431, 39.4222], [-106.84275398774858, 39.42226432903829], [-106.8594, 39.4281], [-106.8431, 39.4222]], [[-106.7784, 39.4179], [-106.8064, 39.4288], [-106.80719380838731, 39.42864837367883], [-106.7784, 39.4179]], [[-106.75025670792603, 39.420497115879314], [-106.7637, 39.4232], [-106.7784, 39.4179], [-106.75025670792603, 39.420497115879314]], [[-106.7188, 39.4234], [-106.6871, 39.4323], [-106.73260796916875, 39.422125774657246], [-106.7188, 39.4234]], [[-106.67918451425909, 39.445467817400754], [-106.6836, 39.4439], [-106.6871, 39.4323], [-106.67918451425909, 39.445467817400754]], [[-106.64854739884393, 39.46457596055763], [-106.6502, 39.4649], [-106.6559, 39.4629], [-106.64854739884393, 39.46457596055763]], [[-106.59851948022342, 39.451215103157416], [-106.6094, 39.4569], [-106.62359573309124, 39.459683477076716], [-106.59851948022342, 39.451215103157416]], [[-106.5455, 39.4156], [-106.5627, 39.4325], [-106.57103342725902, 39.43685408190835], [-106.5455, 39.4156]], [[-107.37713251431738, 39.199868501755034], [-107.3793, 39.2311], [-107.3776, 39.2004], [-107.37713251431738, 39.199868501755034]], [[-107.2784, 39.0541], [-107.28547688972164, 39.06773595824411], [-107.287, 39.0638], [-107.2784, 39.0541]], [[-107.2818, 39.0365], [-107.28037979076295, 39.03477347112358], [-107.2784, 39.0541], [-107.2818, 39.0365]], [[-107.26657049210496, 39.02963255180536], [-107.27908238230786, 39.0331962294723], [-107.2767, 39.0303], [-107.26657049210496, 39.02963255180536]], [[-107.15494768220692, 38.99481489253009], [-107.15802147836786, 38.99753304285422], [-107.1564, 38.9949], [-107.15494768220692, 38.99481489253009]], [[-106.26496666666671, 39.68757777777782], [-106.26549300454705, 39.68826109362248], [-106.2655, 39.6882], [-106.26496666666671, 39.68757777777782]], [[-106.2389, 39.6801], [-106.25930677966102, 39.68097457627118], [-106.2583, 39.6798], [-106.2389, 39.6801]], [[-106.2405, 39.6677], [-106.2375635003562, 39.66501664687723], [-106.2389, 39.6801], [-106.2405, 39.6677]], [[-106.2197, 39.6631], [-106.23672183566033, 39.664247539482716], [-106.2347, 39.6624], [-106.2197, 39.6631]], [[-106.1783, 39.6084], [-106.17825796956012, 39.60893438702125], [-106.185, 39.6021], [-106.1783, 39.6084]], [[-106.20817936884121, 39.59793397779718], [-106.20437153813378, 39.60376041755433], [-106.206, 39.6039], [-106.20817936884121, 39.59793397779718]], [[-106.21376191467222, 39.581079708636835], [-106.21316587677725, 39.58428341232227], [-106.214, 39.582], [-106.21376191467222, 39.581079708636835]], [[-106.2074132430908, 39.5613758714044], [-106.20988917018283, 39.5661100616683], [-106.2088, 39.5619], [-106.2074132430908, 39.5613758714044]], [[-106.2105, 39.5462], [-106.21053026022656, 39.54550833767834], [-106.1977, 39.5502], [-106.1976329842932, 39.550489005235605], [-106.2105, 39.5462]], [[-106.25124565238583, 39.46553050884632], [-106.2455, 39.4899], [-106.2514, 39.4657], [-106.25124565238583, 39.46553050884632]], [[-106.2234, 39.4338], [-106.2253578675121, 39.436010495578174], [-106.2329, 39.4263], [-106.2234, 39.4338]], [[-106.2304, 39.417], [-106.23013472765574, 39.416805898284686], [-106.2329, 39.4263], [-106.2304, 39.417]], [[-107.19987637992084, 40.0541406790252], [-107.205, 40.0572], [-107.2265, 40.0544], [-107.19987637992084, 40.0541406790252]], [[-107.17020955414013, 40.03593439490446], [-107.1705, 40.0366], [-107.17446929065746, 40.038970069204154], [-107.17020955414013, 40.03593439490446]], [[-107.1641, 39.9885], [-107.1732, 39.9656], [-107.1721, 39.9504], [-107.1709, 39.9704], [-107.1641, 39.9885]], [[-106.8365, 40.0584], [-106.82539433058288, 40.062637689646], [-106.8440366295583, 40.05941265058274], [-106.8365, 40.0584]], [[-106.8213, 40.0642], [-106.8181, 40.0809], [-106.82315727513227, 40.06349130291005], [-106.8213, 40.0642]], [[-106.79341533455697, 40.130286884698826], [-106.8007, 40.1231], [-106.8001275336907, 40.11713313962225], [-106.79341533455697, 40.130286884698826]], [[-106.77404329495704, 40.13530708610345], [-106.7858, 40.1378], [-106.78774218803653, 40.13588388160154], [-106.77404329495704, 40.13530708610345]], [[-106.7612, 40.1302], [-106.7476, 40.1297], [-106.7616304419759, 40.13267504136138], [-106.7612, 40.1302]], [[-106.7101, 40.1024], [-106.70950737464196, 40.10244099923861], [-106.7172, 40.1188], [-106.7101, 40.1024]], [[-106.6942, 40.1035], [-106.6870873102263, 40.10798776854769], [-106.70702762008732, 40.10261255458516], [-106.6942, 40.1035]], [[-106.6858, 40.1088], [-106.6842, 40.1184], [-106.68623267605633, 40.108527002012075], [-106.6858, 40.1088]], [[-106.6596, 40.1355], [-106.65972896445744, 40.135737778218406], [-106.6842, 40.1184], [-106.6596, 40.1355]], [[-106.6804424508459, 40.15471906721536], [-106.6805, 40.1546], [-106.666, 40.1473], [-106.6804424508459, 40.15471906721536]], [[-106.6768732907034, 40.16106404328579], [-106.6776, 40.1606], [-106.67955160680528, 40.15656219281666], [-106.6768732907034, 40.16106404328579]], [[-106.618, 40.1969], [-106.61801070304301, 40.1970962224554], [-106.6401, 40.1893], [-106.618, 40.1969]], [[-106.6183, 40.2024], [-106.62136447659826, 40.20337016093311], [-106.61801214351425, 40.19712263109476], [-106.6183, 40.2024]], [[-106.63906936539746, 40.21021877087508], [-106.6394, 40.2095], [-106.6385357021357, 40.209286467586466], [-106.63906936539746, 40.21021877087508]], [[-106.65692307386024, 40.22397929524188], [-106.6572, 40.2235], [-106.6465, 40.2232], [-106.65692307386024, 40.22397929524188]], [[-106.65177301488482, 40.2277612768125], [-106.6546, 40.228], [-106.65671816513762, 40.224333944954125], [-106.65177301488482, 40.2277612768125]], [[-106.5915, 40.2358], [-106.58982416989718, 40.24259152199562], [-106.6096, 40.2242], [-106.5915, 40.2358]], [[-106.5896, 40.2435], [-106.5961, 40.2527], [-106.58972554458322, 40.24299121405751], [-106.5896, 40.2435]], [[-106.6539, 40.3366], [-106.65372741097922, 40.33684603115728], [-106.6878, 40.3166], [-106.6539, 40.3366]], [[-106.6445, 40.35], [-106.6446495784607, 40.350272232798474], [-106.64964427860703, 40.34266666666657], [-106.6445, 40.35]], [[-106.6338, 40.3846], [-106.642, 40.3921], [-106.63402983229484, 40.384417910645624], [-106.6338, 40.3846]], [[-106.6444, 40.412], [-106.6512, 40.4214], [-106.64493332364482, 40.41185536985903], [-106.6444, 40.412]], [[-107.262, 39.7982], [-107.266751142355, 39.78394657293498], [-107.2664, 39.7841], [-107.262, 39.7982]], [[-107.28545509347578, 39.79935352918733], [-107.285, 39.7984], [-107.262, 39.7982], [-107.28545509347578, 39.79935352918733]], [[-107.3034, 39.8286], [-107.2835, 39.8223], [-107.30342706794681, 39.828975567762186], [-107.3034, 39.8286]], [[-107.2871, 39.8622], [-107.2757, 39.8501], [-107.28709839641348, 39.86227777394602], [-107.2871, 39.8622]], [[-107.2869, 39.8719], [-107.28705803083042, 39.86423550472406], [-107.2854300107214, 39.872021687854186], [-107.2869, 39.8719]], [[-107.20406973029135, 39.900969115546125], [-107.2345, 39.9046], [-107.2096, 39.8991], [-107.20406973029135, 39.900969115546125]], [[-107.17717172069824, 39.91503321695761], [-107.19255360681383, 39.90486132452633], [-107.1809, 39.9088], [-107.17717172069824, 39.91503321695761]], [[-107.1745, 39.9195], [-107.18433654278498, 39.92753948208388], [-107.185, 39.9263], [-107.1755478775628, 39.917748079699685], [-107.1745, 39.9195]], [[-107.58738130454758, 40.80636148041204], [-107.61387591280653, 40.77278536395486], [-107.6033, 40.7798], [-107.58738130454758, 40.80636148041204]], [[-107.5838, 40.8109], [-107.58524973180282, 40.80906278227753], [-107.5709, 40.8107], [-107.5838, 40.8109]], [[-107.5456905842926, 40.8325872446452], [-107.5484, 40.8323], [-107.5709, 40.8107], [-107.5456905842926, 40.8325872446452]], [[-107.5135, 40.836], [-107.53726103879522, 40.83348092138847], [-107.50682583265638, 40.83495987002437], [-107.5135, 40.836]], [[-107.5058, 40.8348], [-107.50595490808186, 40.834824141519256], [-107.50383823529401, 40.82656911764666], [-107.5058, 40.8348]], [[-107.454, 40.82], [-107.50100477251034, 40.81551861279033], [-107.501, 40.8155], [-107.454, 40.82]], [[-107.076, 40.7902], [-107.06912295409182, 40.77045305389221], [-107.069, 40.7705], [-107.076, 40.7902]], [[-107.0752, 40.8028], [-107.0695438618137, 40.79829426280074], [-107.0693, 40.7986], [-107.0752, 40.8028]], [[-107.0497, 40.8278], [-107.0727, 40.8083], [-107.0752, 40.8028], [-107.0497, 40.8278]], [[-107.0451, 40.8567], [-107.0413, 40.8515], [-107.04496662371135, 40.85675219072165], [-107.0451, 40.8567]], [[-107.0313, 40.8621], [-107.04465848925848, 40.856872765072765], [-107.02192308592322, 40.86171695612431], [-107.0313, 40.8621]], [[-106.97103602171381, 40.85963823618112], [-107.00299695218835, 40.860943829746255], [-106.9948, 40.8569], [-106.97103602171381, 40.85963823618112]], [[-106.9701, 40.8596], [-106.97045377629257, 40.85961445164594], [-106.96425632432431, 40.8481445405405], [-106.9701, 40.8596]], [[-106.9329, 40.8404], [-106.95714311328204, 40.83497979174588], [-106.9571, 40.8349], [-106.9329, 40.8404]], [[-106.9084, 40.8547], [-106.90856775077029, 40.85460208832592], [-106.90719497907949, 40.85444058577406], [-106.9084, 40.8547]], [[-106.8796, 40.8485], [-106.88899950070024, 40.85052350362297], [-106.8486, 40.8317], [-106.8796, 40.8485]], [[-106.8447, 40.8475], [-106.84277112399477, 40.84426446605573], [-106.84002231985941, 40.85018966608084], [-106.8447, 40.8475]], [[-106.8287, 40.8567], [-106.83792305505297, 40.85139674334454], [-106.8176419717498, 40.85498557701547], [-106.8287, 40.8567]], [[-106.81530782287822, 40.85553396678967], [-106.81539701694915, 40.85538283239172], [-106.8153, 40.8554], [-106.81530782287822, 40.85553396678967]]]}}]}