{"type": "FeatureCollection", "features": [{"id": "0", "type": "Feature", "properties": {"huc10": "1401000407", "name": "Crystal River", "areasqkm": 938.11, "scale": "local", "source": "USGS WBD, hydro.nationalmap.gov, fetched 2026-07-12", "pulldate": "2026-07-12", "srcurl": "https://hydro.nationalmap.gov/arcgis/rest/services/wbd/MapServer/5", "caveat": "HUC-10 sub-watershed within Roaring Fork HUC-8. Matches CVEPA's stated operating area (Schofield Pass to Roaring Fork confluence) - used as a fallback boundary pending a real shapefile from CVEPA."}, "geometry": {"type": "Polygon", "coordinates": [[[-107.2246, 39.4043], [-107.2236, 39.4003], [-107.2155, 39.3931], [-107.2032, 39.3871], [-107.2012, 39.3871], [-107.1975, 39.389], [-107.1943, 39.3869], [-107.1898, 39.3875], [-107.1866, 39.3898], [-107.1848, 39.3942], [-107.1791, 39.3948], [-107.1663, 39.3917], [-107.1582, 39.3864], [-107.1577, 39.3853], [-107.1489, 39.3883], [-107.1418, 39.388], [-107.1416, 39.3858], [-107.139, 39.3824], [-107.1391, 39.3794], [-107.1369, 39.3769], [-107.132, 39.3765], [-107.1324, 39.3708], [-107.1313, 39.3689], [-107.1365, 39.3656], [-107.137, 39.3613], [-107.1367, 39.3601], [-107.1335, 39.3586], [-107.1296, 39.3584], [-107.1294, 39.356], [-107.1277, 39.3547], [-107.1283, 39.3507], [-107.1275, 39.3442], [-107.1294, 39.3423], [-107.1292, 39.3403], [-107.1306, 39.3394], [-107.1292, 39.3376], [-107.1289, 39.3354], [-107.1318, 39.3307], [-107.1322, 39.3273], [-107.1339, 39.3257], [-107.1342, 39.3218], [-107.1436, 39.3078], [-107.1447, 39.3042], [-107.1439, 39.303], [-107.1442, 39.2995], [-107.145, 39.2983], [-107.1397, 39.2905], [-107.1364, 39.2888], [-107.1364, 39.2849], [-107.1347, 39.2823], [-107.1344, 39.2794], [-107.1391, 39.273], [-107.137, 39.2668], [-107.142, 39.2605], [-107.1475, 39.2589], [-107.1503, 39.256], [-107.1527, 39.2561], [-107.1489, 39.2495], [-107.146, 39.2475], [-107.1458, 39.2457], [-107.1476, 39.2424], [-107.1485, 39.2379], [-107.1473, 39.2337], [-107.1424, 39.2293], [-107.1386, 39.2287], [-107.1353, 39.2203], [-107.1304, 39.2161], [-107.1285, 39.2098], [-107.1253, 39.2053], [-107.1253, 39.2007], [-107.1196, 39.1994], [-107.1176, 39.1981], [-107.1188, 39.1977], [-107.1209, 39.192], [-107.1208, 39.1877], [-107.1193, 39.1859], [-107.12, 39.1833], [-107.1192, 39.1797], [-107.1146, 39.1717], [-107.1114, 39.1686], [-107.1061, 39.1701], [-107.1022, 39.1693], [-107.1025, 39.1667], [-107.1016, 39.1657], [-107.0945, 39.1625], [-107.0931, 39.1607], [-107.0902, 39.1603], [-107.0878, 39.1552], [-107.0847, 39.1512], [-107.0829, 39.1502], [-107.0842, 39.1482], [-107.0844, 39.1458], [-107.0773, 39.1392], [-107.0778, 39.1354], [-107.0754, 39.1323], [-107.0722, 39.1315], [-107.0716, 39.129], [-107.0662, 39.1214], [-107.0668, 39.1192], [-107.0633, 39.1165], [-107.0613, 39.1131], [-107.0583, 39.1113], [-107.0533, 39.1105], [-107.0462, 39.1019], [-107.0411, 39.0992], [-107.0362, 39.0947], [-107.0303, 39.0933], [-107.0275, 39.0912], [-107.0196, 39.0893], [-107.0112, 39.0831], [-107.0046, 39.0746], [-106.9979, 39.07], [-106.9967, 39.0695], [-106.9889, 39.0708], [-106.988, 39.0681], [-106.9865, 39.0669], [-106.9864, 39.0625], [-106.9908, 39.0599], [-106.9905, 39.0574], [-106.9892, 39.0558], [-106.9898, 39.0519], [-106.9941, 39.0509], [-106.9965, 39.0494], [-106.999, 39.0436], [-107.0012, 39.042], [-106.996, 39.034], [-107.0022, 39.0309], [-107.0084, 39.0292], [-107.0112, 39.027], [-107.0121, 39.0238], [-107.0141, 39.0229], [-107.0158, 39.0204], [-107.0169, 39.016], [-107.022, 39.0137], [-107.0251, 39.0164], [-107.0323, 39.015], [-107.041, 39.0178], [-107.0474, 39.0146], [-107.0485, 39.0105], [-107.0476, 39.0091], [-107.0478, 39.005], [-107.0469, 39.0008], [-107.0446, 38.9979], [-107.0464, 38.9928], [-107.0462, 38.9884], [-107.0492, 38.9856], [-107.0515, 38.985], [-107.0595, 38.9878], [-107.0654, 38.9884], [-107.0668, 38.9895], [-107.0658, 38.9915], [-107.0665, 38.9932], [-107.0772, 38.9966], [-107.0787, 38.9999], [-107.0827, 38.9994], [-107.0848, 39.0004], [-107.0921, 39.0093], [-107.0953, 39.0107], [-107.0959, 39.0108], [-107.0966, 39.002], [-107.0984, 38.9996], [-107.098, 38.9981], [-107.1025, 38.996], [-107.1035, 38.9918], [-107.1175, 38.9947], [-107.1209, 38.9921], [-107.1252, 38.9911], [-107.1291, 38.994], [-107.1343, 38.9922], [-107.14, 38.9938], [-107.1433, 38.9962], [-107.1473, 38.9939], [-107.1538, 38.9938], [-107.1597, 38.9975], [-107.1612, 39.0013], [-107.1659, 39.0045], [-107.1661, 39.007], [-107.1688, 39.0091], [-107.1705, 39.0137], [-107.1721, 39.0154], [-107.1725, 39.0179], [-107.1716, 39.0204], [-107.1726, 39.0229], [-107.1782, 39.0303], [-107.18, 39.0298], [-107.1845, 39.0317], [-107.1875, 39.0313], [-107.1894, 39.0328], [-107.1934, 39.0334], [-107.1987, 39.0314], [-107.2041, 39.0307], [-107.2133, 39.0317], [-107.2154, 39.0302], [-107.2227, 39.028], [-107.2255, 39.0234], [-107.2324, 39.0199], [-107.2438, 39.0239], [-107.2509, 39.0286], [-107.2576, 39.0265], [-107.2625, 39.0273], [-107.2659, 39.0298], [-107.2726, 39.031], [-107.2767, 39.0303], [-107.2806, 39.0338], [-107.2818, 39.0365], [-107.2774, 39.0411], [-107.2778, 39.0441], [-107.2806, 39.0484], [-107.2784, 39.0541], [-107.2803, 39.0571], [-107.2857, 39.0602], [-107.287, 39.0638], [-107.285, 39.0671], [-107.2866, 39.0699], [-107.2824, 39.0748], [-107.2825, 39.0805], [-107.2778, 39.0866], [-107.2769, 39.0899], [-107.2818, 39.0951], [-107.2811, 39.0967], [-107.2791, 39.0977], [-107.282, 39.1002], [-107.2839, 39.105], [-107.2841, 39.1098], [-107.2831, 39.1128], [-107.288, 39.1145], [-107.2818, 39.1194], [-107.2827, 39.1238], [-107.285, 39.1254], [-107.2838, 39.1267], [-107.2838, 39.1284], [-107.2861, 39.1335], [-107.2863, 39.1368], [-107.2921, 39.1441], [-107.2937, 39.1448], [-107.296, 39.1505], [-107.2957, 39.1538], [-107.2991, 39.1567], [-107.304, 39.1557], [-107.308, 39.1575], [-107.3157, 39.164], [-107.3189, 39.1655], [-107.3328, 39.1662], [-107.3372, 39.1691], [-107.3437, 39.1687], [-107.3535, 39.173], [-107.3541, 39.1761], [-107.3581, 39.1807], [-107.3596, 39.1848], [-107.3632, 39.1861], [-107.3671, 39.1921], [-107.3771, 39.1994], [-107.3773, 39.2043], [-107.3786, 39.2081], [-107.3806, 39.2101], [-107.3781, 39.2148], [-107.377, 39.2202], [-107.3768, 39.2233], [-107.3786, 39.2262], [-107.378, 39.2287], [-107.3793, 39.2311], [-107.3759, 39.2369], [-107.3715, 39.239], [-107.3751, 39.2425], [-107.3769, 39.2463], [-107.3843, 39.2478], [-107.3862, 39.2503], [-107.3905, 39.2506], [-107.3922, 39.255], [-107.3945, 39.2568], [-107.3936, 39.2592], [-107.3914, 39.2605], [-107.3915, 39.2637], [-107.3794, 39.2691], [-107.3775, 39.2727], [-107.3786, 39.2751], [-107.3832, 39.2756], [-107.3919, 39.2794], [-107.3966, 39.2834], [-107.3961, 39.2902], [-107.3976, 39.2918], [-107.397, 39.2943], [-107.3983, 39.2952], [-107.4051, 39.2928], [-107.4087, 39.294], [-107.4129, 39.292], [-107.4216, 39.2969], [-107.4372, 39.2997], [-107.4396, 39.3024], [-107.4371, 39.3067], [-107.4388, 39.309], [-107.445, 39.3087], [-107.447, 39.306], [-107.4512, 39.3045], [-107.4564, 39.307], [-107.4571, 39.3093], [-107.4591, 39.3097], [-107.4613, 39.3129], [-107.4645, 39.3145], [-107.4632, 39.3171], [-107.4657, 39.3223], [-107.4634, 39.3243], [-107.4621, 39.327], [-107.4567, 39.3292], [-107.4516, 39.3298], [-107.4498, 39.3326], [-107.4457, 39.3351], [-107.443, 39.339], [-107.4387, 39.341], [-107.4388, 39.3435], [-107.4368, 39.3464], [-107.4308, 39.3479], [-107.4305, 39.3541], [-107.429, 39.3561], [-107.4294, 39.3597], [-107.4279, 39.3627], [-107.4256, 39.3638], [-107.4225, 39.3639], [-107.4208, 39.3653], [-107.4155, 39.3633], [-107.4051, 39.3634], [-107.4018, 39.3621], [-107.3967, 39.3583], [-107.3893, 39.3598], [-107.384, 39.3558], [-107.377, 39.36], [-107.3763, 39.361], [-107.3772, 39.3633], [-107.3747, 39.3677], [-107.3691, 39.3709], [-107.3711, 39.3753], [-107.3705, 39.3779], [-107.3693, 39.3789], [-107.3635, 39.3785], [-107.3543, 39.3729], [-107.35, 39.372], [-107.3477, 39.3694], [-107.3408, 39.3679], [-107.3307, 39.3733], [-107.3248, 39.3734], [-107.3218, 39.3746], [-107.3193, 39.3792], [-107.3161, 39.3807], [-107.3163, 39.3834], [-107.3134, 39.3888], [-107.304, 39.3912], [-107.2989, 39.3912], [-107.2974, 39.3938], [-107.2912, 39.3973], [-107.286, 39.3967], [-107.2879, 39.4035], [-107.2795, 39.4047], [-107.2768, 39.4037], [-107.2748, 39.4046], [-107.2739, 39.4088], [-107.2727, 39.4095], [-107.2719, 39.4069], [-107.2699, 39.4049], [-107.2675, 39.4032], [-107.2645, 39.4028], [-107.2625, 39.3989], [-107.2571, 39.4007], [-107.255, 39.4006], [-107.2549, 39.4023], [-107.253, 39.4035], [-107.2463, 39.4047], [-107.2441, 39.4063], [-107.2406, 39.4124], [-107.2411, 39.4136], [-107.2392, 39.4153], [-107.2373, 39.4189], [-107.2361, 39.4188], [-107.2338, 39.4152], [-107.2313, 39.4137], [-107.2277, 39.4096], [-107.2246, 39.4043]]]}}]}