{"type": "FeatureCollection", "features": [{"id": "0", "type": "Feature", "properties": {"section": "15", "plss_township": "CO060080S0870W0", "source": "BLM Cadastral PLSS (Public Land Survey System)", "pulldate": "2026-07-28", "srcurl": "https://gis.blm.gov/arcgis/rest/services/Cadastral/BLM_Natl_PLSS_CadNSDI/MapServer/2", "caveat": "Section/township grid pulled to georeference the Mid-Valley Metro CAD PDF. No longer needed - MVMD's real boundary was found via Colorado DOLA instead. Kept for reference only."}, "geometry": {"type": "Polygon", "coordinates": [[[-107.08614, 39.35371], [-107.08614, 39.35009], [-107.10475, 39.3501], [-107.10477, 39.3646], [-107.08615, 39.36457], [-107.08614, 39.35371]]]}}, {"id": "1", "type": "Feature", "properties": {"section": "20", "plss_township": "CO060080S0870W0", "source": "BLM Cadastral PLSS (Public Land Survey System)", "pulldate": "2026-07-28", "srcurl": "https://gis.blm.gov/arcgis/rest/services/Cadastral/BLM_Natl_PLSS_CadNSDI/MapServer/2", "caveat": "Section/township grid pulled to georeference the Mid-Valley Metro CAD PDF. No longer needed - MVMD's real boundary was found via Colorado DOLA instead. Kept for reference only."}, "geometry": {"type": "Polygon", "coordinates": [[[-107.13738, 39.33559], [-107.14205, 39.33559], [-107.14205, 39.35008], [-107.12338, 39.35009], [-107.12336, 39.3356], [-107.13738, 39.33559]]]}}, {"id": "2", "type": "Feature", "properties": {"section": "03", "plss_township": "CO060080S0870W0", "source": "BLM Cadastral PLSS (Public Land Survey System)", "pulldate": "2026-07-28", "srcurl": "https://gis.blm.gov/arcgis/rest/services/Cadastral/BLM_Natl_PLSS_CadNSDI/MapServer/2", "caveat": "Section/township grid pulled to georeference the Mid-Valley Metro CAD PDF. No longer needed - MVMD's real boundary was found via Colorado DOLA instead. Kept for reference only."}, "geometry": {"type": "Polygon", "coordinates": [[[-107.08617, 39.39533], [-107.08617, 39.37905], [-107.10478, 39.37909], [-107.10484, 39.39581], [-107.08617, 39.39533]]]}}, {"id": "3", "type": "Feature", "properties": {"section": "21", "plss_township": "CO060080S0870W0", "source": "BLM Cadastral PLSS (Public Land Survey System)", "pulldate": "2026-07-28", "srcurl": "https://gis.blm.gov/arcgis/rest/services/Cadastral/BLM_Natl_PLSS_CadNSDI/MapServer/2", "caveat": "Section/township grid pulled to georeference the Mid-Valley Metro CAD PDF. No longer needed - MVMD's real boundary was found via Colorado DOLA instead. Kept for reference only."}, "geometry": {"type": "Polygon", "coordinates": [[[-107.1187, 39.3356], [-107.12336, 39.3356], [-107.12338, 39.35009], [-107.10475, 39.3501], [-107.10473, 39.3356], [-107.1187, 39.3356]]]}}, {"id": "4", "type": "Feature", "properties": {"section": "23", "plss_township": "CO060080S0870W0", "source": "BLM Cadastral PLSS (Public Land Survey System)", "pulldate": "2026-07-28", "srcurl": "https://gis.blm.gov/arcgis/rest/services/Cadastral/BLM_Natl_PLSS_CadNSDI/MapServer/2", "caveat": "Section/township grid pulled to georeference the Mid-Valley Metro CAD PDF. No longer needed - MVMD's real boundary was found via Colorado DOLA instead. Kept for reference only."}, "geometry": {"type": "Polygon", "coordinates": [[[-107.06751, 39.3392], [-107.06752, 39.33558], [-107.08612, 39.3356], [-107.08614, 39.35009], [-107.0675, 39.35007], [-107.06751, 39.3392]]]}}, {"id": "5", "type": "Feature", "properties": {"section": "11", "plss_township": "CO060080S0870W0", "source": "BLM Cadastral PLSS (Public Land Survey System)", "pulldate": "2026-07-28", "srcurl": "https://gis.blm.gov/arcgis/rest/services/Cadastral/BLM_Natl_PLSS_CadNSDI/MapServer/2", "caveat": "Section/township grid pulled to georeference the Mid-Valley Metro CAD PDF. No longer needed - MVMD's real boundary was found via Colorado DOLA instead. Kept for reference only."}, "geometry": {"type": "Polygon", "coordinates": [[[-107.0675, 39.36501], [-107.0675, 39.36455], [-107.08615, 39.36457], [-107.08617, 39.37905], [-107.06748, 39.37904], [-107.0675, 39.36501]]]}}, {"id": "6", "type": "Feature", "properties": {"section": "04", "plss_township": "CO060080S0870W0", "source": "BLM Cadastral PLSS (Public Land Survey System)", "pulldate": "2026-07-28", "srcurl": "https://gis.blm.gov/arcgis/rest/services/Cadastral/BLM_Natl_PLSS_CadNSDI/MapServer/2", "caveat": "Section/township grid pulled to georeference the Mid-Valley Metro CAD PDF. No longer needed - MVMD's real boundary was found via Colorado DOLA instead. Kept for reference only."}, "geometry": {"type": "Polygon", "coordinates": [[[-107.1049, 39.39581], [-107.10478, 39.37909], [-107.12344, 39.3791], [-107.12351, 39.39559], [-107.1049, 39.39581]]]}}, {"id": "7", "type": "Feature", "properties": {"section": "06", "plss_township": "CO060080S0870W0", "source": "BLM Cadastral PLSS (Public Land Survey System)", "pulldate": "2026-07-28", "srcurl": "https://gis.blm.gov/arcgis/rest/services/Cadastral/BLM_Natl_PLSS_CadNSDI/MapServer/2", "caveat": "Section/township grid pulled to georeference the Mid-Valley Metro CAD PDF. No longer needed - MVMD's real boundary was found via Colorado DOLA instead. Kept for reference only."}, "geometry": {"type": "Polygon", "coordinates": [[[-107.14305, 39.39563], [-107.14217, 39.39563], [-107.14207, 39.37907], [-107.1617, 39.37906], [-107.16197, 39.39572], [-107.14305, 39.39563]]]}}, {"id": "8", "type": "Feature", "properties": {"section": "07", "plss_township": "CO060080S0870W0", "source": "BLM Cadastral PLSS (Public Land Survey System)", "pulldate": "2026-07-28", "srcurl": "https://gis.blm.gov/arcgis/rest/services/Cadastral/BLM_Natl_PLSS_CadNSDI/MapServer/2", "caveat": "Section/township grid pulled to georeference the Mid-Valley Metro CAD PDF. No longer needed - MVMD's real boundary was found via Colorado DOLA instead. Kept for reference only."}, "geometry": {"type": "Polygon", "coordinates": [[[-107.14207, 39.37907], [-107.14207, 39.36458], [-107.16155, 39.36457], [-107.1617, 39.37906], [-107.14207, 39.37907]]]}}, {"id": "9", "type": "Feature", "properties": {"section": "16", "plss_township": "CO060080S0870W0", "source": "BLM Cadastral PLSS (Public Land Survey System)", "pulldate": "2026-07-28", "srcurl": "https://gis.blm.gov/arcgis/rest/services/Cadastral/BLM_Natl_PLSS_CadNSDI/MapServer/2", "caveat": "Section/township grid pulled to georeference the Mid-Valley Metro CAD PDF. No longer needed - MVMD's real boundary was found via Colorado DOLA instead. Kept for reference only."}, "geometry": {"type": "Polygon", "coordinates": [[[-107.11873, 39.35009], [-107.12338, 39.35009], [-107.1234, 39.3646], [-107.10477, 39.3646], [-107.10475, 39.3501], [-107.11873, 39.35009]]]}}, {"id": "10", "type": "Feature", "properties": {"section": "17", "plss_township": "CO060080S0870W0", "source": "BLM Cadastral PLSS (Public Land Survey System)", "pulldate": "2026-07-28", "srcurl": "https://gis.blm.gov/arcgis/rest/services/Cadastral/BLM_Natl_PLSS_CadNSDI/MapServer/2", "caveat": "Section/township grid pulled to georeference the Mid-Valley Metro CAD PDF. No longer needed - MVMD's real boundary was found via Colorado DOLA instead. Kept for reference only."}, "geometry": {"type": "Polygon", "coordinates": [[[-107.13738, 39.35009], [-107.14205, 39.35008], [-107.14207, 39.36458], [-107.1234, 39.3646], [-107.12338, 39.35009], [-107.13738, 39.35009]]]}}, {"id": "11", "type": "Feature", "properties": {"section": "10", "plss_township": "CO060080S0870W0", "source": "BLM Cadastral PLSS (Public Land Survey System)", "pulldate": "2026-07-28", "srcurl": "https://gis.blm.gov/arcgis/rest/services/Cadastral/BLM_Natl_PLSS_CadNSDI/MapServer/2", "caveat": "Section/township grid pulled to georeference the Mid-Valley Metro CAD PDF. No longer needed - MVMD's real boundary was found via Colorado DOLA instead. Kept for reference only."}, "geometry": {"type": "Polygon", "coordinates": [[[-107.08615, 39.36477], [-107.10477, 39.3646], [-107.10478, 39.37909], [-107.08617, 39.37905], [-107.08615, 39.36477]]]}}, {"id": "12", "type": "Feature", "properties": {"section": "08", "plss_township": "CO060080S0870W0", "source": "BLM Cadastral PLSS (Public Land Survey System)", "pulldate": "2026-07-28", "srcurl": "https://gis.blm.gov/arcgis/rest/services/Cadastral/BLM_Natl_PLSS_CadNSDI/MapServer/2", "caveat": "Section/township grid pulled to georeference the Mid-Valley Metro CAD PDF. No longer needed - MVMD's real boundary was found via Colorado DOLA instead. Kept for reference only."}, "geometry": {"type": "Polygon", "coordinates": [[[-107.1374, 39.36459], [-107.14207, 39.36458], [-107.14207, 39.37907], [-107.12344, 39.3791], [-107.1234, 39.3646], [-107.1374, 39.36459]]]}}, {"id": "13", "type": "Feature", "properties": {"section": "19", "plss_township": "CO060080S0870W0", "source": "BLM Cadastral PLSS (Public Land Survey System)", "pulldate": "2026-07-28", "srcurl": "https://gis.blm.gov/arcgis/rest/services/Cadastral/BLM_Natl_PLSS_CadNSDI/MapServer/2", "caveat": "Section/township grid pulled to georeference the Mid-Valley Metro CAD PDF. No longer needed - MVMD's real boundary was found via Colorado DOLA instead. Kept for reference only."}, "geometry": {"type": "Polygon", "coordinates": [[[-107.14671, 39.33559], [-107.16127, 39.33559], [-107.16141, 39.35008], [-107.14205, 39.35008], [-107.14205, 39.33559], [-107.14671, 39.33559]]]}}, {"id": "14", "type": "Feature", "properties": {"section": "12", "plss_township": "CO060080S0870W0", "source": "BLM Cadastral PLSS (Public Land Survey System)", "pulldate": "2026-07-28", "srcurl": "https://gis.blm.gov/arcgis/rest/services/Cadastral/BLM_Natl_PLSS_CadNSDI/MapServer/2", "caveat": "Section/township grid pulled to georeference the Mid-Valley Metro CAD PDF. No longer needed - MVMD's real boundary was found via Colorado DOLA instead. Kept for reference only."}, "geometry": {"type": "Polygon", "coordinates": [[[-107.04886, 39.37901], [-107.04888, 39.36454], [-107.0675, 39.36455], [-107.06748, 39.37904], [-107.04886, 39.37901]]]}}, {"id": "15", "type": "Feature", "properties": {"section": "22", "plss_township": "CO060080S0870W0", "source": "BLM Cadastral PLSS (Public Land Survey System)", "pulldate": "2026-07-28", "srcurl": "https://gis.blm.gov/arcgis/rest/services/Cadastral/BLM_Natl_PLSS_CadNSDI/MapServer/2", "caveat": "Section/township grid pulled to georeference the Mid-Valley Metro CAD PDF. No longer needed - MVMD's real boundary was found via Colorado DOLA instead. Kept for reference only."}, "geometry": {"type": "Polygon", "coordinates": [[[-107.08612, 39.33922], [-107.08612, 39.3356], [-107.10473, 39.3356], [-107.10475, 39.3501], [-107.08614, 39.35009], [-107.08612, 39.33922]]]}}, {"id": "16", "type": "Feature", "properties": {"section": "18", "plss_township": "CO060080S0870W0", "source": "BLM Cadastral PLSS (Public Land Survey System)", "pulldate": "2026-07-28", "srcurl": "https://gis.blm.gov/arcgis/rest/services/Cadastral/BLM_Natl_PLSS_CadNSDI/MapServer/2", "caveat": "Section/township grid pulled to georeference the Mid-Valley Metro CAD PDF. No longer needed - MVMD's real boundary was found via Colorado DOLA instead. Kept for reference only."}, "geometry": {"type": "Polygon", "coordinates": [[[-107.15604, 39.35008], [-107.16141, 39.35008], [-107.16155, 39.36457], [-107.14207, 39.36458], [-107.14205, 39.35008], [-107.15604, 39.35008]]]}}, {"id": "17", "type": "Feature", "properties": {"section": "05", "plss_township": "CO060080S0870W0", "source": "BLM Cadastral PLSS (Public Land Survey System)", "pulldate": "2026-07-28", "srcurl": "https://gis.blm.gov/arcgis/rest/services/Cadastral/BLM_Natl_PLSS_CadNSDI/MapServer/2", "caveat": "Section/township grid pulled to georeference the Mid-Valley Metro CAD PDF. No longer needed - MVMD's real boundary was found via Colorado DOLA instead. Kept for reference only."}, "geometry": {"type": "Polygon", "coordinates": [[[-107.13751, 39.39558], [-107.12351, 39.39559], [-107.12344, 39.3791], [-107.14207, 39.37907], [-107.14217, 39.39563], [-107.13751, 39.39558]]]}}, {"id": "18", "type": "Feature", "properties": {"section": "13", "plss_township": "CO060080S0870W0", "source": "BLM Cadastral PLSS (Public Land Survey System)", "pulldate": "2026-07-28", "srcurl": "https://gis.blm.gov/arcgis/rest/services/Cadastral/BLM_Natl_PLSS_CadNSDI/MapServer/2", "caveat": "Section/township grid pulled to georeference the Mid-Valley Metro CAD PDF. No longer needed - MVMD's real boundary was found via Colorado DOLA instead. Kept for reference only."}, "geometry": {"type": "Polygon", "coordinates": [[[-107.04888, 39.36454], [-107.04889, 39.35005], [-107.0675, 39.35007], [-107.0675, 39.36455], [-107.04888, 39.36454]]]}}, {"id": "19", "type": "Feature", "properties": {"section": "24", "plss_township": "CO060080S0870W0", "source": "BLM Cadastral PLSS (Public Land Survey System)", "pulldate": "2026-07-28", "srcurl": "https://gis.blm.gov/arcgis/rest/services/Cadastral/BLM_Natl_PLSS_CadNSDI/MapServer/2", "caveat": "Section/township grid pulled to georeference the Mid-Valley Metro CAD PDF. No longer needed - MVMD's real boundary was found via Colorado DOLA instead. Kept for reference only."}, "geometry": {"type": "Polygon", "coordinates": [[[-107.04892, 39.33919], [-107.04893, 39.33557], [-107.06752, 39.33558], [-107.0675, 39.35007], [-107.04889, 39.35005], [-107.04892, 39.33919]]]}}, {"id": "20", "type": "Feature", "properties": {"section": "01", "plss_township": "CO060080S0870W0", "source": "BLM Cadastral PLSS (Public Land Survey System)", "pulldate": "2026-07-28", "srcurl": "https://gis.blm.gov/arcgis/rest/services/Cadastral/BLM_Natl_PLSS_CadNSDI/MapServer/2", "caveat": "Section/township grid pulled to georeference the Mid-Valley Metro CAD PDF. No longer needed - MVMD's real boundary was found via Colorado DOLA instead. Kept for reference only."}, "geometry": {"type": "Polygon", "coordinates": [[[-107.06728, 39.39536], [-107.04883, 39.39535], [-107.04886, 39.37901], [-107.06748, 39.37904], [-107.06728, 39.39536]]]}}, {"id": "21", "type": "Feature", "properties": {"section": "14", "plss_township": "CO060080S0870W0", "source": "BLM Cadastral PLSS (Public Land Survey System)", "pulldate": "2026-07-28", "srcurl": "https://gis.blm.gov/arcgis/rest/services/Cadastral/BLM_Natl_PLSS_CadNSDI/MapServer/2", "caveat": "Section/township grid pulled to georeference the Mid-Valley Metro CAD PDF. No longer needed - MVMD's real boundary was found via Colorado DOLA instead. Kept for reference only."}, "geometry": {"type": "Polygon", "coordinates": [[[-107.0675, 39.35124], [-107.0675, 39.35007], [-107.08614, 39.35009], [-107.08615, 39.36457], [-107.0675, 39.36455], [-107.0675, 39.35124]]]}}, {"id": "22", "type": "Feature", "properties": {"section": "02", "plss_township": "CO060080S0870W0", "source": "BLM Cadastral PLSS (Public Land Survey System)", "pulldate": "2026-07-28", "srcurl": "https://gis.blm.gov/arcgis/rest/services/Cadastral/BLM_Natl_PLSS_CadNSDI/MapServer/2", "caveat": "Section/township grid pulled to georeference the Mid-Valley Metro CAD PDF. No longer needed - MVMD's real boundary was found via Colorado DOLA instead. Kept for reference only."}, "geometry": {"type": "Polygon", "coordinates": [[[-107.08595, 39.39533], [-107.0675, 39.39536], [-107.06748, 39.37904], [-107.08617, 39.37905], [-107.08595, 39.39533]]]}}, {"id": "23", "type": "Feature", "properties": {"section": "09", "plss_township": "CO060080S0870W0", "source": "BLM Cadastral PLSS (Public Land Survey System)", "pulldate": "2026-07-28", "srcurl": "https://gis.blm.gov/arcgis/rest/services/Cadastral/BLM_Natl_PLSS_CadNSDI/MapServer/2", "caveat": "Section/township grid pulled to georeference the Mid-Valley Metro CAD PDF. No longer needed - MVMD's real boundary was found via Colorado DOLA instead. Kept for reference only."}, "geometry": {"type": "Polygon", "coordinates": [[[-107.10477, 39.36822], [-107.10477, 39.3646], [-107.1234, 39.3646], [-107.12344, 39.3791], [-107.10478, 39.37909], [-107.10477, 39.36822]]]}}, {"id": "24", "type": "Feature", "properties": {"section": "17", "plss_township": "CO060080S0860W0", "source": "BLM Cadastral PLSS (Public Land Survey System)", "pulldate": "2026-07-28", "srcurl": "https://gis.blm.gov/arcgis/rest/services/Cadastral/BLM_Natl_PLSS_CadNSDI/MapServer/2", "caveat": "Section/township grid pulled to georeference the Mid-Valley Metro CAD PDF. No longer needed - MVMD's real boundary was found via Colorado DOLA instead. Kept for reference only."}, "geometry": {"type": "Polygon", "coordinates": [[[-107.02909, 39.3609], [-107.02909, 39.36452], [-107.01043, 39.36454], [-107.01043, 39.35006], [-107.02909, 39.35003], [-107.02909, 39.3609]]]}}, {"id": "25", "type": "Feature", "properties": {"section": "05", "plss_township": "CO060080S0860W0", "source": "BLM Cadastral PLSS (Public Land Survey System)", "pulldate": "2026-07-28", "srcurl": "https://gis.blm.gov/arcgis/rest/services/Cadastral/BLM_Natl_PLSS_CadNSDI/MapServer/2", "caveat": "Section/township grid pulled to georeference the Mid-Valley Metro CAD PDF. No longer needed - MVMD's real boundary was found via Colorado DOLA instead. Kept for reference only."}, "geometry": {"type": "Polygon", "coordinates": [[[-107.02907, 39.38625], [-107.02902, 39.39475], [-107.01041, 39.39475], [-107.01045, 39.37902], [-107.0291, 39.37901], [-107.02907, 39.38625]]]}}, {"id": "26", "type": "Feature", "properties": {"section": "09", "plss_township": "CO060080S0860W0", "source": "BLM Cadastral PLSS (Public Land Survey System)", "pulldate": "2026-07-28", "srcurl": "https://gis.blm.gov/arcgis/rest/services/Cadastral/BLM_Natl_PLSS_CadNSDI/MapServer/2", "caveat": "Section/township grid pulled to georeference the Mid-Valley Metro CAD PDF. No longer needed - MVMD's real boundary was found via Colorado DOLA instead. Kept for reference only."}, "geometry": {"type": "Polygon", "coordinates": [[[-107.00577, 39.37902], [-106.99174, 39.37903], [-106.99174, 39.36454], [-107.01043, 39.36454], [-107.01045, 39.37902], [-107.00577, 39.37902]]]}}, {"id": "27", "type": "Feature", "properties": {"section": "07", "plss_township": "CO060080S0860W0", "source": "BLM Cadastral PLSS (Public Land Survey System)", "pulldate": "2026-07-28", "srcurl": "https://gis.blm.gov/arcgis/rest/services/Cadastral/BLM_Natl_PLSS_CadNSDI/MapServer/2", "caveat": "Section/township grid pulled to georeference the Mid-Valley Metro CAD PDF. No longer needed - MVMD's real boundary was found via Colorado DOLA instead. Kept for reference only."}, "geometry": {"type": "Polygon", "coordinates": [[[-107.0291, 39.37901], [-107.02909, 39.36452], [-107.04888, 39.36454], [-107.04886, 39.37901], [-107.0291, 39.37901]]]}}, {"id": "28", "type": "Feature", "properties": {"section": "06", "plss_township": "CO060080S0860W0", "source": "BLM Cadastral PLSS (Public Land Survey System)", "pulldate": "2026-07-28", "srcurl": "https://gis.blm.gov/arcgis/rest/services/Cadastral/BLM_Natl_PLSS_CadNSDI/MapServer/2", "caveat": "Section/township grid pulled to georeference the Mid-Valley Metro CAD PDF. No longer needed - MVMD's real boundary was found via Colorado DOLA instead. Kept for reference only."}, "geometry": {"type": "Polygon", "coordinates": [[[-107.03063, 39.39475], [-107.02902, 39.39475], [-107.0291, 39.37901], [-107.04886, 39.37901], [-107.04883, 39.39474], [-107.03063, 39.39475]]]}}, {"id": "29", "type": "Feature", "properties": {"section": "08", "plss_township": "CO060080S0860W0", "source": "BLM Cadastral PLSS (Public Land Survey System)", "pulldate": "2026-07-28", "srcurl": "https://gis.blm.gov/arcgis/rest/services/Cadastral/BLM_Natl_PLSS_CadNSDI/MapServer/2", "caveat": "Section/township grid pulled to georeference the Mid-Valley Metro CAD PDF. No longer needed - MVMD's real boundary was found via Colorado DOLA instead. Kept for reference only."}, "geometry": {"type": "Polygon", "coordinates": [[[-107.02909, 39.3691], [-107.0291, 39.37901], [-107.01045, 39.37902], [-107.01043, 39.36454], [-107.02909, 39.36452], [-107.02909, 39.3691]]]}}, {"id": "30", "type": "Feature", "properties": {"section": "19", "plss_township": "CO060080S0860W0", "source": "BLM Cadastral PLSS (Public Land Survey System)", "pulldate": "2026-07-28", "srcurl": "https://gis.blm.gov/arcgis/rest/services/Cadastral/BLM_Natl_PLSS_CadNSDI/MapServer/2", "caveat": "Section/township grid pulled to georeference the Mid-Valley Metro CAD PDF. No longer needed - MVMD's real boundary was found via Colorado DOLA instead. Kept for reference only."}, "geometry": {"type": "Polygon", "coordinates": [[[-107.02909, 39.35003], [-107.02907, 39.33554], [-107.04893, 39.33557], [-107.04889, 39.35005], [-107.02909, 39.35003]]]}}, {"id": "31", "type": "Feature", "properties": {"section": "16", "plss_township": "CO060080S0860W0", "source": "BLM Cadastral PLSS (Public Land Survey System)", "pulldate": "2026-07-28", "srcurl": "https://gis.blm.gov/arcgis/rest/services/Cadastral/BLM_Natl_PLSS_CadNSDI/MapServer/2", "caveat": "Section/township grid pulled to georeference the Mid-Valley Metro CAD PDF. No longer needed - MVMD's real boundary was found via Colorado DOLA instead. Kept for reference only."}, "geometry": {"type": "Polygon", "coordinates": [[[-107.01042, 39.36092], [-107.01043, 39.36454], [-106.99174, 39.36454], [-106.99178, 39.35004], [-107.01043, 39.35006], [-107.01042, 39.36092]]]}}, {"id": "32", "type": "Feature", "properties": {"section": "18", "plss_township": "CO060080S0860W0", "source": "BLM Cadastral PLSS (Public Land Survey System)", "pulldate": "2026-07-28", "srcurl": "https://gis.blm.gov/arcgis/rest/services/Cadastral/BLM_Natl_PLSS_CadNSDI/MapServer/2", "caveat": "Section/township grid pulled to georeference the Mid-Valley Metro CAD PDF. No longer needed - MVMD's real boundary was found via Colorado DOLA instead. Kept for reference only."}, "geometry": {"type": "Polygon", "coordinates": [[[-107.02909, 39.36452], [-107.02909, 39.35003], [-107.04889, 39.35005], [-107.04888, 39.36454], [-107.02909, 39.36452]]]}}, {"id": "33", "type": "Feature", "properties": {"section": "04", "plss_township": "CO060080S0860W0", "source": "BLM Cadastral PLSS (Public Land Survey System)", "pulldate": "2026-07-28", "srcurl": "https://gis.blm.gov/arcgis/rest/services/Cadastral/BLM_Natl_PLSS_CadNSDI/MapServer/2", "caveat": "Section/township grid pulled to georeference the Mid-Valley Metro CAD PDF. No longer needed - MVMD's real boundary was found via Colorado DOLA instead. Kept for reference only."}, "geometry": {"type": "Polygon", "coordinates": [[[-107.01043, 39.38626], [-107.01041, 39.39475], [-106.99178, 39.39473], [-106.99174, 39.37903], [-107.01045, 39.37902], [-107.01043, 39.38626]]]}}, {"id": "34", "type": "Feature", "properties": {"section": "20", "plss_township": "CO060080S0860W0", "source": "BLM Cadastral PLSS (Public Land Survey System)", "pulldate": "2026-07-28", "srcurl": "https://gis.blm.gov/arcgis/rest/services/Cadastral/BLM_Natl_PLSS_CadNSDI/MapServer/2", "caveat": "Section/township grid pulled to georeference the Mid-Valley Metro CAD PDF. No longer needed - MVMD's real boundary was found via Colorado DOLA instead. Kept for reference only."}, "geometry": {"type": "Polygon", "coordinates": [[[-107.02909, 39.34641], [-107.02909, 39.35003], [-107.01043, 39.35006], [-107.0104, 39.33556], [-107.02907, 39.33554], [-107.02909, 39.34641]]]}}, {"id": "35", "type": "Feature", "properties": {"section": "21", "plss_township": "CO060080S0860W0", "source": "BLM Cadastral PLSS (Public Land Survey System)", "pulldate": "2026-07-28", "srcurl": "https://gis.blm.gov/arcgis/rest/services/Cadastral/BLM_Natl_PLSS_CadNSDI/MapServer/2", "caveat": "Section/township grid pulled to georeference the Mid-Valley Metro CAD PDF. No longer needed - MVMD's real boundary was found via Colorado DOLA instead. Kept for reference only."}, "geometry": {"type": "Polygon", "coordinates": [[[-107.01043, 39.34644], [-107.01043, 39.35006], [-106.99178, 39.35004], [-106.99179, 39.33555], [-107.0104, 39.33556], [-107.01043, 39.34644]]]}}, {"id": "36", "type": "Feature", "properties": {"section": "02", "plss_township": "CO060070S0870W0", "source": "BLM Cadastral PLSS (Public Land Survey System)", "pulldate": "2026-07-28", "srcurl": "https://gis.blm.gov/arcgis/rest/services/Cadastral/BLM_Natl_PLSS_CadNSDI/MapServer/2", "caveat": "Section/township grid pulled to georeference the Mid-Valley Metro CAD PDF. No longer needed - MVMD's real boundary was found via Colorado DOLA instead. Kept for reference only."}, "geometry": {"type": "Polygon", "coordinates": [[[-107.08601, 39.47581], [-107.08615, 39.48322], [-107.06758, 39.48333], [-107.06758, 39.46844], [-107.08587, 39.46846], [-107.08601, 39.47581]]]}}, {"id": "37", "type": "Feature", "properties": {"section": "15", "plss_township": "CO060070S0870W0", "source": "BLM Cadastral PLSS (Public Land Survey System)", "pulldate": "2026-07-28", "srcurl": "https://gis.blm.gov/arcgis/rest/services/Cadastral/BLM_Natl_PLSS_CadNSDI/MapServer/2", "caveat": "Section/township grid pulled to georeference the Mid-Valley Metro CAD PDF. No longer needed - MVMD's real boundary was found via Colorado DOLA instead. Kept for reference only."}, "geometry": {"type": "Polygon", "coordinates": [[[-107.10446, 39.45026], [-107.10444, 39.45389], [-107.08589, 39.45379], [-107.08602, 39.43909], [-107.10454, 39.43935], [-107.10446, 39.45026]]]}}, {"id": "38", "type": "Feature", "properties": {"section": "12", "plss_township": "CO060070S0870W0", "source": "BLM Cadastral PLSS (Public Land Survey System)", "pulldate": "2026-07-28", "srcurl": "https://gis.blm.gov/arcgis/rest/services/Cadastral/BLM_Natl_PLSS_CadNSDI/MapServer/2", "caveat": "Section/township grid pulled to georeference the Mid-Valley Metro CAD PDF. No longer needed - MVMD's real boundary was found via Colorado DOLA instead. Kept for reference only."}, "geometry": {"type": "Polygon", "coordinates": [[[-107.06702, 39.46061], [-107.067, 39.46786], [-107.04884, 39.46786], [-107.04884, 39.45335], [-107.06705, 39.45335], [-107.06702, 39.46061]]]}}, {"id": "39", "type": "Feature", "properties": {"section": "36", "plss_township": "CO060070S0870W0", "source": "BLM Cadastral PLSS (Public Land Survey System)", "pulldate": "2026-07-28", "srcurl": "https://gis.blm.gov/arcgis/rest/services/Cadastral/BLM_Natl_PLSS_CadNSDI/MapServer/2", "caveat": "Section/township grid pulled to georeference the Mid-Valley Metro CAD PDF. No longer needed - MVMD's real boundary was found via Colorado DOLA instead. Kept for reference only."}, "geometry": {"type": "Polygon", "coordinates": [[[-107.04882, 39.40985], [-107.04883, 39.39535], [-107.06728, 39.39536], [-107.06731, 39.40994], [-107.04882, 39.40985]]]}}, {"id": "40", "type": "Feature", "properties": {"section": "11", "plss_township": "CO060070S0870W0", "source": "BLM Cadastral PLSS (Public Land Survey System)", "pulldate": "2026-07-28", "srcurl": "https://gis.blm.gov/arcgis/rest/services/Cadastral/BLM_Natl_PLSS_CadNSDI/MapServer/2", "caveat": "Section/township grid pulled to georeference the Mid-Valley Metro CAD PDF. No longer needed - MVMD's real boundary was found via Colorado DOLA instead. Kept for reference only."}, "geometry": {"type": "Polygon", "coordinates": [[[-107.08615, 39.46119], [-107.08587, 39.46846], [-107.067, 39.46844], [-107.06704, 39.45379], [-107.08589, 39.45379], [-107.08615, 39.46119]]]}}, {"id": "41", "type": "Feature", "properties": {"section": "23", "plss_township": "CO060070S0870W0", "source": "BLM Cadastral PLSS (Public Land Survey System)", "pulldate": "2026-07-28", "srcurl": "https://gis.blm.gov/arcgis/rest/services/Cadastral/BLM_Natl_PLSS_CadNSDI/MapServer/2", "caveat": "Section/township grid pulled to georeference the Mid-Valley Metro CAD PDF. No longer needed - MVMD's real boundary was found via Colorado DOLA instead. Kept for reference only."}, "geometry": {"type": "Polygon", "coordinates": [[[-107.08604, 39.43684], [-107.08602, 39.43909], [-107.06721, 39.43899], [-107.0672, 39.42446], [-107.0861, 39.42447], [-107.08604, 39.43684]]]}}, {"id": "42", "type": "Feature", "properties": {"section": "28", "plss_township": "CO060070S0870W0", "source": "BLM Cadastral PLSS (Public Land Survey System)", "pulldate": "2026-07-28", "srcurl": "https://gis.blm.gov/arcgis/rest/services/Cadastral/BLM_Natl_PLSS_CadNSDI/MapServer/2", "caveat": "Section/township grid pulled to georeference the Mid-Valley Metro CAD PDF. No longer needed - MVMD's real boundary was found via Colorado DOLA instead. Kept for reference only."}, "geometry": {"type": "Polygon", "coordinates": [[[-107.12374, 39.41758], [-107.12336, 39.42491], [-107.1045, 39.42464], [-107.10469, 39.41027], [-107.12412, 39.41025], [-107.12374, 39.41758]]]}}, {"id": "43", "type": "Feature", "properties": {"section": "01", "plss_township": "CO060070S0870W0", "source": "BLM Cadastral PLSS (Public Land Survey System)", "pulldate": "2026-07-28", "srcurl": "https://gis.blm.gov/arcgis/rest/services/Cadastral/BLM_Natl_PLSS_CadNSDI/MapServer/2", "caveat": "Section/township grid pulled to georeference the Mid-Valley Metro CAD PDF. No longer needed - MVMD's real boundary was found via Colorado DOLA instead. Kept for reference only."}, "geometry": {"type": "Polygon", "coordinates": [[[-107.06758, 39.47511], [-107.06758, 39.48333], [-107.04885, 39.48335], [-107.04884, 39.46786], [-107.067, 39.46786], [-107.067, 39.46844], [-107.06758, 39.46844], [-107.06758, 39.47511]]]}}, {"id": "44", "type": "Feature", "properties": {"section": "30", "plss_township": "CO060070S0870W0", "source": "BLM Cadastral PLSS (Public Land Survey System)", "pulldate": "2026-07-28", "srcurl": "https://gis.blm.gov/arcgis/rest/services/Cadastral/BLM_Natl_PLSS_CadNSDI/MapServer/2", "caveat": "Section/township grid pulled to georeference the Mid-Valley Metro CAD PDF. No longer needed - MVMD's real boundary was found via Colorado DOLA instead. Kept for reference only."}, "geometry": {"type": "Polygon", "coordinates": [[[-107.16167, 39.41769], [-107.16138, 39.42513], [-107.14255, 39.42509], [-107.14297, 39.41024], [-107.16196, 39.41025], [-107.16167, 39.41769]]]}}, {"id": "45", "type": "Feature", "properties": {"section": "09", "plss_township": "CO060070S0870W0", "source": "BLM Cadastral PLSS (Public Land Survey System)", "pulldate": "2026-07-28", "srcurl": "https://gis.blm.gov/arcgis/rest/services/Cadastral/BLM_Natl_PLSS_CadNSDI/MapServer/2", "caveat": "Section/township grid pulled to georeference the Mid-Valley Metro CAD PDF. No longer needed - MVMD's real boundary was found via Colorado DOLA instead. Kept for reference only."}, "geometry": {"type": "Polygon", "coordinates": [[[-107.11991, 39.4689], [-107.10464, 39.46865], [-107.10444, 39.45389], [-107.12336, 39.45434], [-107.12349, 39.46896], [-107.11991, 39.4689]]]}}, {"id": "46", "type": "Feature", "properties": {"section": "05", "plss_township": "CO060070S0870W0", "source": "BLM Cadastral PLSS (Public Land Survey System)", "pulldate": "2026-07-28", "srcurl": "https://gis.blm.gov/arcgis/rest/services/Cadastral/BLM_Natl_PLSS_CadNSDI/MapServer/2", "caveat": "Section/township grid pulled to georeference the Mid-Valley Metro CAD PDF. No longer needed - MVMD's real boundary was found via Colorado DOLA instead. Kept for reference only."}, "geometry": {"type": "Polygon", "coordinates": [[[-107.1423, 39.4729], [-107.14248, 39.48351], [-107.12364, 39.4834], [-107.12349, 39.46896], [-107.14221, 39.46891], [-107.1423, 39.4729]]]}}, {"id": "47", "type": "Feature", "properties": {"section": "07", "plss_township": "CO060070S0870W0", "source": "BLM Cadastral PLSS (Public Land Survey System)", "pulldate": "2026-07-28", "srcurl": "https://gis.blm.gov/arcgis/rest/services/Cadastral/BLM_Natl_PLSS_CadNSDI/MapServer/2", "caveat": "Section/township grid pulled to georeference the Mid-Valley Metro CAD PDF. No longer needed - MVMD's real boundary was found via Colorado DOLA instead. Kept for reference only."}, "geometry": {"type": "Polygon", "coordinates": [[[-107.1612, 39.46157], [-107.16138, 39.46888], [-107.14221, 39.46891], [-107.14203, 39.4547], [-107.16109, 39.45445], [-107.1612, 39.46157]]]}}, {"id": "48", "type": "Feature", "properties": {"section": "33", "plss_township": "CO060070S0870W0", "source": "BLM Cadastral PLSS (Public Land Survey System)", "pulldate": "2026-07-28", "srcurl": "https://gis.blm.gov/arcgis/rest/services/Cadastral/BLM_Natl_PLSS_CadNSDI/MapServer/2", "caveat": "Section/township grid pulled to georeference the Mid-Valley Metro CAD PDF. No longer needed - MVMD's real boundary was found via Colorado DOLA instead. Kept for reference only."}, "geometry": {"type": "Polygon", "coordinates": [[[-107.10469, 39.41027], [-107.1049, 39.39581], [-107.12438, 39.39558], [-107.12412, 39.41025], [-107.10469, 39.41027]]]}}, {"id": "49", "type": "Feature", "properties": {"section": "13", "plss_township": "CO060070S0870W0", "source": "BLM Cadastral PLSS (Public Land Survey System)", "pulldate": "2026-07-28", "srcurl": "https://gis.blm.gov/arcgis/rest/services/Cadastral/BLM_Natl_PLSS_CadNSDI/MapServer/2", "caveat": "Section/township grid pulled to georeference the Mid-Valley Metro CAD PDF. No longer needed - MVMD's real boundary was found via Colorado DOLA instead. Kept for reference only."}, "geometry": {"type": "Polygon", "coordinates": [[[-107.06713, 39.4461], [-107.06705, 39.45335], [-107.04884, 39.45335], [-107.04884, 39.43885], [-107.06721, 39.43884], [-107.06713, 39.4461]]]}}, {"id": "50", "type": "Feature", "properties": {"section": "10", "plss_township": "CO060070S0870W0", "source": "BLM Cadastral PLSS (Public Land Survey System)", "pulldate": "2026-07-28", "srcurl": "https://gis.blm.gov/arcgis/rest/services/Cadastral/BLM_Natl_PLSS_CadNSDI/MapServer/2", "caveat": "Section/township grid pulled to georeference the Mid-Valley Metro CAD PDF. No longer needed - MVMD's real boundary was found via Colorado DOLA instead. Kept for reference only."}, "geometry": {"type": "Polygon", "coordinates": [[[-107.0859, 39.45397], [-107.10444, 39.45389], [-107.10464, 39.46865], [-107.08587, 39.46846], [-107.0859, 39.45397]]]}}, {"id": "51", "type": "Feature", "properties": {"section": "29", "plss_township": "CO060070S0870W0", "source": "BLM Cadastral PLSS (Public Land Survey System)", "pulldate": "2026-07-28", "srcurl": "https://gis.blm.gov/arcgis/rest/services/Cadastral/BLM_Natl_PLSS_CadNSDI/MapServer/2", "caveat": "Section/township grid pulled to georeference the Mid-Valley Metro CAD PDF. No longer needed - MVMD's real boundary was found via Colorado DOLA instead. Kept for reference only."}, "geometry": {"type": "Polygon", "coordinates": [[[-107.14276, 39.41767], [-107.14255, 39.42509], [-107.12336, 39.42491], [-107.12412, 39.41025], [-107.14297, 39.41024], [-107.14276, 39.41767]]]}}, {"id": "52", "type": "Feature", "properties": {"section": "18", "plss_township": "CO060070S0870W0", "source": "BLM Cadastral PLSS (Public Land Survey System)", "pulldate": "2026-07-28", "srcurl": "https://gis.blm.gov/arcgis/rest/services/Cadastral/BLM_Natl_PLSS_CadNSDI/MapServer/2", "caveat": "Section/township grid pulled to georeference the Mid-Valley Metro CAD PDF. No longer needed - MVMD's real boundary was found via Colorado DOLA instead. Kept for reference only."}, "geometry": {"type": "Polygon", "coordinates": [[[-107.15632, 39.45451], [-107.14203, 39.4547], [-107.14219, 39.43989], [-107.16082, 39.43974], [-107.16109, 39.45445], [-107.15632, 39.45451]]]}}, {"id": "53", "type": "Feature", "properties": {"section": "20", "plss_township": "CO060070S0870W0", "source": "BLM Cadastral PLSS (Public Land Survey System)", "pulldate": "2026-07-28", "srcurl": "https://gis.blm.gov/arcgis/rest/services/Cadastral/BLM_Natl_PLSS_CadNSDI/MapServer/2", "caveat": "Section/township grid pulled to georeference the Mid-Valley Metro CAD PDF. No longer needed - MVMD's real boundary was found via Colorado DOLA instead. Kept for reference only."}, "geometry": {"type": "Polygon", "coordinates": [[[-107.14228, 39.43619], [-107.14219, 39.43989], [-107.12334, 39.43972], [-107.12336, 39.42491], [-107.14255, 39.42509], [-107.14228, 39.43619]]]}}, {"id": "54", "type": "Feature", "properties": {"section": "26", "plss_township": "CO060070S0870W0", "source": "BLM Cadastral PLSS (Public Land Survey System)", "pulldate": "2026-07-28", "srcurl": "https://gis.blm.gov/arcgis/rest/services/Cadastral/BLM_Natl_PLSS_CadNSDI/MapServer/2", "caveat": "Section/township grid pulled to georeference the Mid-Valley Metro CAD PDF. No longer needed - MVMD's real boundary was found via Colorado DOLA instead. Kept for reference only."}, "geometry": {"type": "Polygon", "coordinates": [[[-107.08604, 39.42085], [-107.0861, 39.42447], [-107.0672, 39.42446], [-107.06731, 39.40994], [-107.08609, 39.40994], [-107.08604, 39.42085]]]}}, {"id": "55", "type": "Feature", "properties": {"section": "27", "plss_township": "CO060070S0870W0", "source": "BLM Cadastral PLSS (Public Land Survey System)", "pulldate": "2026-07-28", "srcurl": "https://gis.blm.gov/arcgis/rest/services/Cadastral/BLM_Natl_PLSS_CadNSDI/MapServer/2", "caveat": "Section/township grid pulled to georeference the Mid-Valley Metro CAD PDF. No longer needed - MVMD's real boundary was found via Colorado DOLA instead. Kept for reference only."}, "geometry": {"type": "Polygon", "coordinates": [[[-107.10459, 39.41746], [-107.1045, 39.42464], [-107.0861, 39.42447], [-107.08609, 39.40994], [-107.10469, 39.41027], [-107.10459, 39.41746]]]}}, {"id": "56", "type": "Feature", "properties": {"section": "31", "plss_township": "CO060070S0870W0", "source": "BLM Cadastral PLSS (Public Land Survey System)", "pulldate": "2026-07-28", "srcurl": "https://gis.blm.gov/arcgis/rest/services/Cadastral/BLM_Natl_PLSS_CadNSDI/MapServer/2", "caveat": "Section/township grid pulled to georeference the Mid-Valley Metro CAD PDF. No longer needed - MVMD's real boundary was found via Colorado DOLA instead. Kept for reference only."}, "geometry": {"type": "Polygon", "coordinates": [[[-107.15729, 39.41023], [-107.14297, 39.41024], [-107.14305, 39.39563], [-107.16197, 39.39572], [-107.16196, 39.41025], [-107.15729, 39.41023]]]}}, {"id": "57", "type": "Feature", "properties": {"section": "35", "plss_township": "CO060070S0870W0", "source": "BLM Cadastral PLSS (Public Land Survey System)", "pulldate": "2026-07-28", "srcurl": "https://gis.blm.gov/arcgis/rest/services/Cadastral/BLM_Natl_PLSS_CadNSDI/MapServer/2", "caveat": "Section/township grid pulled to georeference the Mid-Valley Metro CAD PDF. No longer needed - MVMD's real boundary was found via Colorado DOLA instead. Kept for reference only."}, "geometry": {"type": "Polygon", "coordinates": [[[-107.08539, 39.40994], [-107.06731, 39.40994], [-107.06728, 39.39536], [-107.08595, 39.39533], [-107.08609, 39.40994], [-107.08539, 39.40994]]]}}, {"id": "58", "type": "Feature", "properties": {"section": "24", "plss_township": "CO060070S0870W0", "source": "BLM Cadastral PLSS (Public Land Survey System)", "pulldate": "2026-07-28", "srcurl": "https://gis.blm.gov/arcgis/rest/services/Cadastral/BLM_Natl_PLSS_CadNSDI/MapServer/2", "caveat": "Section/township grid pulled to georeference the Mid-Valley Metro CAD PDF. No longer needed - MVMD's real boundary was found via Colorado DOLA instead. Kept for reference only."}, "geometry": {"type": "Polygon", "coordinates": [[[-107.0672, 39.4316], [-107.06721, 39.43884], [-107.04884, 39.43885], [-107.04883, 39.42435], [-107.06721, 39.42435], [-107.0672, 39.4316]]]}}, {"id": "59", "type": "Feature", "properties": {"section": "19", "plss_township": "CO060070S0870W0", "source": "BLM Cadastral PLSS (Public Land Survey System)", "pulldate": "2026-07-28", "srcurl": "https://gis.blm.gov/arcgis/rest/services/Cadastral/BLM_Natl_PLSS_CadNSDI/MapServer/2", "caveat": "Section/township grid pulled to georeference the Mid-Valley Metro CAD PDF. No longer needed - MVMD's real boundary was found via Colorado DOLA instead. Kept for reference only."}, "geometry": {"type": "Polygon", "coordinates": [[[-107.15612, 39.43979], [-107.14219, 39.43989], [-107.14255, 39.42509], [-107.16138, 39.42513], [-107.16082, 39.43974], [-107.15612, 39.43979]]]}}, {"id": "60", "type": "Feature", "properties": {"section": "08", "plss_township": "CO060070S0870W0", "source": "BLM Cadastral PLSS (Public Land Survey System)", "pulldate": "2026-07-28", "srcurl": "https://gis.blm.gov/arcgis/rest/services/Cadastral/BLM_Natl_PLSS_CadNSDI/MapServer/2", "caveat": "Section/township grid pulled to georeference the Mid-Valley Metro CAD PDF. No longer needed - MVMD's real boundary was found via Colorado DOLA instead. Kept for reference only."}, "geometry": {"type": "Polygon", "coordinates": [[[-107.12817, 39.46895], [-107.12349, 39.46896], [-107.12336, 39.45434], [-107.14203, 39.4547], [-107.14221, 39.46891], [-107.12817, 39.46895]]]}}, {"id": "61", "type": "Feature", "properties": {"section": "25", "plss_township": "CO060070S0870W0", "source": "BLM Cadastral PLSS (Public Land Survey System)", "pulldate": "2026-07-28", "srcurl": "https://gis.blm.gov/arcgis/rest/services/Cadastral/BLM_Natl_PLSS_CadNSDI/MapServer/2", "caveat": "Section/township grid pulled to georeference the Mid-Valley Metro CAD PDF. No longer needed - MVMD's real boundary was found via Colorado DOLA instead. Kept for reference only."}, "geometry": {"type": "Polygon", "coordinates": [[[-107.06726, 39.41715], [-107.06721, 39.42435], [-107.04883, 39.42435], [-107.04882, 39.40985], [-107.06731, 39.40994], [-107.06726, 39.41715]]]}}, {"id": "62", "type": "Feature", "properties": {"section": "21", "plss_township": "CO060070S0870W0", "source": "BLM Cadastral PLSS (Public Land Survey System)", "pulldate": "2026-07-28", "srcurl": "https://gis.blm.gov/arcgis/rest/services/Cadastral/BLM_Natl_PLSS_CadNSDI/MapServer/2", "caveat": "Section/township grid pulled to georeference the Mid-Valley Metro CAD PDF. No longer needed - MVMD's real boundary was found via Colorado DOLA instead. Kept for reference only."}, "geometry": {"type": "Polygon", "coordinates": [[[-107.1233, 39.43251], [-107.12334, 39.43972], [-107.10454, 39.43935], [-107.1045, 39.42464], [-107.12336, 39.42491], [-107.1233, 39.43251]]]}}, {"id": "63", "type": "Feature", "properties": {"section": "17", "plss_township": "CO060070S0870W0", "source": "BLM Cadastral PLSS (Public Land Survey System)", "pulldate": "2026-07-28", "srcurl": "https://gis.blm.gov/arcgis/rest/services/Cadastral/BLM_Natl_PLSS_CadNSDI/MapServer/2", "caveat": "Section/township grid pulled to georeference the Mid-Valley Metro CAD PDF. No longer needed - MVMD's real boundary was found via Colorado DOLA instead. Kept for reference only."}, "geometry": {"type": "Polygon", "coordinates": [[[-107.14209, 39.45104], [-107.14203, 39.4547], [-107.12336, 39.45434], [-107.12334, 39.43972], [-107.14219, 39.43989], [-107.14209, 39.45104]]]}}, {"id": "64", "type": "Feature", "properties": {"section": "04", "plss_township": "CO060070S0870W0", "source": "BLM Cadastral PLSS (Public Land Survey System)", "pulldate": "2026-07-28", "srcurl": "https://gis.blm.gov/arcgis/rest/services/Cadastral/BLM_Natl_PLSS_CadNSDI/MapServer/2", "caveat": "Section/township grid pulled to georeference the Mid-Valley Metro CAD PDF. No longer needed - MVMD's real boundary was found via Colorado DOLA instead. Kept for reference only."}, "geometry": {"type": "Polygon", "coordinates": [[[-107.12355, 39.47287], [-107.12364, 39.4834], [-107.10482, 39.48334], [-107.10464, 39.46865], [-107.12349, 39.46896], [-107.12355, 39.47287]]]}}, {"id": "65", "type": "Feature", "properties": {"section": "06", "plss_township": "CO060070S0870W0", "source": "BLM Cadastral PLSS (Public Land Survey System)", "pulldate": "2026-07-28", "srcurl": "https://gis.blm.gov/arcgis/rest/services/Cadastral/BLM_Natl_PLSS_CadNSDI/MapServer/2", "caveat": "Section/township grid pulled to georeference the Mid-Valley Metro CAD PDF. No longer needed - MVMD's real boundary was found via Colorado DOLA instead. Kept for reference only."}, "geometry": {"type": "Polygon", "coordinates": [[[-107.16153, 39.47985], [-107.16149, 39.4835], [-107.14248, 39.48351], [-107.14221, 39.46891], [-107.16138, 39.46888], [-107.16153, 39.47985]]]}}, {"id": "66", "type": "Feature", "properties": {"section": "34", "plss_township": "CO060070S0870W0", "source": "BLM Cadastral PLSS (Public Land Survey System)", "pulldate": "2026-07-28", "srcurl": "https://gis.blm.gov/arcgis/rest/services/Cadastral/BLM_Natl_PLSS_CadNSDI/MapServer/2", "caveat": "Section/township grid pulled to georeference the Mid-Valley Metro CAD PDF. No longer needed - MVMD's real boundary was found via Colorado DOLA instead. Kept for reference only."}, "geometry": {"type": "Polygon", "coordinates": [[[-107.08609, 39.40994], [-107.08595, 39.39533], [-107.1049, 39.39581], [-107.10469, 39.41027], [-107.08609, 39.40994]]]}}, {"id": "67", "type": "Feature", "properties": {"section": "14", "plss_township": "CO060070S0870W0", "source": "BLM Cadastral PLSS (Public Land Survey System)", "pulldate": "2026-07-28", "srcurl": "https://gis.blm.gov/arcgis/rest/services/Cadastral/BLM_Natl_PLSS_CadNSDI/MapServer/2", "caveat": "Section/township grid pulled to georeference the Mid-Valley Metro CAD PDF. No longer needed - MVMD's real boundary was found via Colorado DOLA instead. Kept for reference only."}, "geometry": {"type": "Polygon", "coordinates": [[[-107.08595, 39.44644], [-107.08589, 39.45379], [-107.06704, 39.45379], [-107.06721, 39.43899], [-107.08602, 39.43909], [-107.08595, 39.44644]]]}}, {"id": "68", "type": "Feature", "properties": {"section": "32", "plss_township": "CO060070S0870W0", "source": "BLM Cadastral PLSS (Public Land Survey System)", "pulldate": "2026-07-28", "srcurl": "https://gis.blm.gov/arcgis/rest/services/Cadastral/BLM_Natl_PLSS_CadNSDI/MapServer/2", "caveat": "Section/township grid pulled to georeference the Mid-Valley Metro CAD PDF. No longer needed - MVMD's real boundary was found via Colorado DOLA instead. Kept for reference only."}, "geometry": {"type": "Polygon", "coordinates": [[[-107.13343, 39.41026], [-107.12412, 39.41025], [-107.12438, 39.39558], [-107.14305, 39.39563], [-107.14297, 39.41024], [-107.13343, 39.41026]]]}}, {"id": "69", "type": "Feature", "properties": {"section": "22", "plss_township": "CO060070S0870W0", "source": "BLM Cadastral PLSS (Public Land Survey System)", "pulldate": "2026-07-28", "srcurl": "https://gis.blm.gov/arcgis/rest/services/Cadastral/BLM_Natl_PLSS_CadNSDI/MapServer/2", "caveat": "Section/township grid pulled to georeference the Mid-Valley Metro CAD PDF. No longer needed - MVMD's real boundary was found via Colorado DOLA instead. Kept for reference only."}, "geometry": {"type": "Polygon", "coordinates": [[[-107.10453, 39.43568], [-107.10454, 39.43935], [-107.08602, 39.43909], [-107.0861, 39.42447], [-107.1045, 39.42464], [-107.10453, 39.43568]]]}}, {"id": "70", "type": "Feature", "properties": {"section": "03", "plss_township": "CO060070S0870W0", "source": "BLM Cadastral PLSS (Public Land Survey System)", "pulldate": "2026-07-28", "srcurl": "https://gis.blm.gov/arcgis/rest/services/Cadastral/BLM_Natl_PLSS_CadNSDI/MapServer/2", "caveat": "Section/township grid pulled to georeference the Mid-Valley Metro CAD PDF. No longer needed - MVMD's real boundary was found via Colorado DOLA instead. Kept for reference only."}, "geometry": {"type": "Polygon", "coordinates": [[[-107.10476, 39.47601], [-107.10482, 39.48334], [-107.08615, 39.48322], [-107.08587, 39.46846], [-107.10464, 39.46865], [-107.10476, 39.47601]]]}}, {"id": "71", "type": "Feature", "properties": {"section": "16", "plss_township": "CO060070S0870W0", "source": "BLM Cadastral PLSS (Public Land Survey System)", "pulldate": "2026-07-28", "srcurl": "https://gis.blm.gov/arcgis/rest/services/Cadastral/BLM_Natl_PLSS_CadNSDI/MapServer/2", "caveat": "Section/township grid pulled to georeference the Mid-Valley Metro CAD PDF. No longer needed - MVMD's real boundary was found via Colorado DOLA instead. Kept for reference only."}, "geometry": {"type": "Polygon", "coordinates": [[[-107.12335, 39.45068], [-107.12336, 39.45434], [-107.10444, 39.45389], [-107.10454, 39.43935], [-107.12334, 39.43972], [-107.12335, 39.45068]]]}}, {"id": "72", "type": "Feature", "properties": {"section": "32", "plss_township": "CO060070S0860W0", "source": "BLM Cadastral PLSS (Public Land Survey System)", "pulldate": "2026-07-28", "srcurl": "https://gis.blm.gov/arcgis/rest/services/Cadastral/BLM_Natl_PLSS_CadNSDI/MapServer/2", "caveat": "Section/township grid pulled to georeference the Mid-Valley Metro CAD PDF. No longer needed - MVMD's real boundary was found via Colorado DOLA instead. Kept for reference only."}, "geometry": {"type": "Polygon", "coordinates": [[[-107.01972, 39.39475], [-107.03063, 39.39475], [-107.03063, 39.40924], [-107.012, 39.40922], [-107.01201, 39.39475], [-107.01972, 39.39475]]]}}, {"id": "73", "type": "Feature", "properties": {"section": "16", "plss_township": "CO060070S0860W0", "source": "BLM Cadastral PLSS (Public Land Survey System)", "pulldate": "2026-07-28", "srcurl": "https://gis.blm.gov/arcgis/rest/services/Cadastral/BLM_Natl_PLSS_CadNSDI/MapServer/2", "caveat": "Section/township grid pulled to georeference the Mid-Valley Metro CAD PDF. No longer needed - MVMD's real boundary was found via Colorado DOLA instead. Kept for reference only."}, "geometry": {"type": "Polygon", "coordinates": [[[-107.01181, 39.43826], [-107.01181, 39.45277], [-106.99307, 39.45264], [-106.99308, 39.43829], [-107.01181, 39.43826]]]}}, {"id": "74", "type": "Feature", "properties": {"section": "21", "plss_township": "CO060070S0860W0", "source": "BLM Cadastral PLSS (Public Land Survey System)", "pulldate": "2026-07-28", "srcurl": "https://gis.blm.gov/arcgis/rest/services/Cadastral/BLM_Natl_PLSS_CadNSDI/MapServer/2", "caveat": "Section/township grid pulled to georeference the Mid-Valley Metro CAD PDF. No longer needed - MVMD's real boundary was found via Colorado DOLA instead. Kept for reference only."}, "geometry": {"type": "Polygon", "coordinates": [[[-106.99316, 39.42373], [-107.01183, 39.42374], [-107.01181, 39.43826], [-106.99308, 39.43829], [-106.99316, 39.42373]]]}}, {"id": "75", "type": "Feature", "properties": {"section": "29", "plss_township": "CO060070S0860W0", "source": "BLM Cadastral PLSS (Public Land Survey System)", "pulldate": "2026-07-28", "srcurl": "https://gis.blm.gov/arcgis/rest/services/Cadastral/BLM_Natl_PLSS_CadNSDI/MapServer/2", "caveat": "Section/township grid pulled to georeference the Mid-Valley Metro CAD PDF. No longer needed - MVMD's real boundary was found via Colorado DOLA instead. Kept for reference only."}, "geometry": {"type": "Polygon", "coordinates": [[[-107.01186, 39.40922], [-107.03049, 39.40924], [-107.03049, 39.42374], [-107.01183, 39.42374], [-107.01186, 39.40922]]]}}, {"id": "76", "type": "Feature", "properties": {"section": "18", "plss_township": "CO060070S0860W0", "source": "BLM Cadastral PLSS (Public Land Survey System)", "pulldate": "2026-07-28", "srcurl": "https://gis.blm.gov/arcgis/rest/services/Cadastral/BLM_Natl_PLSS_CadNSDI/MapServer/2", "caveat": "Section/township grid pulled to georeference the Mid-Valley Metro CAD PDF. No longer needed - MVMD's real boundary was found via Colorado DOLA instead. Kept for reference only."}, "geometry": {"type": "Polygon", "coordinates": [[[-107.0305, 39.43825], [-107.04884, 39.43825], [-107.04884, 39.45275], [-107.03051, 39.45276], [-107.0305, 39.43825]]]}}, {"id": "77", "type": "Feature", "properties": {"section": "20", "plss_township": "CO060070S0860W0", "source": "BLM Cadastral PLSS (Public Land Survey System)", "pulldate": "2026-07-28", "srcurl": "https://gis.blm.gov/arcgis/rest/services/Cadastral/BLM_Natl_PLSS_CadNSDI/MapServer/2", "caveat": "Section/township grid pulled to georeference the Mid-Valley Metro CAD PDF. No longer needed - MVMD's real boundary was found via Colorado DOLA instead. Kept for reference only."}, "geometry": {"type": "Polygon", "coordinates": [[[-107.01183, 39.42374], [-107.03049, 39.42374], [-107.0305, 39.43825], [-107.01181, 39.43826], [-107.01183, 39.42374]]]}}, {"id": "78", "type": "Feature", "properties": {"section": "07", "plss_township": "CO060070S0860W0", "source": "BLM Cadastral PLSS (Public Land Survey System)", "pulldate": "2026-07-28", "srcurl": "https://gis.blm.gov/arcgis/rest/services/Cadastral/BLM_Natl_PLSS_CadNSDI/MapServer/2", "caveat": "Section/township grid pulled to georeference the Mid-Valley Metro CAD PDF. No longer needed - MVMD's real boundary was found via Colorado DOLA instead. Kept for reference only."}, "geometry": {"type": "Polygon", "coordinates": [[[-107.03051, 39.45276], [-107.04884, 39.45275], [-107.04884, 39.46725], [-107.03053, 39.46725], [-107.03051, 39.45276]]]}}, {"id": "79", "type": "Feature", "properties": {"section": "17", "plss_township": "CO060070S0860W0", "source": "BLM Cadastral PLSS (Public Land Survey System)", "pulldate": "2026-07-28", "srcurl": "https://gis.blm.gov/arcgis/rest/services/Cadastral/BLM_Natl_PLSS_CadNSDI/MapServer/2", "caveat": "Section/township grid pulled to georeference the Mid-Valley Metro CAD PDF. No longer needed - MVMD's real boundary was found via Colorado DOLA instead. Kept for reference only."}, "geometry": {"type": "Polygon", "coordinates": [[[-107.0305, 39.43825], [-107.03051, 39.45276], [-107.01181, 39.45277], [-107.01181, 39.43826], [-107.0305, 39.43825]]]}}, {"id": "80", "type": "Feature", "properties": {"section": "30", "plss_township": "CO060070S0860W0", "source": "BLM Cadastral PLSS (Public Land Survey System)", "pulldate": "2026-07-28", "srcurl": "https://gis.blm.gov/arcgis/rest/services/Cadastral/BLM_Natl_PLSS_CadNSDI/MapServer/2", "caveat": "Section/township grid pulled to georeference the Mid-Valley Metro CAD PDF. No longer needed - MVMD's real boundary was found via Colorado DOLA instead. Kept for reference only."}, "geometry": {"type": "Polygon", "coordinates": [[[-107.04882, 39.40924], [-107.04883, 39.42374], [-107.03049, 39.42374], [-107.03049, 39.40924], [-107.04882, 39.40924]]]}}, {"id": "81", "type": "Feature", "properties": {"section": "19", "plss_township": "CO060070S0860W0", "source": "BLM Cadastral PLSS (Public Land Survey System)", "pulldate": "2026-07-28", "srcurl": "https://gis.blm.gov/arcgis/rest/services/Cadastral/BLM_Natl_PLSS_CadNSDI/MapServer/2", "caveat": "Section/township grid pulled to georeference the Mid-Valley Metro CAD PDF. No longer needed - MVMD's real boundary was found via Colorado DOLA instead. Kept for reference only."}, "geometry": {"type": "Polygon", "coordinates": [[[-107.04883, 39.42374], [-107.04884, 39.43825], [-107.0305, 39.43825], [-107.03049, 39.42374], [-107.04883, 39.42374]]]}}, {"id": "82", "type": "Feature", "properties": {"section": "33", "plss_township": "CO060070S0860W0", "source": "BLM Cadastral PLSS (Public Land Survey System)", "pulldate": "2026-07-28", "srcurl": "https://gis.blm.gov/arcgis/rest/services/Cadastral/BLM_Natl_PLSS_CadNSDI/MapServer/2", "caveat": "Section/township grid pulled to georeference the Mid-Valley Metro CAD PDF. No longer needed - MVMD's real boundary was found via Colorado DOLA instead. Kept for reference only."}, "geometry": {"type": "Polygon", "coordinates": [[[-107.00146, 39.39474], [-107.01201, 39.39475], [-107.012, 39.40922], [-106.99341, 39.40918], [-106.99339, 39.39473], [-107.00146, 39.39474]]]}}, {"id": "83", "type": "Feature", "properties": {"section": "28", "plss_township": "CO060070S0860W0", "source": "BLM Cadastral PLSS (Public Land Survey System)", "pulldate": "2026-07-28", "srcurl": "https://gis.blm.gov/arcgis/rest/services/Cadastral/BLM_Natl_PLSS_CadNSDI/MapServer/2", "caveat": "Section/township grid pulled to georeference the Mid-Valley Metro CAD PDF. No longer needed - MVMD's real boundary was found via Colorado DOLA instead. Kept for reference only."}, "geometry": {"type": "Polygon", "coordinates": [[[-106.99327, 39.40918], [-107.01186, 39.40922], [-107.01183, 39.42374], [-106.99316, 39.42373], [-106.99327, 39.40918]]]}}, {"id": "84", "type": "Feature", "properties": {"section": "31", "plss_township": "CO060070S0860W0", "source": "BLM Cadastral PLSS (Public Land Survey System)", "pulldate": "2026-07-28", "srcurl": "https://gis.blm.gov/arcgis/rest/services/Cadastral/BLM_Natl_PLSS_CadNSDI/MapServer/2", "caveat": "Section/township grid pulled to georeference the Mid-Valley Metro CAD PDF. No longer needed - MVMD's real boundary was found via Colorado DOLA instead. Kept for reference only."}, "geometry": {"type": "Polygon", "coordinates": [[[-107.04883, 39.39897], [-107.04882, 39.40924], [-107.03063, 39.40924], [-107.03063, 39.39475], [-107.04883, 39.39474], [-107.04883, 39.39897]]]}}]}