{"type": "FeatureCollection", "features": [{"id": "0", "type": "Feature", "properties": {"extent_id": "state_colorado", "label": "Colorado", "areasqkm": 269621.2, "source": "US Census cartographic boundary 1:500k, counties dissolved", "pulldate": "2026-08-27", "caveat": "Statewide agencies (CWCB; DWR is statewide with local District 38).", "label_lon": -105.566375, "label_lat": 38.819087}, "geometry": {"type": "Polygon", "coordinates": [[[-105.029228, 36.992729000000026], [-106.86979600000001, 36.99242599999997], [-106.877292, 37.00013899999997], [-108.249358, 36.99901500000002], [-109.045223, 36.999084000000046], [-109.041762, 38.16469], [-109.060062, 38.27548900000002], [-109.059541, 38.719888000000005], [-109.05151200000002, 39.12609499999998], [-109.050076, 41.00065900000001], [-108.181227, 41.000454999999974], [-106.439563, 41.001978000000044], [-106.217573, 40.99773399999999], [-105.730421, 40.996886000000025], [-104.855273, 40.99804799999997], [-103.90632400000001, 41.001387000000015], [-102.865784, 41.00198799999998], [-102.05161400000001, 41.00237700000001], [-102.042089, 36.99301600000001], [-102.698142, 36.995149], [-102.812469, 36.99972500000002], [-104.33883300000001, 36.99353499999998], [-105.029228, 36.992729000000026]]]}}, {"id": "1", "type": "Feature", "properties": {"extent_id": "cbrt_basin", "label": "Colorado River Basin", "areasqkm": 25419.1, "source": "USGS WBD HUC-4 1401, clipped to Colorado", "pulldate": "2026-08-27", "caveat": "Colorado Basin Roundtable. HUC-4 1401 approximation confirmed against the roundtable's published map by Chris, 8/27/26.", "label_lon": -107.471805, "label_lat": 39.634165}, "geometry": {"type": "Polygon", "coordinates": [[[-109.05132294616573, 39.49766906519126], [-109.04163871663579, 39.51171402705618], [-109.03703259603331, 39.51534019503551], [-109.02689565063446, 39.51488190310945], [-109.01980450788511, 39.528835831571826], [-109.00853215035761, 39.53456939802874], [-109.00736940878309, 39.54824154026728], [-108.99323678035665, 39.56252358055651], [-108.99502887443272, 39.569332742459004], [-108.98798916921655, 39.57428652712447], [-108.97573838374956, 39.5707009836134], [-108.97340582187609, 39.57474360431293], [-108.95339453378877, 39.58242996624461], [-108.94165845243688, 39.601445191901455], [-108.92122051669185, 39.592963513620305], [-108.9132524008329, 39.61063309722025], [-108.91562872503377, 39.61314060467246], [-108.90662404496513, 39.621551967740906], [-108.90066932854235, 39.62249026414944], [-108.89793102460449, 39.61877250472434], [-108.88902166566895, 39.6235028852553], [-108.88524670140164, 39.62164516620622], [-108.87994303628608, 39.628503073943165], [-108.87284819607103, 39.6168729044118], [-108.86400035466446, 39.62070849620148], [-108.85775665829964, 39.616907164392], [-108.85285784861128, 39.62106870099769], [-108.84920445694462, 39.61343276079153], [-108.83458015541038, 39.60951771570024], [-108.82496903167656, 39.61879464311459], [-108.8211789936788, 39.60538213640581], [-108.81101644449771, 39.597314808519336], [-108.79242846601116, 39.59888377723545], [-108.78807544394333, 39.60266887212289], [-108.78381661472464, 39.600907985690945], [-108.77169015519468, 39.60675652663149], [-108.75748175836564, 39.59781548482481], [-108.7470293255373, 39.60111428695141], [-108.73664060392387, 39.59371383183171], [-108.71663684192197, 39.604450153453215], [-108.68028669990134, 39.600842561808854], [-108.67238057049194, 39.604262741123065], [-108.65478826670002, 39.62437401131174], [-108.65714443090926, 39.64777718502356], [-108.65253765184168, 39.65911094512824], [-108.6373771072868, 39.654641610220786], [-108.62930496831456, 39.65647366597853], [-108.62168849258367, 39.665260709310964], [-108.59980597153871, 39.67527990628857], [-108.59230673313894, 39.6711481449634], [-108.56511292656987, 39.6912515272344], [-108.55878026375427, 39.68413332053709], [-108.53951265226308, 39.69775074047607], [-108.52743269222717, 39.69019226199349], [-108.50891227154156, 39.69186454800837], [-108.49541398396143, 39.68818113290352], [-108.48798499291857, 39.69566555039718], [-108.47367882614893, 39.69850550168147], [-108.47267587779547, 39.695509405224925], [-108.46687845278568, 39.69618919146636], [-108.46128772652955, 39.687197265391866], [-108.45556896429424, 39.68762281695636], [-108.44627546418364, 39.68058889709769], [-108.4105483954407, 39.681315420385985], [-108.40226496732376, 39.66958781419055], [-108.39528152359382, 39.673352889612936], [-108.38760537996517, 39.665976091887586], [-108.38113280903562, 39.66752664083761], [-108.38071203366495, 39.663573523867264], [-108.37578107417092, 39.66581949786198], [-108.37433196405685, 39.66193123034625], [-108.36702857186374, 39.663594381041676], [-108.35177294333097, 39.657110073918936], [-108.34708378156533, 39.65888816983653], [-108.33836063530333, 39.64703390275169], [-108.3171021307671, 39.64920806056501], [-108.31222175540668, 39.64497531051925], [-108.31125300322115, 39.63173412060661], [-108.30386125812659, 39.63425049723219], [-108.30120947991688, 39.625802044385566], [-108.29329090165427, 39.62327531224046], [-108.27776530692076, 39.63343110395208], [-108.27771705481358, 39.64155282697776], [-108.2703893371409, 39.64943924732341], [-108.25384417162786, 39.65180882829281], [-108.24643039445266, 39.656402821988905], [-108.2377432257178, 39.65260804940692], [-108.22576101945279, 39.65947532068667], [-108.22515785823168, 39.652277178787955], [-108.2146263529971, 39.657612965124166], [-108.21132986199282, 39.64907933894215], [-108.20294860913808, 39.64684070832648], [-108.2007415886222, 39.649296760498096], [-108.19798539024387, 39.64617800555434], [-108.178307804725, 39.65331755960755], [-108.171713054832, 39.65103819850775], [-108.1656350572129, 39.655529401302914], [-108.15811877956881, 39.655412470947645], [-108.15453339575906, 39.65122217670482], [-108.14944138001266, 39.653355334389744], [-108.13966671348979, 39.670804058109994], [-108.12861285768045, 39.67021088546275], [-108.12272138804357, 39.67704781438572], [-108.10539891480678, 39.66502284565688], [-108.08833318456976, 39.67629916770853], [-108.07324520772015, 39.677937704975584], [-108.0690780102537, 39.667701473799724], [-108.05533685594999, 39.663694924967444], [-108.05486814467915, 39.65725790516424], [-108.05072651685896, 39.65794602258187], [-108.04672890514848, 39.65307245425361], [-108.03975725450158, 39.660518346262634], [-108.0327701052211, 39.65749435289163], [-108.0206955826876, 39.665286874705444], [-108.01932592676378, 39.65933001841656], [-108.01042268176207, 39.65880986276224], [-108.0089355010463, 39.65289165904329], [-108.00468977016276, 39.653530781407284], [-107.99564636551881, 39.6443936000065], [-107.98918701329869, 39.64945729989432], [-107.98061806555015, 39.64484490083937], [-107.9749017260712, 39.647891165115645], [-107.95128581495564, 39.648223657277384], [-107.94234197688287, 39.65389779035122], [-107.92618227306839, 39.65711553266015], [-107.93998578123258, 39.67471119913394], [-107.93819640545858, 39.680841788382935], [-107.94671104645491, 39.699404886115744], [-107.92383596607274, 39.707810425449225], [-107.90606414924261, 39.72971921920168], [-107.90359125435208, 39.74032970996464], [-107.8863896170974, 39.74928218894841], [-107.88098135035355, 39.757798423559976], [-107.86880241124469, 39.76516661919296], [-107.85256405094393, 39.76791399987185], [-107.84823206382681, 39.78024981310896], [-107.82809946275192, 39.777688858024554], [-107.82647514791981, 39.773097498237625], [-107.81291306827643, 39.77627715251823], [-107.81484514951813, 39.792396949546976], [-107.80805711631196, 39.79603482337387], [-107.79247289392971, 39.78782150535382], [-107.78540389914369, 39.79275692452425], [-107.77685104381517, 39.78952881505262], [-107.76653706383001, 39.79289656138411], [-107.75871110456815, 39.78948578179157], [-107.74909327491073, 39.791445003802885], [-107.7438694197183, 39.787014187681386], [-107.74109976547534, 39.802732121299165], [-107.73419194372264, 39.80325905753388], [-107.72155834119734, 39.81222089476062], [-107.71653230401363, 39.8092464409], [-107.70150332941019, 39.814618956372065], [-107.6994977291473, 39.82338987928341], [-107.693956265603, 39.8239562668968], [-107.69302244171233, 39.811569795123724], [-107.68082978443078, 39.80559154819694], [-107.66520453778612, 39.81415295722441], [-107.64985766736997, 39.804353134477324], [-107.64032613257368, 39.81410259066577], [-107.63249900460363, 39.802346934679086], [-107.6268409603967, 39.80813742639126], [-107.61510478202678, 39.79955962283795], [-107.6105320922276, 39.80661227725953], [-107.59664977486352, 39.808817064742215], [-107.5925926928846, 39.81430727422932], [-107.58571457392678, 39.81210322452133], [-107.5818450206533, 39.828016112241], [-107.57497436579717, 39.82797211446687], [-107.56935459700789, 39.842259317262425], [-107.55056668318348, 39.84095000344573], [-107.54491977000126, 39.83205286400868], [-107.5238239512613, 39.83398206078498], [-107.51152868661134, 39.83066852246162], [-107.50481636701058, 39.83390367653155], [-107.50339595088333, 39.840428040977834], [-107.48866332061066, 39.84042165384696], [-107.48480626649604, 39.82966503503455], [-107.46901556904072, 39.81197969839647], [-107.42039304515535, 39.806777607132624], [-107.41759556379985, 39.79442797475762], [-107.42807911337128, 39.768895851038955], [-107.4273115963858, 39.75520342036799], [-107.4198108344433, 39.74494149098231], [-107.4100063546328, 39.7424248111946], [-107.40161581229968, 39.74942152655764], [-107.36600502687702, 39.75528542061179], [-107.35561983743929, 39.77170828853153], [-107.3466077974735, 39.773309371085894], [-107.33906376907368, 39.782286482173326], [-107.32941455497516, 39.775332591341645], [-107.30501826030434, 39.778499771514504], [-107.29026598207976, 39.774478958285144], [-107.2821297474137, 39.77620376860404], [-107.26659333247258, 39.78393266247916], [-107.26197155333638, 39.79822539968555], [-107.28497889357615, 39.79838262220025], [-107.29127498417992, 39.81157726623731], [-107.28222132796198, 39.81929943169907], [-107.28354237963902, 39.822265152658524], [-107.2888200043911, 39.82719734585915], [-107.30337514463163, 39.828580746691806], [-107.30420029213585, 39.83973500415126], [-107.27567973946914, 39.85012969317264], [-107.28714538210643, 39.86216243357161], [-107.2869125863955, 39.8718682615174], [-107.28228613781646, 39.875178050156656], [-107.27781413658423, 39.87259441483629], [-107.25673440936595, 39.87441024571155], [-107.25870901685323, 39.886267956011814], [-107.24496246457298, 39.89296419373712], [-107.23451636396909, 39.90455213346151], [-107.22595057829035, 39.901134958584706], [-107.2201119188124, 39.90485037014524], [-107.20955639711873, 39.899109197247185], [-107.1808669611786, 39.90884972387218], [-107.17454893191896, 39.919509834244124], [-107.18492125927845, 39.92801952863883], [-107.17209858564037, 39.95040794397498], [-107.17111962320331, 39.97008522776938], [-107.15577958986474, 39.97573281776592], [-107.13722123601961, 39.97488089398495], [-107.12877038888318, 40.00246409751573], [-107.08340921660314, 40.014949034418756], [-107.06507981188292, 40.009073000377256], [-107.0634161481464, 39.99856616640279], [-107.05690126926191, 39.99547187131872], [-107.0438777619707, 40.02302755424809], [-107.02063344256571, 40.03009070422255], [-107.01297757840459, 40.047052053340614], [-106.99796321040769, 40.054005729653], [-106.99392716248113, 40.064877019449874], [-106.9860255453094, 40.07114032872862], [-106.96734353028059, 40.06907504767159], [-106.94425103065018, 40.07853953708688], [-106.92060884560922, 40.06965430599476], [-106.85997930578736, 40.06311389948263], [-106.84698087676394, 40.05887775298524], [-106.83645717878751, 40.05840494129224], [-106.82333005442153, 40.06301433240902], [-106.81811550038553, 40.0808958889918], [-106.79813511524229, 40.096021605890165], [-106.80299366962612, 40.10897990352495], [-106.80070312734838, 40.123112672623265], [-106.78575428426488, 40.137808972742526], [-106.76200804556797, 40.13481563028535], [-106.75952486856069, 40.129813140549054], [-106.74760555963691, 40.12972938043117], [-106.74944883881955, 40.12532497280168], [-106.74121051870628, 40.11943258698546], [-106.71724737908903, 40.118769677011066], [-106.70897418098656, 40.10193460676656], [-106.69422332479508, 40.10345536042904], [-106.68680335193935, 40.1079002695695], [-106.68419238598965, 40.11843472987212], [-106.66215028192937, 40.130752951529125], [-106.65958197068431, 40.136976590117165], [-106.66594058762512, 40.14043742728496], [-106.66545791833138, 40.14675147839937], [-106.67466660400444, 40.14831141754917], [-106.68059112176229, 40.156012229679966], [-106.66929741667039, 40.16589302867351], [-106.6583462850104, 40.15986759633746], [-106.64717108477247, 40.16294097644853], [-106.63639148282272, 40.17293936946459], [-106.62592964193843, 40.17183590728007], [-106.64008006149905, 40.18929970454792], [-106.63297344167569, 40.195666690977205], [-106.61804963913076, 40.196933128989016], [-106.61765068114339, 40.2006506916214], [-106.62304126904249, 40.20564824357861], [-106.63935761299136, 40.209507530186194], [-106.63714062566739, 40.21445328915921], [-106.64542413373438, 40.2224166270237], [-106.65724735975367, 40.22347055159934], [-106.65464339347665, 40.22803589154288], [-106.64600465741034, 40.23097402433684], [-106.63411549774415, 40.224675806199485], [-106.60963924762315, 40.22423904883774], [-106.60768239174418, 40.23013861082678], [-106.59969921742614, 40.228884599198025], [-106.59150678774917, 40.235762541910965], [-106.58962734508815, 40.242805180342295], [-106.59608737373968, 40.25270904496561], [-106.60986905104586, 40.25558180172726], [-106.61579593137292, 40.27729640209458], [-106.62457297206038, 40.27785485462389], [-106.64308835768882, 40.28892282264346], [-106.65227540653994, 40.289838034251275], [-106.66331167243773, 40.300965234687034], [-106.67630031341781, 40.29818048796872], [-106.68768955164522, 40.31564591497553], [-106.68700398616649, 40.321461190941015], [-106.67541470929496, 40.323984502552854], [-106.66759758406559, 40.33263091565694], [-106.65385380129136, 40.3365946108682], [-106.64449642916743, 40.35003910809176], [-106.65451112912747, 40.36819668488579], [-106.63378490963474, 40.384628259326476], [-106.64196215778341, 40.39209268639653], [-106.64099164939151, 40.402319815226555], [-106.65617775460947, 40.4087645783514], [-106.64438799083453, 40.412047433728176], [-106.6511604355756, 40.42139202498128], [-106.64444343305725, 40.432006568040165], [-106.62241582061915, 40.430482990834406], [-106.62878846744805, 40.41850771009719], [-106.61951697875686, 40.40554818407386], [-106.61001662178914, 40.37824513697905], [-106.60060438056766, 40.37605629585851], [-106.594416153375, 40.38306749122148], [-106.57715946286815, 40.37842997497427], [-106.56120095472785, 40.37856401067144], [-106.55349845003715, 40.37001290625401], [-106.54004634574412, 40.37129354661219], [-106.53467962967541, 40.36512233976835], [-106.53009586275047, 40.36834527192683], [-106.52616205747628, 40.38488836295827], [-106.51881172112306, 40.390962472816675], [-106.51222945960913, 40.38691570621852], [-106.51038734104985, 40.393323882950156], [-106.48965994566242, 40.41155639926207], [-106.47758604386478, 40.4047026032285], [-106.48108912492653, 40.38967835011495], [-106.47391779945322, 40.38684262446678], [-106.47319216731617, 40.37979561124461], [-106.4660182385252, 40.37790912557405], [-106.46320758696929, 40.36776886821018], [-106.45735494521395, 40.36525033219443], [-106.4582228651021, 40.358914761391354], [-106.44334230116677, 40.34645267109425], [-106.43809810901462, 40.35046595561205], [-106.42190009384986, 40.35274515678117], [-106.40345764423597, 40.34514757727431], [-106.38960075368601, 40.34547204303927], [-106.38499347695175, 40.35269279928674], [-106.35585384401881, 40.35896850431125], [-106.3370663883352, 40.339623824935764], [-106.32194104246808, 40.33758991517638], [-106.30600024102031, 40.32845144382453], [-106.29579387022305, 40.33324225249739], [-106.29859460078495, 40.34986306341588], [-106.29107521946158, 40.35819590054071], [-106.28574032800843, 40.3588238072613], [-106.27855912466028, 40.353713122678336], [-106.26584099964991, 40.361043326666916], [-106.25340400420433, 40.350149755179665], [-106.25088340967052, 40.34064862749819], [-106.23926974623397, 40.32802909126106], [-106.23052483648759, 40.32321951593213], [-106.21740249924378, 40.32912495854367], [-106.18914423038552, 40.32651780765218], [-106.17119511037284, 40.34387403252099], [-106.16257788716094, 40.34279635028436], [-106.14856712328765, 40.3320519878907], [-106.13630097034111, 40.33017695072787], [-106.13382866115212, 40.33635289668514], [-106.10069450222171, 40.35415500126195], [-106.08586719580629, 40.34730746385535], [-106.01935295784816, 40.37328731168243], [-106.01385329201574, 40.372919120125594], [-106.0112632361509, 40.36216714192263], [-105.98582673999177, 40.36423531482421], [-105.97061619969973, 40.35012511134817], [-105.9596628968117, 40.34815273013853], [-105.95426754155342, 40.36037262285171], [-105.93845780071236, 40.36606872603401], [-105.93770708940922, 40.37192603854789], [-105.9472550822398, 40.37785397572489], [-105.94645495281624, 40.38495866191541], [-105.93865666974996, 40.38519337100253], [-105.9251937093167, 40.39257215248505], [-105.92063758175641, 40.40159088178315], [-105.90335015808706, 40.40051063806823], [-105.89772099022495, 40.41787886999047], [-105.90350291210956, 40.431734763049604], [-105.89712176901466, 40.44860426572363], [-105.89915282663442, 40.46557941162443], [-105.89210293182798, 40.476085600836996], [-105.86283895229674, 40.48010214610719], [-105.85501947976954, 40.4862205125816], [-105.80741418026416, 40.47388249211799], [-105.81128323587097, 40.470791255041284], [-105.80448680970508, 40.46424098923447], [-105.80572565834711, 40.447707432511656], [-105.81611709107607, 40.43733049279419], [-105.81751278736333, 40.42517979220888], [-105.79123430118672, 40.39911639498501], [-105.78724787080655, 40.38098050057421], [-105.75876172092028, 40.352731274837], [-105.73681377018329, 40.346647497595356], [-105.7286804954661, 40.33488552980231], [-105.69881840953387, 40.32073666671275], [-105.70264227988189, 40.312586945493806], [-105.69051221900594, 40.3088663323206], [-105.69121532948051, 40.304904212813575], [-105.6860575911913, 40.30272140168927], [-105.68773229073108, 40.29394518869972], [-105.68212903387501, 40.2920990527311], [-105.68682318937533, 40.28809168896789], [-105.68065621272905, 40.28436048294221], [-105.6825898229034, 40.27262813970356], [-105.67788150636092, 40.267952516240676], [-105.66791804899964, 40.267688662562435], [-105.65445262628418, 40.261389122244395], [-105.6436827324277, 40.249910821178815], [-105.6599612123874, 40.24893390440661], [-105.66881282222658, 40.22882542101906], [-105.66878890278552, 40.22339149014609], [-105.66288166412214, 40.21992492426476], [-105.67053929437114, 40.219241195361775], [-105.67071166759942, 40.20761523904981], [-105.67781428273328, 40.202398600522635], [-105.6777223500454, 40.189452722392964], [-105.67048844164121, 40.18495560049306], [-105.66695465436642, 40.1700611111294], [-105.67156986861454, 40.165598419873206], [-105.66766749359553, 40.158321831454344], [-105.65589546076767, 40.15124234058491], [-105.63572767986962, 40.146041213235804], [-105.63545252949135, 40.14035127944294], [-105.6296731085165, 40.137399580282406], [-105.62642064753757, 40.11872157325058], [-105.63672855670804, 40.10719009028114], [-105.63208869807843, 40.09720513870544], [-105.6360553044369, 40.08421795389331], [-105.63296809035111, 40.08141085721906], [-105.64101420962112, 40.072893357318925], [-105.63908074677047, 40.067212001747784], [-105.64673252269876, 40.06531303848563], [-105.65112683313365, 40.058518027019275], [-105.63765501441338, 40.04590439660977], [-105.64078989400647, 40.0348724879649], [-105.6514901208177, 40.02619463618489], [-105.65195257083101, 40.02095584332225], [-105.66188202875544, 40.01641275601855], [-105.68971769596806, 40.013680807703615], [-105.69121205332468, 39.997032853996735], [-105.6831007271448, 39.99284953970844], [-105.69032215166149, 39.969783400626], [-105.68534592426364, 39.95874338640789], [-105.69427244371607, 39.950496614357824], [-105.69380901992899, 39.942282333344316], [-105.67517282347123, 39.9332742289309], [-105.68791602854601, 39.9117827161506], [-105.69109641589311, 39.89738389195053], [-105.69964300996409, 39.8916265635106], [-105.70063785102211, 39.87864304071203], [-105.69036582864894, 39.852024554011635], [-105.69583706010766, 39.839222809206674], [-105.713345914003, 39.83806968494184], [-105.72382336940356, 39.824536399839076], [-105.72367260874267, 39.81801915407435], [-105.73353143213632, 39.81275397477922], [-105.7360465173025, 39.80491659418165], [-105.76393089386477, 39.79495324012211], [-105.78454870287237, 39.802364365474126], [-105.79904659347984, 39.803314636289635], [-105.81073124358676, 39.79140834134057], [-105.82309548447749, 39.785667475162604], [-105.85154211477946, 39.787737327356524], [-105.85504240387726, 39.796119865701044], [-105.87585825008253, 39.799385387638864], [-105.88761707587908, 39.79705378868645], [-105.89246347515882, 39.78216800547538], [-105.88047932404122, 39.75945492103077], [-105.8847383517876, 39.752277497646], [-105.88341048549081, 39.73731294883444], [-105.89098537820716, 39.7305541349563], [-105.90749417273098, 39.726990775788316], [-105.91180588846538, 39.71538027713177], [-105.92444555012729, 39.70406890440093], [-105.91958597885052, 39.690095886234886], [-105.92654561992038, 39.67330002975595], [-105.91104544032287, 39.66233590785431], [-105.89687694935367, 39.664534014385254], [-105.89400485932057, 39.6594409780502], [-105.88497881821273, 39.657091632596455], [-105.87953173526546, 39.663539650048975], [-105.86496136588593, 39.66719062225344], [-105.84878647515325, 39.64417489856394], [-105.84124610559154, 39.646295219909405], [-105.8345434976773, 39.64191390623085], [-105.82111430132232, 39.642639404323766], [-105.81740382171937, 39.633659199102574], [-105.79296718909902, 39.63626319987074], [-105.78272452905921, 39.62921755281749], [-105.7827917841279, 39.617954653250905], [-105.7761050952588, 39.60516581569352], [-105.80098069143939, 39.59354995944056], [-105.80780189583577, 39.583737086518475], [-105.82134517374024, 39.58270959809555], [-105.83851137874514, 39.57259366448183], [-105.83020804485982, 39.5661410038674], [-105.82570302515099, 39.5555989435374], [-105.8159178824753, 39.55217864012972], [-105.82310327556594, 39.52991056513445], [-105.83100671811432, 39.5319614753474], [-105.84683043314794, 39.5238049924865], [-105.8601950630919, 39.53118306014603], [-105.8681025633304, 39.51925301752976], [-105.85593077211627, 39.50513796949702], [-105.86372592635043, 39.50245356700627], [-105.86660634017296, 39.49415034277266], [-105.87531223788316, 39.49294458272219], [-105.87946348216849, 39.48389531860429], [-105.89211210991522, 39.484216158507834], [-105.90588672646325, 39.4596732945217], [-105.91163833739354, 39.45683408111995], [-105.93924480215638, 39.458130504301714], [-105.94397918421511, 39.4408379568802], [-105.96662498938396, 39.43851618344285], [-105.95476151614501, 39.42626830958645], [-105.95160641008496, 39.41465297883805], [-105.95903574787755, 39.41568724208548], [-105.98129432795497, 39.406385971499994], [-105.98463509063139, 39.40181854681215], [-105.9926356823845, 39.40173149254277], [-105.99653957106476, 39.39456302844798], [-106.01423281046033, 39.3869808928703], [-106.01866093078756, 39.38091993352507], [-106.01720910686305, 39.36544768671178], [-106.02257032434389, 39.36135976310151], [-106.05653675980865, 39.35870327754487], [-106.07340899652674, 39.36834483868906], [-106.08549267379131, 39.369781404425765], [-106.09701595503215, 39.37796733927906], [-106.11952667604015, 39.376451256283005], [-106.13452763129156, 39.3796504472144], [-106.14353471525193, 39.36839167811923], [-106.1619514604723, 39.36195129571675], [-106.17349033646646, 39.3685116884768], [-106.1815204342834, 39.36611729117997], [-106.19796440368135, 39.36832928943027], [-106.20973896526674, 39.38231145042278], [-106.21769802790426, 39.38323085000994], [-106.22551821549041, 39.38136543564183], [-106.227143420553, 39.37422923451143], [-106.234254771803, 39.37242069739576], [-106.25111001149756, 39.35770419793863], [-106.25926349651202, 39.36205225074568], [-106.28394097015497, 39.349519407511885], [-106.30047507022033, 39.36004906527814], [-106.31201583088, 39.36228486500663], [-106.35242231376944, 39.35392980244536], [-106.37167120886167, 39.36198755331037], [-106.38058851070097, 39.376308991050976], [-106.39990938869522, 39.38109237885853], [-106.40469426864935, 39.37933913122285], [-106.4334767233405, 39.35405345937764], [-106.43495656212549, 39.341049797319236], [-106.4288336837765, 39.335333654018655], [-106.4270541247919, 39.323250728798115], [-106.43253276016522, 39.31621966938113], [-106.45117065443885, 39.31643459305349], [-106.45471035442483, 39.3121457753415], [-106.46581325914703, 39.31150724457443], [-106.46832237770307, 39.30726045176273], [-106.47645682202678, 39.315143490565454], [-106.4851163585835, 39.31265385012589], [-106.50253659637096, 39.29835491086588], [-106.50411679044794, 39.28489526490702], [-106.49012943487428, 39.27327154674295], [-106.48300830995403, 39.272560555586665], [-106.4810877370294, 39.259967275179115], [-106.49772081347275, 39.24198009855573], [-106.49880189908627, 39.235209234138274], [-106.4896514997021, 39.227822040083446], [-106.49398658241368, 39.21940086328219], [-106.49365352034401, 39.198345359837404], [-106.49996527936297, 39.18341221260737], [-106.50836850321292, 39.178015124638854], [-106.5113278115753, 39.16341359915744], [-106.52125660833968, 39.15740952814615], [-106.53496694593755, 39.16310454862361], [-106.53881367481631, 39.157944201372786], [-106.5518386751075, 39.16150959242478], [-106.56173172611008, 39.15493880858039], [-106.55886152613232, 39.14390197372088], [-106.56481212198287, 39.13278204374154], [-106.55818727583289, 39.12103974048406], [-106.56481894019588, 39.11319548311357], [-106.56364862762014, 39.10641888098904], [-106.57554782685794, 39.10414342996525], [-106.58635614884565, 39.09571616321135], [-106.5851216480496, 39.08431881956267], [-106.57698595416933, 39.07940422674526], [-106.57783968876086, 39.052445825859394], [-106.58456036359208, 39.046715625628025], [-106.59731398103932, 39.044606964930274], [-106.59973422477275, 39.03452332284272], [-106.5914234600234, 39.02551810365233], [-106.59460236065868, 39.00280820057465], [-106.60344842340099, 38.99665922693262], [-106.6130063866329, 38.9957836254638], [-106.63006804301011, 39.01220273691527], [-106.63765302650208, 39.01457439097792], [-106.63830481712277, 39.01929577994959], [-106.64842088208117, 39.022180781461444], [-106.64681464494582, 39.033106233371186], [-106.6552055735545, 39.04415146239354], [-106.6646859879229, 39.04188100902637], [-106.67447408425927, 39.04587893127066], [-106.6848794615364, 39.045186150738374], [-106.69669826784447, 39.05573721101254], [-106.7065132220112, 39.054440634235476], [-106.71033581675151, 39.04762679143386], [-106.74966863051843, 39.04276813236279], [-106.74469385389976, 39.02665145887107], [-106.761815680333, 39.01930647784536], [-106.76874118362544, 39.00761091924263], [-106.7825088490098, 38.99930429850333], [-106.78463405725782, 38.98626653129469], [-106.79628729148261, 38.98433368323527], [-106.80396354111252, 38.97814213075731], [-106.81697961664138, 38.98132812991715], [-106.82730831282751, 38.977647934987125], [-106.84578481577721, 38.98630030181626], [-106.86135440190853, 39.00964218518728], [-106.87660294273371, 39.00718931784556], [-106.87797947885426, 38.99444514642914], [-106.88438780317301, 38.99051276524099], [-106.90805687838369, 38.99252080858376], [-106.91034020269815, 39.00082110843144], [-106.9178322644571, 38.99934991632923], [-106.93457845226946, 39.005552993021716], [-106.94546555920252, 39.01483291048876], [-106.96405618682086, 39.017087974748456], [-106.96377174337096, 39.02878543777427], [-106.9675400789698, 39.03095644400233], [-106.97278915705878, 39.028635659950794], [-106.99600862007986, 39.03397310407111], [-107.01098972166517, 39.02719288795318], [-107.02137024525332, 39.013835620395554], [-107.04068916581859, 39.01776096060634], [-107.04590398395926, 39.015561231836195], [-107.04621543435985, 38.98837233730483], [-107.05146762151804, 38.9849641488254], [-107.06536525246275, 38.98836803197661], [-107.0664535165137, 38.993151178215115], [-107.08482944767745, 39.00041030275757], [-107.09525949448889, 39.010725025403765], [-107.10345311623024, 38.99176902217147], [-107.1175174960513, 38.99466389259397], [-107.12517850306743, 38.991055364730926], [-107.14334416108103, 38.996168642145925], [-107.1538441174828, 38.993832507510525], [-107.16594393298146, 39.004513647640906], [-107.17822643436784, 39.03033927001971], [-107.1893701630281, 39.03284102529343], [-107.2133337041923, 39.03170161185185], [-107.23244580203642, 39.01988123471304], [-107.2508894850372, 39.028648473677855], [-107.25755298479555, 39.02645832890552], [-107.27657550353787, 39.03020060833728], [-107.2817527550317, 39.03650253931468], [-107.277370463157, 39.04105708493098], [-107.27836817882391, 39.05412876578449], [-107.28701851124222, 39.06379717235786], [-107.2769191010492, 39.08993177782898], [-107.28177993535724, 39.09511930422174], [-107.28314613276719, 39.112775570497796], [-107.28801834962819, 39.114544648008454], [-107.28180952855763, 39.11935549490232], [-107.28377024898892, 39.128368686667805], [-107.29566533663767, 39.15380402308224], [-107.31891257466903, 39.16550789104281], [-107.33282359949465, 39.166181591899914], [-107.3534526122905, 39.173035422480964], [-107.35958370393611, 39.184751486505405], [-107.3766338978103, 39.19879622419643], [-107.38063207006951, 39.210066377012055], [-107.37697942400455, 39.22021562648527], [-107.37929810421194, 39.231117053415815], [-107.37148629790738, 39.23904707702181], [-107.37691129397676, 39.24627902850838], [-107.39048569940418, 39.25064081272661], [-107.39442181604356, 39.25632597847242], [-107.40026389630611, 39.25301765727938], [-107.4266956692062, 39.25769352475424], [-107.43038537347157, 39.25662759364742], [-107.43047287836339, 39.24037530565417], [-107.46383728628092, 39.22839186585957], [-107.47470332143239, 39.22909150395776], [-107.48404502424283, 39.23544215962737], [-107.49455253098458, 39.21857292583743], [-107.51060996968882, 39.216263693350754], [-107.52861911962037, 39.203304167767676], [-107.52357650402807, 39.197862393089736], [-107.54293716571132, 39.19584385334273], [-107.54270850584396, 39.182216431295075], [-107.55922140566861, 39.17825164647565], [-107.56885211267561, 39.18126391596278], [-107.59333444618773, 39.16490307241062], [-107.6191157148546, 39.15489601211914], [-107.63248109758675, 39.1408982629952], [-107.6386476187872, 39.14167366460889], [-107.65116949424733, 39.13090128710157], [-107.6627661202362, 39.11640788043088], [-107.65978988222399, 39.11238461344107], [-107.67052534994382, 39.10821441231192], [-107.6738927413802, 39.10124766900364], [-107.68017729312415, 39.10036188138903], [-107.68780492054097, 39.08807231419178], [-107.70940735047363, 39.0828623204167], [-107.72107881331218, 39.06487377402724], [-107.72942190303868, 39.06629542240277], [-107.73266338660487, 39.06292763627618], [-107.73858836699509, 39.065994559390234], [-107.74431600458537, 39.06235063825756], [-107.74330936864767, 39.0580419443979], [-107.75583616418061, 39.05389305329626], [-107.76563636172219, 39.04345214497753], [-107.77118622541269, 39.043703942687614], [-107.79487514979789, 39.06188129086568], [-107.83956608185792, 39.077068317914865], [-107.85552718253615, 39.07665096143806], [-107.85889930719576, 39.08007358363032], [-107.90743095840527, 39.06082694123333], [-107.91694980180323, 39.064671741232736], [-107.95139674521518, 39.059649042141345], [-107.97428433284104, 39.0612708606765], [-107.98320123313339, 39.05943315390023], [-107.9885886670475, 39.05180368582948], [-107.99455744210445, 39.054096415845], [-108.00063079543351, 39.05099388146481], [-108.02483327588686, 39.05434759312752], [-108.04643380049279, 39.046205457836976], [-108.0612780275749, 39.04735899165236], [-108.08067462546278, 39.03567535531649], [-108.10456881758533, 39.03158713127627], [-108.1164514572792, 39.04360227024581], [-108.12527938303592, 39.04230685423313], [-108.13309090187961, 39.03216383984806], [-108.16050469598026, 39.039650776650326], [-108.18889339842116, 39.05863427405691], [-108.20719737722558, 39.049510084683156], [-108.24633208911617, 39.05149488430262], [-108.26095694760589, 39.04088032234175], [-108.27713644040777, 39.040349200931544], [-108.30711997497315, 39.022679248681925], [-108.33518780458442, 39.01218127754841], [-108.35974929314783, 39.014960761377274], [-108.3662316880533, 39.02235857347102], [-108.36461098265198, 39.02802199191633], [-108.38262505445299, 39.02750926131763], [-108.38835007165758, 39.03233425400025], [-108.39512762332103, 39.021192667170055], [-108.40700820048299, 39.0164913511447], [-108.41160711480028, 39.02091373175394], [-108.42520036688234, 39.02245180257255], [-108.42901382755282, 39.01579333042021], [-108.43770266086591, 39.01908256778516], [-108.4454836935838, 39.01487473248336], [-108.44923554689379, 39.017009291619324], [-108.46997049531615, 39.01416210657598], [-108.47522242196287, 39.01689422260255], [-108.48144482196727, 39.0138728676872], [-108.49743372640184, 39.015788576571985], [-108.50873835949916, 39.02130151219295], [-108.50874559902205, 39.032577446282545], [-108.52272390586583, 39.04640562559351], [-108.562081425998, 39.04989094959456], [-108.57909863283663, 39.06298414148902], [-108.58534929294153, 39.062994268494045], [-108.58784161120515, 39.05740365414063], [-108.60179059254648, 39.05085144154105], [-108.60469929611394, 39.040396304947485], [-108.61851445003748, 39.022741350434146], [-108.60758693957789, 39.02003337192414], [-108.61144825799515, 39.01819552329368], [-108.60726440037347, 39.00342182148285], [-108.61067306490555, 38.99381055593719], [-108.62145315733544, 38.990903521273964], [-108.635147834603, 38.99635276342708], [-108.67163971191083, 38.98231912924179], [-108.6877092949394, 38.95863068321914], [-108.70811906041541, 38.94650488669109], [-108.7084306994622, 38.943010023810416], [-108.71178060608989, 38.948209342810145], [-108.70410992691309, 38.95211161667931], [-108.70106348556143, 38.962182201337264], [-108.71494510044293, 38.97250525750627], [-108.71009753245504, 38.99529889293882], [-108.71370857484425, 38.99926606825306], [-108.72371362869477, 39.000265668607184], [-108.73188667991444, 39.00874215747559], [-108.74049387163954, 39.007168478921415], [-108.74248127023816, 39.013581557382906], [-108.75500198866821, 39.014944023249875], [-108.75084749697314, 39.04553970695125], [-108.77097838675739, 39.0558135546258], [-108.76569210853422, 39.06361370098472], [-108.78095195465724, 39.06819829803613], [-108.79009254893009, 39.077226496656216], [-108.79566893987092, 39.093488601044946], [-108.81341598386045, 39.0918315047347], [-108.82965438009381, 39.09680955787679], [-108.84444557603145, 39.092437982361794], [-108.84984196704727, 39.08780841765693], [-108.85053672768126, 39.08001339554207], [-108.87444262215702, 39.07817457909142], [-108.87527457529785, 39.07187698809046], [-108.8885667480293, 39.06366664006197], [-108.90390464966568, 39.0633678220645], [-108.92964855380662, 39.05009373556771], [-108.9377843033824, 39.058081933478334], [-108.95530313037399, 39.057490397188104], [-108.96681444875023, 39.06730502171052], [-108.98209391407907, 39.06947775398589], [-108.99491229826167, 39.077572071602944], [-109.02195980430525, 39.07617496835551], [-109.03529763840258, 39.08009381530173], [-109.04054110291935, 39.07410751464771], [-109.05186280358254, 39.07821638550303], [-109.05139931112097, 39.16238806009909], [-109.03500133539434, 39.17546899906852], [-109.04072743596716, 39.18213311090724], [-109.0406788200423, 39.190499752660166], [-109.03171188179199, 39.191278246157246], [-109.02608236089198, 39.19813198481298], [-109.03703733734137, 39.20983253135147], [-109.03662546966508, 39.214936632769714], [-109.02471583829188, 39.22612059543862], [-109.02051842329591, 39.24983081317851], [-109.00915197892051, 39.26317733748855], [-109.01388390318861, 39.27456717330347], [-109.00780091632645, 39.291798601570385], [-109.01422319687143, 39.311169799933964], [-109.04042365268755, 39.35137625614004], [-109.04608068808639, 39.35067040667727], [-109.0507752371796, 39.363379970359354], [-109.05132294616573, 39.49766906519126]]]}}, {"id": "2", "type": "Feature", "properties": {"extent_id": "crd_district", "label": "Colorado River District", "areasqkm": 75447.0, "source": "Colorado DOLA - All Active Districts (lgid 64046)", "pulldate": "2026-08-27", "caveat": "Official district boundary. VERIFY against the district's own published map (coloradoriverdistrict.org/map-gallery/) - a county reconstruction was rejected 8/27/26 for visibly overshooting it.", "label_lon": -107.422763, "label_lat": 39.492888}, "geometry": {"type": "Polygon", "coordinates": [[[-109.050956247, 39.36500584100001], [-109.050169577, 41.000490707000004], [-108.185638089, 41.00004945499999], [-106.858638038, 41.00256023300003], [-106.861438036, 40.99647096200006], [-106.850617566, 40.990862371], [-106.857537782, 40.981148937999954], [-106.861838144, 40.98365120599996], [-106.870499105, 40.981092419], [-106.873338742, 40.97332228799999], [-106.8699392, 40.956312574000044], [-106.863748584, 40.95300346400005], [-106.862378653, 40.941171543999964], [-106.851818069, 40.93303212700001], [-106.851448143, 40.924503287], [-106.829446652, 40.924323097000006], [-106.824956899, 40.93120407700001], [-106.806335279, 40.90648293699998], [-106.80956568, 40.89985213100002], [-106.800475167, 40.895904933999994], [-106.781243715, 40.906886850000056], [-106.769223159, 40.904144415999966], [-106.770173415, 40.89677498499998], [-106.740981463, 40.88969346000004], [-106.746791832, 40.882237191999984], [-106.739441835, 40.87169654999996], [-106.70939988300002, 40.874834654000004], [-106.69445882, 40.88783731699996], [-106.686028194, 40.885663902999994], [-106.67976785400002, 40.86977531499998], [-106.668497204, 40.86518727600003], [-106.667337009, 40.85949755600001], [-106.654616175, 40.84901539900003], [-106.654126433, 40.84577957500001], [-106.662506687, 40.843425104999994], [-106.663526949, 40.82786719099997], [-106.659067098, 40.82369769300004], [-106.644095731, 40.82136731400001], [-106.635805755, 40.81186915100004], [-106.636995783, 40.78976914], [-106.648406692, 40.78162104999998], [-106.649276666, 40.77550116599999], [-106.660377437, 40.77199095599999], [-106.669968083, 40.761421233999975], [-106.6616075, 40.75365088500001], [-106.665357901, 40.749088287], [-106.663008043, 40.743289447000016], [-106.677048744, 40.73588880300004], [-106.670498293, 40.73223193599997], [-106.674008749, 40.72424944699997], [-106.670028716, 40.72048318300001], [-106.668878746, 40.71088365899999], [-106.672678719, 40.70695065499998], [-106.668008633, 40.69631208], [-106.673609119, 40.68801108299999], [-106.687480002, 40.682674478999985], [-106.681080125, 40.67524155600004], [-106.68738059, 40.67231205800004], [-106.685660411, 40.66326146299997], [-106.692380628, 40.657451960999936], [-106.68843069200001, 40.65021317000001], [-106.680530112, 40.64787371900003], [-106.68898079, 40.639724102000045], [-106.687140874, 40.63429653099999], [-106.703642057, 40.62745569800002], [-106.706292285, 40.61607521999999], [-106.694131786, 40.594075977000024], [-106.702192404, 40.57756689900002], [-106.692612183, 40.56405562599998], [-106.692632187, 40.55601541300005], [-106.670290441, 40.534675579000044], [-106.673070879, 40.521960565000036], [-106.655759634, 40.50894960900005], [-106.653079592, 40.49420966399999], [-106.659230028, 40.489919073], [-106.65599993800001, 40.48468196800002], [-106.667270373, 40.47307014500001], [-106.66516016000001, 40.470452079999994], [-106.658439922, 40.471859457000015], [-106.65419951200002, 40.46743852200002], [-106.659399552, 40.458702324], [-106.650908955, 40.455499794], [-106.650508771, 40.43974963400001], [-106.639008169, 40.43229208200002], [-106.622496904, 40.430331461], [-106.628967604, 40.418813101], [-106.619566569, 40.40523415000002], [-106.612016431, 40.37917416700002], [-106.600935318, 40.37584630300001], [-106.594631559, 40.38257278199997], [-106.561852848, 40.378425820999986], [-106.553032206, 40.36993686099998], [-106.539851374, 40.371284271000015], [-106.534941048, 40.36496689300002], [-106.529800877, 40.368755616], [-106.526520442, 40.38446508900003], [-106.518909579, 40.39091645400003], [-106.512179503, 40.38650483000002], [-106.510559199, 40.39314289899997], [-106.488797614, 40.41144254999996], [-106.477377083, 40.40440464300003], [-106.48120742, 40.38972552200005], [-106.473737043, 40.38727601800002], [-106.473127008, 40.379504759999996], [-106.466406938, 40.378216352], [-106.46327674, 40.367765330000005], [-106.45738603400001, 40.364677656999994], [-106.457936423, 40.35846817899995], [-106.443155422, 40.34651425799997], [-106.439065049, 40.350308387], [-106.422104609, 40.35280643999999], [-106.410033827, 40.35012548400004], [-106.404253143, 40.34498422799996], [-106.390152354, 40.345776210999986], [-106.38546197, 40.352435956000015], [-106.356780357, 40.35793358299994], [-106.337319164, 40.339786722], [-106.32118836, 40.337255942999995], [-106.30565769200001, 40.32850450400001], [-106.295736714, 40.333156560000006], [-106.29823708, 40.35009677], [-106.292316241, 40.35702335100002], [-106.286216013, 40.35875799300005], [-106.277665889, 40.35382582000001], [-106.265854628, 40.36087453600001], [-106.253584452, 40.350377711999954], [-106.25110424, 40.34099475900001], [-106.238983412, 40.327737966], [-106.230543268, 40.323188475000016], [-106.217462058, 40.32904758199999], [-106.189180232, 40.32649498399999], [-106.170859171, 40.344015155], [-106.162538829, 40.34280631099999], [-106.14935802, 40.33198764500002], [-106.136132393, 40.33017687], [-106.133857072, 40.33634782599994], [-106.101704965, 40.35384772], [-106.084913782, 40.347578539000004], [-106.019060129, 40.37327664699995], [-106.011819395, 40.370236628999955], [-106.011169804, 40.36218826199997], [-105.986028007, 40.36434680300001], [-105.970956954, 40.350235545000025], [-105.961026384, 40.34787704099998], [-105.954295582, 40.360378769999976], [-105.938474641, 40.36605780999998], [-105.937374671, 40.371994662999995], [-105.947225069, 40.377684679], [-105.946267479, 40.384755581000036], [-105.924893742, 40.39264472200003], [-105.920513233, 40.401625612999986], [-105.903381907, 40.400274248], [-105.897811929, 40.41752480099996], [-105.90350209000002, 40.43189480700001], [-105.897251405, 40.44871362800006], [-105.89918141, 40.46569394100002], [-105.891661178, 40.47665295599997], [-105.862789305, 40.480074757], [-105.855318562, 40.48657615200002], [-105.807055532, 40.47396394700003], [-105.810895695, 40.47104520100001], [-105.804425477, 40.463793176], [-105.805955698, 40.44718353199998], [-105.815906205, 40.43731647300001], [-105.817396334, 40.42457627100003], [-105.79086470500002, 40.398535538], [-105.78704460600001, 40.38060655399999], [-105.758403031, 40.352536388], [-105.736661585, 40.346609267000034], [-105.728450909, 40.33449890999997], [-105.713110331, 40.325540287], [-105.702109583, 40.32440935799999], [-105.697888855, 40.31864649800002], [-105.70244921800001, 40.31217732899998], [-105.690268612, 40.308318116], [-105.691348576, 40.305059341000046], [-105.685988456, 40.30265875699998], [-105.687738513, 40.294107620000034], [-105.681818314, 40.292070538], [-105.686688577, 40.28860020300004], [-105.680778143, 40.28426113199995], [-105.68260869, 40.27247074000002], [-105.676197809, 40.26723795599999], [-105.666257305, 40.26709741800004], [-105.654446617, 40.261250211], [-105.643965994, 40.24989872399994], [-105.659937089, 40.248961871999995], [-105.669057313, 40.224498724], [-105.663406723, 40.220161711], [-105.670537647, 40.21907103500001], [-105.67070735, 40.207601129000025], [-105.677657876, 40.20240277000002], [-105.677667801, 40.189163418], [-105.670467233, 40.184790731000014], [-105.667846734, 40.15844428199999], [-105.65600608, 40.15122331900001], [-105.635894784, 40.14609199899997], [-105.626233898, 40.12744093900001], [-105.626393833, 40.118691824], [-105.636634477, 40.106941613000004], [-105.632044578, 40.096565230000024], [-105.635024341, 40.07533588699999], [-105.64082478700001, 40.07309659400001], [-105.63894467200001, 40.06705253000003], [-105.64641461, 40.06540288000001], [-105.651065212, 40.058403406999965], [-105.637754444, 40.04614325999997], [-105.640884486, 40.034526086000035], [-105.651484986, 40.02598437700002], [-105.652124971, 40.020926352000046], [-105.66157542600001, 40.01627785199996], [-105.689647072, 40.01379420200002], [-105.691427125, 39.99758419599999], [-105.683086982, 39.992908065999956], [-105.690387408, 39.97001616399995], [-105.685286581, 39.95875722999996], [-105.694377112, 39.95036910399995], [-105.693847009, 39.942727491000035], [-105.682786514, 39.93365723900005], [-105.67549350000002, 39.932672843000006], [-105.69124720600001, 39.89732907399998], [-105.699777195, 39.89146656300001], [-105.700867519, 39.87879661599996], [-105.690656662, 39.852098489], [-105.695857257, 39.83922826500002], [-105.713138068, 39.83795203300002], [-105.73630922, 39.80529940199999], [-105.764471318, 39.794760315000005], [-105.784542782, 39.802248788], [-105.798643442, 39.80327882500003], [-105.808404293, 39.79744036099998], [-105.810834112, 39.79127862200003], [-105.824265242, 39.78606182200003], [-105.851036938, 39.78864815100001], [-105.855017087, 39.79611966799998], [-105.875409029, 39.79917966299996], [-105.887519369, 39.79701989099996], [-105.89248000900001, 39.782372241], [-105.880489184, 39.75938931599999], [-105.884729092, 39.75235181300001], [-105.883479056, 39.737220019], [-105.89125954000001, 39.730430071000015], [-105.907730873, 39.726901154], [-105.911841255, 39.71531358700001], [-105.924341689, 39.70431258500005], [-105.91951142, 39.690470940999944], [-105.92654229400001, 39.67323283700007], [-105.911071203, 39.66235391200003], [-105.897000449, 39.664553777], [-105.893439768, 39.65910306800001], [-105.885259522, 39.656971741999996], [-105.879429426, 39.66350333000001], [-105.865108328, 39.66720143799999], [-105.84902724, 39.64430367899994], [-105.841406643, 39.646143144000014], [-105.834826208, 39.64192431099998], [-105.821105679, 39.64258525000004], [-105.81731500000001, 39.63351169], [-105.793023636, 39.636103811], [-105.782742806, 39.628731101000014], [-105.782762794, 39.618062853000005], [-105.775912458, 39.60528272300002], [-105.800094368, 39.59345492799998], [-105.808094426, 39.583483749000024], [-105.82615565400002, 39.580261719999946], [-105.838506896, 39.572406378000025], [-105.830025956, 39.56596634599999], [-105.825816136, 39.555602946], [-105.815875205, 39.55189332699998], [-105.823066081, 39.529884425999995], [-105.830716751, 39.53195644599998], [-105.845317239, 39.52389504099999], [-105.859398267, 39.53174341500003], [-105.868168729, 39.519275504999996], [-105.854577913, 39.505144338], [-105.863318528, 39.502854195999994], [-105.866718822, 39.49431407800003], [-105.87466946, 39.493533706000015], [-105.879019939, 39.483837259999994], [-105.891890542, 39.484356444999946], [-105.90592194, 39.45969461800001], [-105.911531808, 39.45679447900001], [-105.939113696, 39.458246453000015], [-105.944144165, 39.44079758400001], [-105.966735572, 39.43829630500002], [-105.954944982, 39.426319723999974], [-105.952234711, 39.41420935200001], [-105.976625931, 39.408578325999976], [-105.985206481, 39.40162648500003], [-105.992117201, 39.40195970600002], [-105.996857433, 39.394300835999964], [-106.014718109, 39.38637038300003], [-106.01865869400001, 39.38060077700002], [-106.017208363, 39.36576866799997], [-106.022309125, 39.36137189699994], [-106.056220511, 39.358541588000016], [-106.073301137, 39.368260792999976], [-106.085551871, 39.36967891999998], [-106.096682579, 39.37768846100002], [-106.225889678, 39.38007058099995], [-106.22687964100001, 39.37432053699996], [-106.234209693, 39.372580599], [-106.251110405, 39.35766814399997], [-106.25895101, 39.36197162900003], [-106.283691681, 39.34953733700003], [-106.295142231, 39.35282988500001], [-106.30304307, 39.36113931799995], [-106.312533282, 39.362280594999994], [-106.339704522, 39.358907412999955], [-106.351715231, 39.35363714000001], [-106.357595429, 39.35496978399999], [-106.371096259, 39.36070871999996], [-106.380366889, 39.376069743999956], [-106.403337987, 39.38010634199996], [-106.433339085, 39.35440832099997], [-106.434999324, 39.34108872], [-106.42878871, 39.335258900000035], [-106.426988462, 39.323148627000016], [-106.43285867700001, 39.316251203], [-106.450680055, 39.316521507], [-106.468360652, 39.307938249999985], [-106.473090691, 39.30837855200001], [-106.476720797, 39.314630735], [-106.484511493, 39.31277913500002], [-106.501791936, 39.299668262999994], [-106.504211844, 39.284878177000024], [-106.491081433, 39.273829262999975], [-106.483131239, 39.272200831000035], [-106.481211024, 39.259921658999986], [-106.49726136, 39.243020188999985], [-106.49906136, 39.23527966200001], [-106.490051242, 39.228223031000034], [-106.49408126900002, 39.21951241000002], [-106.49365099500001, 39.19828490800004], [-106.499771418, 39.18378505400001], [-106.508171984, 39.178126175], [-106.511212013, 39.16344479600004], [-106.521592349, 39.15775474700001], [-106.534113242, 39.16301486499997], [-106.538173577, 39.157915484], [-106.552034433, 39.161434953], [-106.561274738, 39.155675475], [-106.55969461, 39.13942377500001], [-106.564914756, 39.132375187999955], [-106.558054402, 39.12347466199999], [-106.564714677, 39.114365941], [-106.56344461000002, 39.106926806000004], [-106.578235754, 39.10275834400004], [-106.586275722, 39.095918370999996], [-106.585335783, 39.084636493999994], [-106.576985308, 39.07944705300002], [-106.57779516200002, 39.05238644599998], [-106.58471569700001, 39.04659791699996], [-106.597216445, 39.04471986399998], [-106.599866562, 39.03484850500003], [-106.591406008, 39.02536799799995], [-106.594915913, 39.02148153599995], [-106.594646128, 39.002788219000024], [-106.599486416, 38.99792830899999], [-106.59564623, 38.991308516999986], [-106.577364927, 38.99037224399997], [-106.554453706, 38.99863170899998], [-106.55142367, 38.991909533000026], [-106.528672123, 38.980739267999994], [-106.521971991, 38.96863986899999], [-106.528562046, 38.96013318499996], [-106.526102004, 38.954822008999955], [-106.507271096, 38.94603346900002], [-106.504550959, 38.93708482300002], [-106.465038767, 38.91035223899996], [-106.43695715900002, 38.91493191999996], [-106.430857066, 38.924364657000034], [-106.420996423, 38.92810299500001], [-106.41533595, 38.91842198599998], [-106.403245453, 38.91063386699998], [-106.39405526500002, 38.912235280999994], [-106.392594864, 38.91830355000003], [-106.381074487, 38.92581586199999], [-106.372393897, 38.90654474400003], [-106.357233252, 38.91288548399997], [-106.34552253, 38.907114377000006], [-106.334372075, 38.91184247000002], [-106.325571529, 38.90931603699996], [-106.320620863, 38.89425619599995], [-106.327331257, 38.88244325899996], [-106.333711951, 38.881244163000034], [-106.33648189, 38.87175542499998], [-106.349322446, 38.86473684000005], [-106.349132504, 38.854935026999954], [-106.364893641, 38.85287758399995], [-106.36468360600001, 38.84610823899995], [-106.37054348500001, 38.838046819999995], [-106.37920417, 38.835647055999964], [-106.383654608, 38.82447477999994], [-106.395144681, 38.82240523200001], [-106.407235611, 38.82929781099997], [-106.415906104, 38.82458389000003], [-106.41543589, 38.81481711500003], [-106.423066343, 38.808177878], [-106.412965746, 38.791828247999966], [-106.419655947, 38.766457500000016], [-106.415305843, 38.757679368000026], [-106.419976324, 38.75073820399996], [-106.415636042, 38.729150562999976], [-106.423516334, 38.72174680199997], [-106.424946617, 38.711411571999996], [-106.443377516, 38.709788735000004], [-106.451538193, 38.69827954399999], [-106.4378077, 38.68436919099999], [-106.429347083, 38.652032423999955], [-106.41766656700001, 38.64496104599997], [-106.408046067, 38.647780646999976], [-106.40215562100002, 38.645868921], [-106.40073533, 38.640938736999956], [-106.37972442, 38.63862023299999], [-106.384975068, 38.624532026], [-106.363933939, 38.614672979000005], [-106.360323766, 38.59414198599999], [-106.344183321, 38.56771319299998], [-106.354674075, 38.54211228700003], [-106.353614012, 38.53309502899998], [-106.342233289, 38.52133534600006], [-106.34750355, 38.51240295600003], [-106.343803444, 38.50356458600002], [-106.32967283500001, 38.493515787], [-106.327162529, 38.497603969000004], [-106.311661872, 38.49487688300001], [-106.303941472, 38.477714866999946], [-106.290421046, 38.473408344], [-106.28898087800002, 38.46205600000002], [-106.280710792, 38.45444622799998], [-106.272610073, 38.45523742299997], [-106.26926980900001, 38.444225313999986], [-106.245439102, 38.439276806999985], [-106.252456668, 38.40900039600002], [-106.24359894, 38.372131338999985], [-106.252037046, 38.34820938100001], [-106.254798894, 38.34537887200001], [-106.293327336, 38.341613760999984], [-106.318626406, 38.333366389], [-106.338867189, 38.31078338600005], [-106.339370722, 38.28263091600002], [-106.376380922, 38.291599265], [-106.388526917, 38.28022384399999], [-106.447349548, 38.28195190200003], [-106.45465088, 38.28574370500001], [-106.471130373, 38.312313080000024], [-106.47908020300001, 38.31698226000003], [-106.490699768, 38.315147397], [-106.51113892, 38.30478286000003], [-106.544860845, 38.25711058900002], [-106.56401061500002, 38.24542998399997], [-106.566078185, 38.22446441399999], [-106.584777827, 38.20644377800002], [-106.586936946, 38.195461267000006], [-106.605270384, 38.172004695999966], [-106.604408267, 38.15116118800006], [-106.615043636, 38.143909451999995], [-106.617843629, 38.12518309899997], [-106.660743716, 38.10205077700002], [-106.68733215, 38.08050155199997], [-106.70189667, 38.07942962600002], [-106.728446958, 38.09055328300002], [-106.753883365, 38.085834496999986], [-106.813308715, 38.024707788999976], [-106.786437983, 38.00090789800001], [-106.789916989, 37.99258804200002], [-106.802948003, 37.98657607400004], [-106.807731625, 37.98001098300001], [-106.811897272, 37.95668029600003], [-106.847763056, 37.95103072699998], [-106.863693242, 37.937168115999995], [-106.879545546, 37.949707044000036], [-106.879385143, 37.960744530000014], [-106.889015854, 37.96140579600002], [-106.893766123, 37.96671842000003], [-106.907136507, 37.96324460999997], [-106.920427481, 37.96695742200003], [-106.943618491, 37.953085912999995], [-106.95239930100001, 37.95684704000003], [-106.95201873, 37.96161602599998], [-106.96753979600001, 37.974775715000014], [-106.977360252, 37.969064327], [-106.986830598, 37.96922460100005], [-106.988990682, 37.96122632600002], [-107.005881641, 37.955676647000004], [-107.008771739, 37.946065994], [-107.026142455, 37.95404517799994], [-107.038383026, 37.94830505600002], [-107.05562413, 37.95169520000002], [-107.06070478, 37.95908586199996], [-107.067544787, 37.96107450200002], [-107.074025357, 37.953764690000035], [-107.084985988, 37.95322843600001], [-107.091626121, 37.949046336000045], [-107.103206517, 37.95479639900002], [-107.110446943, 37.943276182], [-107.129968122, 37.93744530100003], [-107.137571954, 37.93891590300004], [-107.141860963, 37.92873000999995], [-107.149726865, 37.92473220500001], [-107.167663571, 37.929805746999996], [-107.184013372, 37.929500575999995], [-107.197921753, 37.93566513000001], [-107.226959232, 37.92568205999996], [-107.252746584, 37.93400191900002], [-107.265586848, 37.93385314400001], [-107.282318119, 37.923526762000016], [-107.292976381, 37.90304183699999], [-107.335853573, 37.86876296799999], [-107.348007196, 37.85274123599999], [-107.351982122, 37.851188658999966], [-107.375427245, 37.85959243400005], [-107.397827144, 37.85488128200003], [-107.42025757000002, 37.857883449999996], [-107.447921751, 37.84609222299998], [-107.469047544, 37.854598997000004], [-107.491867071, 37.840763087999996], [-107.507591251, 37.83999251600006], [-107.516985513, 37.82636974800004], [-107.51639569, 37.83442015399998], [-107.522555562, 37.84200844400003], [-107.518175216, 37.85708748300003], [-107.536716548, 37.879387729], [-107.533416148, 37.889348293999994], [-107.528535968, 37.89033635300002], [-107.52067560800002, 37.901417235000046], [-107.528756027, 37.906708908999995], [-107.529815768, 37.91505720999998], [-107.536686117, 37.92074826800001], [-107.538176257, 37.93357456800002], [-107.532696196, 37.940275130999986], [-107.537156274, 37.94716686799998], [-107.56214675500001, 37.954775213999994], [-107.569067239, 37.96525237000001], [-107.641779598, 37.96486184099999], [-107.64310996, 37.935894328], [-107.63776983600002, 37.92157466900003], [-107.646939975, 37.91689484499994], [-107.650830484, 37.909517602999976], [-107.660910542, 37.90929448700004], [-107.663970621, 37.903386329000014], [-107.68861165, 37.901685805], [-107.694442018, 37.89331670899998], [-107.70086206, 37.89206567600003], [-107.707292622, 37.89396775499996], [-107.709482476, 37.89931466200002], [-107.721562899, 37.89761660600004], [-107.737773547, 37.90484526500003], [-107.732882983, 37.929882037], [-107.749133558, 37.952952899], [-107.765794128, 37.96080212999999], [-107.780364742, 37.96171085200002], [-107.795425526, 37.98813231899995], [-107.814516184, 37.990289656000016], [-107.824256813, 37.98788000000002], [-107.848528104, 37.992083136999995], [-107.842237644, 38.00555250899998], [-107.862518579, 38.009439132999994], [-107.88362972300001, 38.007702048], [-107.891060113, 38.01365984100001], [-107.891170044, 38.02508191299998], [-107.900120376, 38.02619929599999], [-107.88817981600002, 38.04559029400001], [-107.893800006, 38.057917360999994], [-107.896860172, 38.086809080999984], [-107.892199694, 38.086865408000016], [-107.891719848, 38.115767731999995], [-107.951773039, 38.115885816999985], [-107.951952998, 38.14495602600002], [-107.965743737, 38.14488312800001], [-107.965873732, 38.152344450999955], [-107.947302643, 38.15229428], [-107.947942605, 38.17407292799997], [-107.938312269, 38.174206376999955], [-107.938062172, 38.21879306099999], [-107.947282755, 38.218764451999974], [-107.947472585, 38.22615215800003], [-107.965803665, 38.22626214199998], [-107.96575366200001, 38.23365135500003], [-107.984514622, 38.233531268000036], [-107.984384838, 38.248040106999994], [-108.011466366, 38.248099994000015], [-108.011606519, 38.255430196000034], [-108.08673217100001, 38.255152157], [-108.086452206, 38.284341025999964], [-108.104373548, 38.28415153499997], [-108.104973578, 38.313690802999986], [-108.123514839, 38.31350887599997], [-108.123924863, 38.32086754399996], [-108.242382001, 38.320408554000004], [-108.242086121, 38.36438371000004], [-108.278218602, 38.36386918999997], [-108.278066442, 38.408301742999946], [-108.351545586, 38.40831866900002], [-108.351458975, 38.45979456999998], [-108.482212793, 38.459717150000024], [-108.482497802, 38.50006457900002], [-109.060074658, 38.500100829999994], [-109.050956247, 39.36500584100001]]]}}]}