{"type": "FeatureCollection", "features": [{"id": "0", "type": "Feature", "properties": {"name": "West Divide Water Conservancy District (Pitkin County portion)", "source": "Pitkin County GIS - Special Districts layer (BaseOverlay MapServer)", "pulldate": "2026-07-28", "srcurl": "https://maps.pitkincounty.com/arcgis/rest/services/BaseOverlay/MapServer/77", "caveat": "SUPERSEDED 7/28/26 by the full official WDWCD boundary from Colorado DOLA (data/clean/wdwcd.geojson). This file only covers the Pitkin County portion (~318 sq km) and is kept for reference/comparison only - not used in the final map."}, "geometry": {"type": "MultiPolygon", "coordinates": [[[[-107.31058, 39.20015], [-107.3074, 39.20017], [-107.30746, 39.20106], [-107.30594, 39.20109], [-107.30588, 39.20024], [-107.30298, 39.20025], [-107.3027, 39.19676], [-107.30564, 39.19675], [-107.30551, 39.19495], [-107.3079, 39.19493], [-107.30785, 39.19404], [-107.31487, 39.19393], [-107.31482, 39.19291], [-107.31924, 39.19284], [-107.31929, 39.19386], [-107.32428, 39.19379], [-107.32454, 39.19732], [-107.3105, 39.19754], [-107.31058, 39.20015]]], [[[-107.20993, 39.31337], [-107.21008, 39.3124], [-107.21086, 39.31127], [-107.21147, 39.30957], [-107.2115, 39.30628], [-107.2133, 39.30397], [-107.21344, 39.30032], [-107.21461, 39.2975], [-107.21468, 39.29568], [-107.21548, 39.29458], [-107.21998, 39.2918], [-107.22028, 39.29053], [-107.21903, 39.28908], [-107.2186, 39.28716], [-107.2183, 39.28711], [-107.21964, 39.28514], [-107.22188, 39.28325], [-107.2232, 39.27972], [-107.22339, 39.27686], [-107.22316, 39.27491], [-107.22584, 39.27146], [-107.22482, 39.26922], [-107.22707, 39.26743], [-107.22751, 39.26526], [-107.22722, 39.2647], [-107.22733, 39.26378], [-107.22893, 39.26298], [-107.23009, 39.26108], [-107.23122, 39.26033], [-107.23238, 39.25879], [-107.23362, 39.25598], [-107.23404, 39.25403], [-107.23363, 39.25265], [-107.23562, 39.24932], [-107.23538, 39.24773], [-107.23438, 39.24693], [-107.23437, 39.24604], [-107.23332, 39.24477], [-107.23308, 39.24362], [-107.23347, 39.243], [-107.23248, 39.24068], [-107.23291, 39.23979], [-107.23281, 39.23915], [-107.23137, 39.23679], [-107.22741, 39.23317], [-107.22698, 39.23042], [-107.22568, 39.22811], [-107.22622, 39.22514], [-107.22561, 39.22379], [-107.22454, 39.22266], [-107.22682, 39.22146], [-107.22713, 39.22092], [-107.22576, 39.21885], [-107.22561, 39.21773], [-107.22496, 39.21772], [-107.22511, 39.21641], [-107.22617, 39.21461], [-107.22633, 39.21353], [-107.22817, 39.21161], [-107.22912, 39.21108], [-107.22982, 39.20983], [-107.23061, 39.20959], [-107.23085, 39.20916], [-107.23084, 39.20679], [-107.23149, 39.20543], [-107.23088, 39.20377], [-107.23097, 39.20292], [-107.23267, 39.19959], [-107.23241, 39.19937], [-107.23246, 39.16974], [-107.2321, 39.15535], [-107.23135, 39.15536], [-107.23109, 39.1412], [-107.23917, 39.14109], [-107.23792, 39.11884], [-107.27412, 39.11888], [-107.27387, 39.14086], [-107.28464, 39.14072], [-107.28462, 39.15519], [-107.28543, 39.1825], [-107.28675, 39.19681], [-107.28668, 39.21107], [-107.28804, 39.22292], [-107.37715, 39.22199], [-107.37725, 39.22319], [-107.37831, 39.22431], [-107.3782, 39.22849], [-107.37905, 39.22923], [-107.37967, 39.23048], [-107.37958, 39.23154], [-107.37905, 39.23293], [-107.37573, 39.23705], [-107.37281, 39.23824], [-107.37211, 39.23906], [-107.37223, 39.23952], [-107.37549, 39.24165], [-107.37596, 39.24302], [-107.37593, 39.24496], [-107.37717, 39.24627], [-107.37867, 39.24684], [-107.38376, 39.24766], [-107.38514, 39.24844], [-107.38642, 39.25007], [-107.38977, 39.25044], [-107.39095, 39.25124], [-107.39174, 39.25236], [-107.39165, 39.25346], [-107.39213, 39.25448], [-107.39442, 39.25638], [-107.3943, 39.25824], [-107.39151, 39.26057], [-107.39119, 39.26354], [-107.39024, 39.26444], [-107.38462, 39.26764], [-107.38098, 39.26846], [-107.37797, 39.27029], [-107.37733, 39.27178], [-107.37812, 39.27482], [-107.37915, 39.27539], [-107.38365, 39.27601], [-107.38701, 39.27818], [-107.38998, 39.27914], [-107.39369, 39.27949], [-107.39393, 39.28029], [-107.39369, 39.28171], [-107.39413, 39.28228], [-107.39675, 39.28349], [-107.3969, 39.28582], [-107.39631, 39.28932], [-107.39761, 39.29188], [-107.39749, 39.29266], [-107.39693, 39.29337], [-107.39726, 39.29429], [-107.39858, 39.29486], [-107.39991, 39.29479], [-107.40373, 39.29298], [-107.40865, 39.29394], [-107.41274, 39.29215], [-107.41548, 39.2938], [-107.41772, 39.29437], [-107.42111, 39.29682], [-107.42794, 39.2983], [-107.4335, 39.2985], [-107.4376, 39.29962], [-107.43942, 39.30248], [-107.4391, 39.30349], [-107.43842, 39.30408], [-107.43772, 39.30557], [-107.4381, 39.30795], [-107.43881, 39.3087], [-107.44072, 39.30834], [-107.4429, 39.30872], [-107.44491, 39.30856], [-107.44605, 39.30788], [-107.44711, 39.30641], [-107.45011, 39.30463], [-107.45111, 39.30478], [-107.45335, 39.30586], [-107.45621, 39.3078], [-107.45671, 39.30924], [-107.45904, 39.31034], [-107.4609, 39.31285], [-107.46246, 39.31395], [-107.46426, 39.31425], [-107.46538, 39.31488], [-107.46388, 39.31619], [-107.46335, 39.31711], [-107.46406, 39.3201], [-107.46521, 39.32111], [-107.46556, 39.32209], [-107.46283, 39.32463], [-107.46295, 39.32669], [-107.46204, 39.32772], [-107.45739, 39.32891], [-107.45535, 39.32917], [-107.45412, 39.32878], [-107.45294, 39.32889], [-107.45147, 39.32953], [-107.45052, 39.33034], [-107.44994, 39.33265], [-107.44564, 39.33519], [-107.44332, 39.33862], [-107.44158, 39.33974], [-107.43902, 39.34075], [-107.43843, 39.34178], [-107.43852, 39.34405], [-107.43734, 39.34588], [-107.4359, 39.34675], [-107.43251, 39.34693], [-107.42995, 39.34858], [-107.43031, 39.35395], [-107.42881, 39.35581], [-107.42863, 39.35654], [-107.42931, 39.35864], [-107.42925, 39.35951], [-107.42831, 39.36068], [-107.42826, 39.36234], [-107.38273, 39.36308], [-107.38274, 39.36343], [-107.20253, 39.36601], [-107.20276, 39.36436], [-107.20247, 39.36226], [-107.20357, 39.35899], [-107.2035, 39.35732], [-107.20407, 39.35466], [-107.2057, 39.35244], [-107.2059, 39.35255], [-107.20653, 39.35179], [-107.20666, 39.35032], [-107.20885, 39.34871], [-107.20849, 39.34597], [-107.20899, 39.34408], [-107.2079, 39.34233], [-107.20827, 39.34009], [-107.20687, 39.33831], [-107.20674, 39.33748], [-107.20733, 39.33292], [-107.20828, 39.33138], [-107.20964, 39.32998], [-107.20957, 39.32905], [-107.20788, 39.32496], [-107.2082, 39.32327], [-107.20806, 39.32128], [-107.20843, 39.31963], [-107.21015, 39.31772], [-107.21048, 39.31666], [-107.20993, 39.31337]]], [[[-107.20765, 39.34598], [-107.20849, 39.34597], [-107.20853, 39.34737], [-107.20719, 39.34739], [-107.20765, 39.34598]]], [[[-107.20357, 39.35362], [-107.20455, 39.35179], [-107.2057, 39.35244], [-107.20452, 39.35387], [-107.20357, 39.35362]]]]}}]}